{
"type": "FeatureCollection",
"name": "andaman_and_nicobar_islands",
"crs": { "type": "name", "properties": { "name": "urn:ogc:def:crs:OGC:1.3:CRS84" } },
"features": [
{ "type": "Feature", "properties": { "pincode": "744304", "state": "Andaman & Nicobar Islands", "district": "Nicobars", "officename": "Kapanga", "officetype": "S.O" }, "geometry": { "type": "Polygon", "coordinates": [ [ [ 93.369469994644533, 8.017933778720987 ], [ 93.403717040609024, 8.004866599713864 ], [ 93.402595520367015, 7.967506885934199 ], [ 93.413078307717853, 7.953904151655308 ], [ 93.430137633944696, 7.95369243595718 ], [ 93.459259033477792, 7.929951667635464 ], [ 93.471611023030391, 7.882278442296354 ], [ 93.464050293086586, 7.866613388097448 ], [ 93.455726623285159, 7.865449905488902 ], [ 93.443702697421656, 7.890588283222826 ], [ 93.419250488019827, 7.899037838325683 ], [ 93.381980896201583, 7.875635624284769 ], [ 93.35680389438437, 7.882722377335995 ], [ 93.345581054921809, 7.903240680513022 ], [ 93.354042052998409, 7.918423652229876 ], [ 93.348861694511697, 7.922924518951504 ], [ 93.36170959452221, 7.929488658874504 ], [ 93.345695495450855, 7.943004131035877 ], [ 93.339370727177482, 7.921560287877128 ], [ 93.327232360784933, 7.91589689272746 ], [ 93.312553406015013, 7.945467472146163 ], [ 93.325447082416929, 7.96584081630067 ], [ 93.326835632058817, 8.000000000299906 ], [ 93.349517821890061, 8.010383605918832 ], [ 93.355369567451589, 8.003107070734814 ], [ 93.369469994644533, 8.017933778720987 ] ] ] } },
{ "type": "Feature", "properties": { "pincode": "744102", "state": "Andaman & Nicobar Islands", "district": "South Andaman", "officename": "Chatham", "officetype": "S.O" }, "geometry": { "type": "Polygon", "coordinates": [ [ [ 92.718924675833193, 11.663990778451762 ], [ 92.71550062855124, 11.677346754948815 ], [ 92.725946258613135, 11.688723403662209 ], [ 92.731339921000597, 11.665521743833438 ], [ 92.718924675833193, 11.663990778451762 ] ] ] } },
{ "type": "Feature", "properties": { "pincode": "744105", "state": "Andaman & Nicobar Islands", "district": "South Andaman", "officename": "Garacharama", "officetype": "S.O" }, "geometry": { "type": "MultiPolygon", "coordinates": [ [ [ [ 92.696643138470108, 11.507993764800574 ], [ 92.694320279557246, 11.565563388939324 ], [ 92.684495820226061, 11.583917047333841 ], [ 92.696548597240167, 11.604720540820324 ], [ 92.700844776465374, 11.601217787570874 ], [ 92.699340150427702, 11.610647252968363 ], [ 92.698649751684741, 11.606748662221094 ], [ 92.691633362489938, 11.60141118587768 ], [ 92.687239866726486, 11.603001627023559 ], [ 92.70367921742212, 11.61825164050083 ], [ 92.696986425882869, 11.618105061799326 ], [ 92.692823514493739, 11.6345273136846 ], [ 92.7013482834966, 11.641258917265304 ], [ 92.694557898428343, 11.652418922894981 ], [ 92.701033663772591, 11.654634117670469 ], [ 92.72158855316934, 11.634224466985586 ], [ 92.719513475466613, 11.625990634060429 ], [ 92.732716900864432, 11.626529183175421 ], [ 92.736435458130074, 11.636811104249091 ], [ 92.748447831302542, 11.640041837760577 ], [ 92.753692920292167, 11.61842052958383 ], [ 92.729402296578826, 11.559854885594461 ], [ 92.734520886929488, 11.55309033445144 ], [ 92.723632830890494, 11.532369310595186 ], [ 92.727174278370285, 11.516715785705003 ], [ 92.71089680924041, 11.479754872689341 ], [ 92.696643138470108, 11.507993764800574 ] ] ], [ [ [ 92.730289788043478, 11.141788753848004 ], [ 92.730940152566234, 11.149484276878013 ], [ 92.734703864791697, 11.145196446958437 ], [ 92.730289788043478, 11.141788753848004 ] ] ], [ [ [ 92.724177388375836, 11.141101791414599 ], [ 92.723460849038986, 11.143482281582237 ], [ 92.725589523637723, 11.143679050547803 ], [ 92.724177388375836, 11.141101791414599 ] ] ], [ [ [ 92.714094579901086, 11.308229113283062 ], [ 92.723363542393599, 11.332835697609482 ], [ 92.723863187736072, 11.318355201631334 ], [ 92.714094579901086, 11.308229113283062 ] ] ], [ [ [ 92.697880799859149, 11.309810515343031 ], [ 92.710665913701064, 11.308085485256981 ], [ 92.712092214184509, 11.303131594947274 ], [ 92.709166513623927, 11.301484861637221 ], [ 92.697880799859149, 11.309810515343031 ] ] ], [ [ [ 92.695732270028316, 11.284711956891385 ], [ 92.70608636349499, 11.288885009935314 ], [ 92.706364775614134, 11.264047586726861 ], [ 92.688305651484711, 11.242234626726827 ], [ 92.698007145613474, 11.26144547842614 ], [ 92.695732270028316, 11.284711956891385 ] ] ], [ [ [ 92.644846240062066, 11.499466765478985 ], [ 92.66896688381479, 11.488559783207506 ], [ 92.685448770644371, 11.435935776515009 ], [ 92.684085536918076, 11.427102252267275 ], [ 92.671671120026303, 11.426682493702117 ], [ 92.672107952220358, 11.416296659563272 ], [ 92.651545959978137, 11.409778080194371 ], [ 92.647978685767896, 11.405386578228047 ], [ 92.693163397972626, 11.387129390109408 ], [ 92.690524590137784, 11.370634505378234 ], [ 92.638114553743833, 11.346316357913622 ], [ 92.598967448189285, 11.347291837248576 ], [ 92.581326854151143, 11.368093593244907 ], [ 92.592712712821594, 11.380244828935815 ], [ 92.587256876703577, 11.400163580185108 ], [ 92.622767904515229, 11.404296533358377 ], [ 92.625549096613724, 11.441816026088816 ], [ 92.61153248443668, 11.458746665626279 ], [ 92.615199201182179, 11.48113058540838 ], [ 92.633093949026602, 11.515063518866327 ], [ 92.645061928065672, 11.511773372543075 ], [ 92.644846240062066, 11.499466765478985 ] ] ], [ [ [ 92.673849210572769, 11.18650670082377 ], [ 92.680481368020878, 11.181187228008298 ], [ 92.677475363397548, 11.17766876180383 ], [ 92.67640108274378, 11.178195604443772 ], [ 92.673849210572769, 11.18650670082377 ] ] ], [ [ [ 92.645794789198192, 11.514084061829919 ], [ 92.644043182346991, 11.513351162026538 ], [ 92.645455509164606, 11.515327694717428 ], [ 92.645794789198192, 11.514084061829919 ] ] ], [ [ [ 92.556907537453014, 11.390135703200315 ], [ 92.557932822142163, 11.396397124127986 ], [ 92.563388435228035, 11.396261151131398 ], [ 92.556907537453014, 11.390135703200315 ] ] ], [ [ [ 92.5459473324035, 11.395805640018295 ], [ 92.551196171566119, 11.39576233496382 ], [ 92.547673902129077, 11.393573238514307 ], [ 92.5459473324035, 11.395805640018295 ] ] ] ] } },
{ "type": "Feature", "properties": { "pincode": "744106", "state": "Andaman & Nicobar Islands", "district": "South Andaman", "officename": "Shadipur", "officetype": "S.O" }, "geometry": { "type": "Polygon", "coordinates": [ [ [ 92.755231047874588, 11.666283462411968 ], [ 92.74807890152033, 11.654915414814639 ], [ 92.743179145001591, 11.655634935404066 ], [ 92.755231047874588, 11.666283462411968 ] ] ] } },
{ "type": "Feature", "properties": { "pincode": "744204", "state": "Andaman & Nicobar Islands", "district": "North  & Middle Andaman", "officename": "Mayabander", "officetype": "S.O" }, "geometry": { "type": "MultiPolygon", "coordinates": [ [ [ [ 92.943662749636246, 12.790828966183994 ], [ 92.911381151319063, 12.779980298651822 ], [ 92.885432567159285, 12.760438772531529 ], [ 92.877744098411597, 12.743780422528459 ], [ 92.886713978767034, 12.727122072525788 ], [ 92.878064451313492, 12.688679726987971 ], [ 92.889436978433878, 12.666094849197975 ], [ 92.891482574561223, 12.628461364700399 ], [ 92.786046313286874, 12.669255820499757 ], [ 92.786913975599532, 12.693382404274701 ], [ 92.767650168220939, 12.671534928294534 ], [ 92.732987032026131, 12.674027255453609 ], [ 92.736285841518566, 12.683310875096936 ], [ 92.72869183216244, 12.695194034577185 ], [ 92.74372234361141, 12.698760593826535 ], [ 92.740098746659839, 12.717306109989124 ], [ 92.747465469455904, 12.723042131689226 ], [ 92.730736365291193, 12.743756191195246 ], [ 92.720869162981558, 12.788764040028582 ], [ 92.723769764363226, 12.826548173559502 ], [ 92.728042932635276, 12.827448230351592 ], [ 92.727940673423518, 12.830421838697134 ], [ 92.730224121346168, 12.83494879115392 ], [ 92.731783865932812, 12.835265559358163 ], [ 92.738129039823491, 12.809662093630834 ], [ 92.740369538823302, 12.836743120298934 ], [ 92.742768462394736, 12.822171215429364 ], [ 92.744164168841507, 12.83904468236625 ], [ 92.757904032645172, 12.846443588300929 ], [ 92.759857312465044, 12.858962703366103 ], [ 92.766072415609528, 12.849783589441131 ], [ 92.770520010989856, 12.86335146150077 ], [ 92.794436130922691, 12.862813128223479 ], [ 92.791270821291391, 12.888877413761691 ], [ 92.803085588229521, 12.896950351677333 ], [ 92.823659072908072, 12.895632062469758 ], [ 92.830903728024794, 12.884224923141687 ], [ 92.842082874824882, 12.891074513278227 ], [ 92.839291215517221, 12.876454103474146 ], [ 92.845772474819967, 12.875027562871878 ], [ 92.873741804140991, 12.880560634565654 ], [ 92.872353683475865, 12.892333318627777 ], [ 92.896248383356294, 12.897877030200789 ], [ 92.898030701156131, 12.926575854492171 ], [ 92.898559754329312, 12.914142818936057 ], [ 92.911537370753081, 12.90833956391981 ], [ 92.922006770795974, 12.913155010795208 ], [ 92.904087280803537, 12.886878081458406 ], [ 92.926326946631377, 12.885422334473219 ], [ 92.928884703965991, 12.858109082168539 ], [ 92.940987037222101, 12.854890789878084 ], [ 92.940236418975587, 12.836406355668885 ], [ 92.947855251418787, 12.836331151661398 ], [ 92.943891153154368, 12.825333845980367 ], [ 92.953927953212428, 12.806436913432719 ], [ 92.943662749636246, 12.790828966183994 ] ] ], [ [ [ 92.931731652693827, 12.917106086876629 ], [ 92.936513497300155, 12.917160534531149 ], [ 92.935088636631406, 12.913369374996762 ], [ 92.931731652693827, 12.917106086876629 ] ] ], [ [ [ 92.776671429542887, 12.911889592730631 ], [ 92.791971850020843, 12.916561614826776 ], [ 92.798631393624021, 12.894537125288139 ], [ 92.78318292405288, 12.895187256886459 ], [ 92.789589785140606, 12.904136364701628 ], [ 92.776293585680548, 12.903711507879905 ], [ 92.776671429542887, 12.911889592730631 ] ] ], [ [ [ 92.782595611898046, 12.892269416400609 ], [ 92.791818344740932, 12.891364969118229 ], [ 92.789086553301786, 12.882929257279443 ], [ 92.782538340372241, 12.883387639927776 ], [ 92.782595611898046, 12.892269416400609 ] ] ], [ [ [ 92.776823059736614, 12.865139030442037 ], [ 92.777791718613116, 12.866568094541947 ], [ 92.778415169124798, 12.865275486374628 ], [ 92.776823059736614, 12.865139030442037 ] ] ], [ [ [ 92.769749152601548, 12.922414123013482 ], [ 92.775740249912587, 12.93021438468628 ], [ 92.772771254190104, 12.917642190734625 ], [ 92.769749152601548, 12.922414123013482 ] ] ], [ [ [ 92.767413089842307, 12.917154891285293 ], [ 92.767948097426881, 12.917755249005666 ], [ 92.768062889590738, 12.916310914417181 ], [ 92.767413089842307, 12.917154891285293 ] ] ], [ [ [ 92.762718713298113, 12.919914335078602 ], [ 92.766920568929208, 12.925054218677303 ], [ 92.764596263007263, 12.917779983959122 ], [ 92.762718713298113, 12.919914335078602 ] ] ], [ [ [ 92.763476805810058, 12.855387629335667 ], [ 92.766271202653968, 12.872324820434187 ], [ 92.766224318297816, 12.854973391708711 ], [ 92.763476805810058, 12.855387629335667 ] ] ], [ [ [ 92.76413618333828, 12.925925278628768 ], [ 92.762671357697059, 12.935182606592207 ], [ 92.765845449208314, 12.932436873862628 ], [ 92.76413618333828, 12.925925278628768 ] ] ], [ [ [ 92.764971981771623, 12.852780592750321 ], [ 92.764092358475637, 12.853852161947771 ], [ 92.765062165786333, 12.853636640318769 ], [ 92.764971981771623, 12.852780592750321 ] ] ], [ [ [ 92.756977385597907, 12.876220852610345 ], [ 92.757457111856297, 12.878510102959126 ], [ 92.760501109238987, 12.877720665476431 ], [ 92.756977385597907, 12.876220852610345 ] ] ], [ [ [ 92.757658704785456, 12.912127743100996 ], [ 92.757906762986863, 12.913833325347809 ], [ 92.758172579201187, 12.913782558618323 ], [ 92.757658704785456, 12.912127743100996 ] ] ], [ [ [ 92.754562366859886, 12.911113644179522 ], [ 92.757744560363221, 12.906430914754878 ], [ 92.753681515989229, 12.889600400338225 ], [ 92.755703540885747, 12.899736219351155 ], [ 92.754562366859886, 12.911113644179522 ] ] ], [ [ [ 92.749356849838875, 12.891418216177783 ], [ 92.751622439923835, 12.896621736703878 ], [ 92.751782216176309, 12.890837969996539 ], [ 92.749356849838875, 12.891418216177783 ] ] ], [ [ [ 92.730413941250504, 12.854681014916991 ], [ 92.730228777136404, 12.856518922510361 ], [ 92.731719725385176, 12.856238152369031 ], [ 92.730413941250504, 12.854681014916991 ] ] ], [ [ [ 92.707692236107846, 12.836825770692826 ], [ 92.720319514434095, 12.864534174312723 ], [ 92.729612438463334, 12.863519350537672 ], [ 92.715099575884778, 12.832616516339215 ], [ 92.707692236107846, 12.836825770692826 ] ] ], [ [ [ 92.727969576734722, 12.726784039851736 ], [ 92.72319231777135, 12.737401840622624 ], [ 92.72492116637892, 12.735978480022936 ], [ 92.727246787109607, 12.735770821166568 ], [ 92.727969576734722, 12.726784039851736 ] ] ], [ [ [ 92.72504100373942, 12.833625467541481 ], [ 92.727779368323183, 12.837923577611093 ], [ 92.725552344764935, 12.832318812862979 ], [ 92.72504100373942, 12.833625467541481 ] ] ], [ [ [ 92.726125079808696, 12.751934160033557 ], [ 92.72668446711458, 12.753597318561447 ], [ 92.726812422655314, 12.751690526496589 ], [ 92.726125079808696, 12.751934160033557 ] ] ], [ [ [ 92.719032487459515, 12.754061620547475 ], [ 92.717910402443295, 12.71903339827287 ], [ 92.709254960148485, 12.728143529700276 ], [ 92.709707680665076, 12.773089925159979 ], [ 92.69458646089663, 12.797585087082268 ], [ 92.708462623251592, 12.830179886892381 ], [ 92.715191825642307, 12.828419529637586 ], [ 92.712058792679272, 12.777551759506025 ], [ 92.724788715127204, 12.754591655780416 ], [ 92.723424178283324, 12.742404221477784 ], [ 92.719032487459515, 12.754061620547475 ] ] ], [ [ [ 92.717692342927421, 12.782816328710624 ], [ 92.720438949797767, 12.783713317915328 ], [ 92.724851463524431, 12.761816035681477 ], [ 92.71970660667472, 12.778005215668259 ], [ 92.71467047336381, 12.778530293838173 ], [ 92.717692342927421, 12.782816328710624 ] ] ], [ [ [ 92.711167991709601, 12.988030175752101 ], [ 92.720792922955184, 12.975526490355321 ], [ 92.714419874577629, 12.942475343962087 ], [ 92.721280987727596, 12.946577070875207 ], [ 92.72135914061198, 12.926262939882747 ], [ 92.720195980859955, 12.923823232056577 ], [ 92.717809227813746, 12.923527630296121 ], [ 92.715525117090408, 12.922845183358561 ], [ 92.714745059536938, 12.922288757520164 ], [ 92.721547079134496, 12.888918001064951 ], [ 92.719021135317348, 12.88118360933629 ], [ 92.711787395272324, 12.882599801439767 ], [ 92.719434373797412, 12.874263579800413 ], [ 92.700525147517681, 12.840391105964841 ], [ 92.672387570330329, 12.837372021601539 ], [ 92.674983642381164, 12.821791246468877 ], [ 92.684735439189296, 12.829672842827563 ], [ 92.689174139375211, 12.816982659622113 ], [ 92.675072476513776, 12.807226516390699 ], [ 92.668349362533206, 12.782694717887011 ], [ 92.659473968549037, 12.795897548832841 ], [ 92.665961057257164, 12.810955039943167 ], [ 92.648298471197677, 12.861895460007531 ], [ 92.665208303120835, 12.88203655784082 ], [ 92.680304720486617, 12.94165714616048 ], [ 92.669096675771016, 12.961541163793811 ], [ 92.68923080295923, 12.991182474891332 ], [ 92.711167991709601, 12.988030175752101 ] ] ], [ [ [ 92.717777339652685, 12.789607905380592 ], [ 92.717730502960421, 12.790539872816964 ], [ 92.718121663983823, 12.789575922790675 ], [ 92.717777339652685, 12.789607905380592 ] ] ], [ [ [ 92.717052957328235, 12.773403142840721 ], [ 92.717639153424329, 12.774541317627893 ], [ 92.717903356254965, 12.77360679791542 ], [ 92.717052957328235, 12.773403142840721 ] ] ], [ [ [ 92.716442543388723, 12.775063037729126 ], [ 92.717224048850881, 12.77676224558121 ], [ 92.717342482369702, 12.774891386828187 ], [ 92.716442543388723, 12.775063037729126 ] ] ], [ [ [ 92.716865266119328, 12.802321280302976 ], [ 92.716717539882609, 12.804398133267227 ], [ 92.717522300913572, 12.804332934217712 ], [ 92.716865266119328, 12.802321280302976 ] ] ], [ [ [ 92.716134932980822, 12.798606131468034 ], [ 92.716844494477868, 12.800692378750341 ], [ 92.717091496875241, 12.798651495070487 ], [ 92.716134932980822, 12.798606131468034 ] ] ], [ [ [ 92.71665546417853, 12.782647696833806 ], [ 92.71617370545232, 12.783709863619436 ], [ 92.716825031350197, 12.783544638374394 ], [ 92.71665546417853, 12.782647696833806 ] ] ], [ [ [ 92.715531016643297, 12.794722902939782 ], [ 92.715551244194671, 12.797121818417224 ], [ 92.7162822716096, 12.797180654763508 ], [ 92.715531016643297, 12.794722902939782 ] ] ], [ [ [ 92.655246478642084, 12.76918039146193 ], [ 92.655498403928391, 12.772919529712681 ], [ 92.65620300836224, 12.773454178467659 ], [ 92.655246478642084, 12.76918039146193 ] ] ] ] } },
{ "type": "Feature", "properties": { "pincode": "744205", "state": "Andaman & Nicobar Islands", "district": "North  & Middle Andaman", "officename": "Rangat", "officetype": "S.O" }, "geometry": { "type": "MultiPolygon", "coordinates": [ [ [ [ 92.786046313286874, 12.669255820499757 ], [ 92.91266586343886, 12.623992306999412 ], [ 92.916394759310947, 12.645085062026112 ], [ 92.96242868243786, 12.658843543594742 ], [ 92.95476878425211, 12.605349289937749 ], [ 92.975156117361109, 12.543055374206233 ], [ 92.969716157874473, 12.519529493491405 ], [ 92.909646605506509, 12.50919562397894 ], [ 92.815569743948686, 12.50973320632238 ], [ 92.711598011539081, 12.539401016843556 ], [ 92.703868610148334, 12.547537513445548 ], [ 92.707793846908487, 12.595441476043277 ], [ 92.686359447530606, 12.601732444197012 ], [ 92.686032539470148, 12.611742362620021 ], [ 92.694808435161235, 12.606775896190811 ], [ 92.702431291171251, 12.612869256311285 ], [ 92.703279000225848, 12.611972456863441 ], [ 92.702696371740331, 12.609052781760511 ], [ 92.7034172521046, 12.606810392385682 ], [ 92.703355090964749, 12.605061378280027 ], [ 92.703474385134825, 12.605048361492777 ], [ 92.715452917718096, 12.642767224927525 ], [ 92.724212236205858, 12.625694791081855 ], [ 92.736217399513407, 12.638740689431359 ], [ 92.732933228286015, 12.65334579097572 ], [ 92.743965563460108, 12.667797726284107 ], [ 92.774128738550587, 12.669709159750028 ], [ 92.782584048415288, 12.653578345764117 ], [ 92.786046313286874, 12.669255820499757 ] ] ], [ [ [ 92.70309096817374, 12.639759708543863 ], [ 92.700624161975668, 12.638652829264743 ], [ 92.702528641883475, 12.641363507320136 ], [ 92.70309096817374, 12.639759708543863 ] ] ], [ [ [ 92.671021375136377, 12.528344813662329 ], [ 92.672008711133344, 12.541388306325359 ], [ 92.684292877414521, 12.539812710288402 ], [ 92.67845090748358, 12.522076038078865 ], [ 92.671021375136377, 12.528344813662329 ] ] ] ] } },
{ "type": "Feature", "properties": { "pincode": "744206", "state": "Andaman & Nicobar Islands", "district": "South Andaman", "officename": "Wimberlygunj", "officetype": "S.O" }, "geometry": { "type": "MultiPolygon", "coordinates": [ [ [ [ 92.709978961160346, 11.747119922046863 ], [ 92.722552149762066, 11.722797986637886 ], [ 92.720873675779728, 11.699800658173899 ], [ 92.71703932990124, 11.705964603383791 ], [ 92.711706347470113, 11.695465953790915 ], [ 92.697615282219431, 11.713127944499092 ], [ 92.710511795982654, 11.715910529647374 ], [ 92.708216157749575, 11.731090809693342 ], [ 92.696169875639271, 11.726085586980389 ], [ 92.690811036800085, 11.712209298720268 ], [ 92.701535683325233, 11.695109261982907 ], [ 92.700199013773499, 11.675503549449274 ], [ 92.702096734376937, 11.672036364386827 ], [ 92.708168593505832, 11.671888674123068 ], [ 92.709003579851469, 11.671009946552033 ], [ 92.708878288102596, 11.670365845807225 ], [ 92.692936126700943, 11.669034136016592 ], [ 92.683432462737926, 11.650811104149284 ], [ 92.677792118111938, 11.659221631373271 ], [ 92.676673003556402, 11.653145244157827 ], [ 92.663434327432356, 11.658234510314571 ], [ 92.661652688620734, 11.652134558163368 ], [ 92.674074284800497, 11.624396755705789 ], [ 92.682187358559759, 11.637578957103301 ], [ 92.683560654800431, 11.625033464023147 ], [ 92.692411230194239, 11.620577192883331 ], [ 92.690816468705123, 11.627789145952363 ], [ 92.696104889728929, 11.616371227350328 ], [ 92.690806057253894, 11.614882483340125 ], [ 92.676242173437629, 11.592523835406837 ], [ 92.687654273426176, 11.594846528844243 ], [ 92.696643138470108, 11.507993764800574 ], [ 92.684026516210849, 11.512795713751245 ], [ 92.667115761583318, 11.504365005740567 ], [ 92.64612926505373, 11.52344042763383 ], [ 92.647526520132828, 11.574034737313411 ], [ 92.631597398001645, 11.580555897736474 ], [ 92.63144738299053, 11.571987323656117 ], [ 92.617708881659667, 11.562327773907782 ], [ 92.619481558727045, 11.58354897010895 ], [ 92.607269537858883, 11.593557113270322 ], [ 92.605598225178085, 11.608188516386917 ], [ 92.609075327964035, 11.620738036631053 ], [ 92.624205180324907, 11.616504784768097 ], [ 92.627582601356096, 11.625831777814426 ], [ 92.635555888993167, 11.61490288086344 ], [ 92.644812575739877, 11.624494920304414 ], [ 92.649896030477578, 11.672738268156593 ], [ 92.640683651529343, 11.696899035162517 ], [ 92.654936765619368, 11.711325967519542 ], [ 92.654374987016183, 11.747290946120302 ], [ 92.709978961160346, 11.747119922046863 ] ] ], [ [ [ 92.704856420087822, 11.721792934896143 ], [ 92.704563100806581, 11.723083587937253 ], [ 92.705500900346465, 11.722348707826711 ], [ 92.704856420087822, 11.721792934896143 ] ] ], [ [ [ 92.702027438015932, 11.702300529745685 ], [ 92.699155972869903, 11.70298905699957 ], [ 92.702874792737589, 11.702809568506893 ], [ 92.702027438015932, 11.702300529745685 ] ] ], [ [ [ 92.692772313391686, 11.661569591263799 ], [ 92.697446350868574, 11.664290936177792 ], [ 92.701230046029877, 11.663432376802746 ], [ 92.700220128955834, 11.659465902529462 ], [ 92.692772313391686, 11.661569591263799 ] ] ], [ [ [ 92.697178083102187, 11.617196694372012 ], [ 92.697739445319144, 11.617515790921175 ], [ 92.697608922213931, 11.616726035977763 ], [ 92.697178083102187, 11.617196694372012 ] ] ], [ [ [ 92.689959102730484, 11.608141418891421 ], [ 92.691063069105496, 11.611605923074876 ], [ 92.690497913547972, 11.60786426312535 ], [ 92.689959102730484, 11.608141418891421 ] ] ], [ [ [ 92.685610840168181, 11.630981181636344 ], [ 92.689899607181189, 11.636136527279007 ], [ 92.687119184003279, 11.629313091226209 ], [ 92.685610840168181, 11.630981181636344 ] ] ], [ [ [ 92.687906918169915, 11.594972221690796 ], [ 92.687822418769713, 11.595190493446637 ], [ 92.687900555466285, 11.595196943384281 ], [ 92.687906918169915, 11.594972221690796 ] ] ], [ [ [ 92.687337925205327, 11.595781908308425 ], [ 92.687293749607022, 11.596118556925887 ], [ 92.687502750251895, 11.596047661570537 ], [ 92.687337925205327, 11.595781908308425 ] ] ] ] } },
{ "type": "Feature", "properties": { "pincode": "744207", "state": "Andaman & Nicobar Islands", "district": "South Andaman", "officename": "Hut Bay", "officetype": "S.O" }, "geometry": { "type": "MultiPolygon", "coordinates": [ [ [ [ 92.660709132520481, 10.982525866575486 ], [ 92.66682059779248, 10.992091417385097 ], [ 92.669194190159942, 10.986527593373808 ], [ 92.660709132520481, 10.982525866575486 ] ] ], [ [ [ 92.606223304362231, 10.937264981793589 ], [ 92.616231219095425, 10.935282391269482 ], [ 92.620559266697001, 10.929829881743785 ], [ 92.613005342822476, 10.928174961005766 ], [ 92.606223304362231, 10.937264981793589 ] ] ], [ [ [ 92.540117120209061, 10.592741864545417 ], [ 92.56792984518637, 10.576077637473077 ], [ 92.54302961782264, 10.550154832379633 ], [ 92.531061915774785, 10.518683533118576 ], [ 92.513380338731736, 10.512239789934426 ], [ 92.480544290386831, 10.518558160430871 ], [ 92.451443887325695, 10.5434259276646 ], [ 92.428023717420785, 10.549799404119256 ], [ 92.400161107049485, 10.530960542594983 ], [ 92.381630968394518, 10.53704854365543 ], [ 92.420714477491174, 10.613950283179179 ], [ 92.405658763441124, 10.655002111458316 ], [ 92.382533155680676, 10.66846702913017 ], [ 92.376534025624835, 10.782573957322313 ], [ 92.384135707996563, 10.793961509416306 ], [ 92.389253533024146, 10.782669051635537 ], [ 92.41070847291769, 10.787171967012796 ], [ 92.425320489349133, 10.824522846752131 ], [ 92.43437529988023, 10.822334774630235 ], [ 92.445528663117443, 10.839042212328252 ], [ 92.458802115125593, 10.842116528555096 ], [ 92.45386678772212, 10.865702599995018 ], [ 92.469211745325879, 10.867449730920498 ], [ 92.468991847595817, 10.874391849604308 ], [ 92.479631020755164, 10.87162111841991 ], [ 92.488930306588429, 10.889655108296779 ], [ 92.497512138474633, 10.895935770219808 ], [ 92.506546630622665, 10.889247933945114 ], [ 92.516689041666098, 10.900399227842115 ], [ 92.559828214400568, 10.85952794116173 ], [ 92.556136465925306, 10.844848856889371 ], [ 92.565458417372156, 10.806989786449492 ], [ 92.559775185876219, 10.807725033483564 ], [ 92.560328321994461, 10.800488025302229 ], [ 92.571914351765997, 10.802420623413127 ], [ 92.587563118343269, 10.785894105928264 ], [ 92.582484644950569, 10.743109622211534 ], [ 92.597413872052584, 10.703977844701797 ], [ 92.5969046624204, 10.680654216119365 ], [ 92.579731505404709, 10.68198137084363 ], [ 92.574825791777016, 10.66847942088873 ], [ 92.578459673375335, 10.658574424570133 ], [ 92.581701050363279, 10.659208949333674 ], [ 92.582638155626512, 10.657480651111314 ], [ 92.564691347827534, 10.649995753800965 ], [ 92.543771179896225, 10.625839246883913 ], [ 92.540117120209061, 10.592741864545417 ] ] ] ] } },
{ "type": "Feature", "properties": { "pincode": "744209", "state": "Andaman & Nicobar Islands", "district": "North  & Middle Andaman", "officename": "Kadamtala (North And Middle Andaman)", "officetype": "S.O" }, "geometry": { "type": "MultiPolygon", "coordinates": [ [ [ [ 93.063072052733162, 12.316064015741802 ], [ 93.067383541117636, 12.318767537891574 ], [ 93.073232060811051, 12.316998881693166 ], [ 93.063072052733162, 12.316064015741802 ] ] ], [ [ [ 93.026377624128202, 12.273868572676463 ], [ 93.027715344087881, 12.279750538157032 ], [ 93.02973086868468, 12.279134360462365 ], [ 93.026377624128202, 12.273868572676463 ] ] ], [ [ [ 92.70452853086698, 12.54545098197741 ], [ 92.753815004159264, 12.52330715330254 ], [ 92.815569743948686, 12.50973320632238 ], [ 92.909646605506509, 12.50919562397894 ], [ 92.969716157874473, 12.519529493491405 ], [ 92.963817819337066, 12.487886644053503 ], [ 92.946864096001264, 12.499779973966781 ], [ 92.930002939883934, 12.479496482876471 ], [ 92.933406207430608, 12.465909447163426 ], [ 92.951444806332859, 12.476191716274741 ], [ 92.957477722119165, 12.467212325588491 ], [ 92.943391260498402, 12.461257641826933 ], [ 92.941117655655319, 12.449374110926442 ], [ 92.913230266263781, 12.444259446116575 ], [ 92.923762618849764, 12.435462180735158 ], [ 92.915262484076493, 12.40643552837696 ], [ 92.906524189939489, 12.407101091442257 ], [ 92.909802910376186, 12.420468626026434 ], [ 92.900268861918619, 12.42786785841497 ], [ 92.895031935175666, 12.425041853099174 ], [ 92.898840460618771, 12.415909854656036 ], [ 92.886058510592022, 12.424387970428484 ], [ 92.875153700183034, 12.413326460348003 ], [ 92.865009251276035, 12.426341112652267 ], [ 92.846719011273478, 12.423351912760552 ], [ 92.836488794022728, 12.430863659330385 ], [ 92.828914207324942, 12.425954888007823 ], [ 92.829141829332059, 12.420499930527455 ], [ 92.834782968958962, 12.409018646593381 ], [ 92.840946365582397, 12.406388227634636 ], [ 92.838924452201866, 12.394027710710361 ], [ 92.859785406071808, 12.371108151120382 ], [ 92.858382009522245, 12.36357793697232 ], [ 92.86852466248331, 12.361692117097675 ], [ 92.873473799876024, 12.351075050173392 ], [ 92.878785355959508, 12.357709183432121 ], [ 92.890320185528196, 12.349649804594776 ], [ 92.89243277665139, 12.340805687232717 ], [ 92.880371204267817, 12.34449321698844 ], [ 92.878633196065209, 12.334323802901224 ], [ 92.898369108847476, 12.325865723124764 ], [ 92.894972180621835, 12.320319023104616 ], [ 92.885760614660796, 12.323873999985267 ], [ 92.877985803801892, 12.31371129394114 ], [ 92.856997425890484, 12.31471883770422 ], [ 92.832199109701207, 12.302472486116471 ], [ 92.808865777433766, 12.315072116585043 ], [ 92.802304901150251, 12.313038255710978 ], [ 92.794913406528735, 12.306215409613458 ], [ 92.770024725560688, 12.320825657078501 ], [ 92.765500542116456, 12.302863487060279 ], [ 92.763957789320727, 12.313609122862772 ], [ 92.753381391538085, 12.295812606166919 ], [ 92.742557149592812, 12.302400156342287 ], [ 92.719849655537246, 12.300333542159422 ], [ 92.710843668300754, 12.310484146026681 ], [ 92.709681701948966, 12.32978167348557 ], [ 92.699781297568961, 12.328040613883275 ], [ 92.705980309144081, 12.370618039491035 ], [ 92.698254304492593, 12.399457421522868 ], [ 92.706927189138412, 12.451193013147133 ], [ 92.699405357571379, 12.46790349325164 ], [ 92.709231618244644, 12.492705252045937 ], [ 92.694430602989996, 12.515318279514929 ], [ 92.70452853086698, 12.54545098197741 ] ] ], [ [ [ 92.902512782838812, 12.289878752502489 ], [ 92.913530811597866, 12.292775835736393 ], [ 92.918892967136799, 12.281699816893138 ], [ 92.928441209594325, 12.280248424425224 ], [ 92.934330518039133, 12.310782423270325 ], [ 92.933052502271266, 12.288460563004719 ], [ 92.94219422418422, 12.275479118166857 ], [ 92.928028307460465, 12.255279977189275 ], [ 92.923639766961685, 12.231043328986573 ], [ 92.92087999401673, 12.266885161621019 ], [ 92.912478549945263, 12.262928706694481 ], [ 92.914639628915779, 12.273114479449703 ], [ 92.900748623250422, 12.272014301019226 ], [ 92.902512782838812, 12.289878752502489 ] ] ], [ [ [ 92.911195363075649, 12.337850153461943 ], [ 92.910954051588192, 12.352011955787248 ], [ 92.916759201476111, 12.354892617400537 ], [ 92.911195363075649, 12.337850153461943 ] ] ], [ [ [ 92.90157046420569, 12.25533495634329 ], [ 92.914327602836693, 12.231765123062075 ], [ 92.912514140615087, 12.222418958268349 ], [ 92.908076701278901, 12.232894357688622 ], [ 92.891328989241629, 12.234487923978577 ], [ 92.87834282386234, 12.209672810252016 ], [ 92.870801322323132, 12.244792683335675 ], [ 92.87848581336965, 12.247672489693684 ], [ 92.879650409339035, 12.238467996900624 ], [ 92.881357021309668, 12.236724717771608 ], [ 92.885565620057434, 12.238394390089127 ], [ 92.887670507587984, 12.251954475818479 ], [ 92.90157046420569, 12.25533495634329 ] ] ], [ [ [ 92.911412893790157, 12.332819269493882 ], [ 92.912886382600732, 12.33340729930751 ], [ 92.912528330118505, 12.331919530162281 ], [ 92.911412893790157, 12.332819269493882 ] ] ], [ [ [ 92.905096416366689, 12.338280095050436 ], [ 92.905947532053062, 12.340736816251137 ], [ 92.906378646357496, 12.338518671699319 ], [ 92.905096416366689, 12.338280095050436 ] ] ], [ [ [ 92.899352261198146, 12.421323685239884 ], [ 92.904208957277547, 12.423728051508476 ], [ 92.903575321044286, 12.420503746350846 ], [ 92.899352261198146, 12.421323685239884 ] ] ], [ [ [ 92.900519871694769, 12.258406252646637 ], [ 92.900148158510831, 12.261979829305744 ], [ 92.90162079926057, 12.262228504442021 ], [ 92.900519871694769, 12.258406252646637 ] ] ], [ [ [ 92.897797787537911, 12.407958076104535 ], [ 92.898965269431699, 12.411057354813238 ], [ 92.898841654918556, 12.407451872006334 ], [ 92.897797787537911, 12.407958076104535 ] ] ], [ [ [ 92.896904408211867, 12.39226084326333 ], [ 92.895796569356378, 12.395159548874176 ], [ 92.896842891885967, 12.394912881024823 ], [ 92.896904408211867, 12.39226084326333 ] ] ], [ [ [ 92.896255989822123, 12.395165432239082 ], [ 92.896399807605235, 12.39522452848928 ], [ 92.896447079569157, 12.395192820192676 ], [ 92.896255989822123, 12.395165432239082 ] ] ], [ [ [ 92.893740469147531, 12.336180455963301 ], [ 92.893246753035442, 12.340588879573261 ], [ 92.896090220487338, 12.335841209204602 ], [ 92.893740469147531, 12.336180455963301 ] ] ], [ [ [ 92.882911271038438, 12.388026062552854 ], [ 92.882244284346427, 12.374416027577581 ], [ 92.873491455366434, 12.384672371033162 ], [ 92.862145783800997, 12.380173794884797 ], [ 92.843901494658439, 12.402585072043451 ], [ 92.854507606940729, 12.408560704612853 ], [ 92.881812923627706, 12.398018470276156 ], [ 92.888445085572357, 12.407679131586747 ], [ 92.893969175737027, 12.399283017797075 ], [ 92.882911271038438, 12.388026062552854 ] ] ], [ [ [ 92.889095610174365, 12.412682507991462 ], [ 92.889034431993593, 12.414190422849856 ], [ 92.889767274240398, 12.413645371636619 ], [ 92.889095610174365, 12.412682507991462 ] ] ], [ [ [ 92.846874782845134, 12.198105482781727 ], [ 92.827228674563742, 12.204402884685521 ], [ 92.834857625279369, 12.208580643881703 ], [ 92.831588075229433, 12.221477204409439 ], [ 92.805613312704395, 12.238188240295017 ], [ 92.808337938345232, 12.226381530383435 ], [ 92.791445260990201, 12.218934220238111 ], [ 92.790173768904538, 12.210215418906557 ], [ 92.76630899306582, 12.219225547520978 ], [ 92.771669501946008, 12.241309780821894 ], [ 92.762193070353987, 12.231921327207544 ], [ 92.747981498647391, 12.234555591667231 ], [ 92.742072058878534, 12.245508922299109 ], [ 92.750159457892835, 12.273778557734317 ], [ 92.764074118425981, 12.262702099122691 ], [ 92.781851506541898, 12.284896026330728 ], [ 92.776199790887631, 12.301177218653777 ], [ 92.767399120673019, 12.297217577429421 ], [ 92.771570057612166, 12.312811739870085 ], [ 92.795856938347129, 12.303458110703389 ], [ 92.809783903404593, 12.31324450173247 ], [ 92.83424374895003, 12.299451776678325 ], [ 92.85726869469454, 12.304874615770927 ], [ 92.865925396040325, 12.300514862570878 ], [ 92.87189308489809, 12.30071123673423 ], [ 92.868702786704262, 12.289970433888527 ], [ 92.886929284558903, 12.286077750787683 ], [ 92.879130194702839, 12.276882138799692 ], [ 92.887734301896671, 12.258833194995987 ], [ 92.877990652946437, 12.251251375950346 ], [ 92.865513627951714, 12.252268088301832 ], [ 92.858915407320183, 12.247148510495492 ], [ 92.879984064113387, 12.194270798758453 ], [ 92.854501499644527, 12.204159866284897 ], [ 92.846874782845134, 12.198105482781727 ] ] ], [ [ [ 92.88243037116473, 12.239009053325219 ], [ 92.88208631752957, 12.24040177672083 ], [ 92.883115454015069, 12.240218855515877 ], [ 92.88243037116473, 12.239009053325219 ] ] ], [ [ [ 92.880361830634229, 12.245651150979825 ], [ 92.880188192231344, 12.250152605858204 ], [ 92.880828411502023, 12.245214026506176 ], [ 92.880361830634229, 12.245651150979825 ] ] ], [ [ [ 92.880041941782281, 12.294990931586426 ], [ 92.878804393707981, 12.297540260474705 ], [ 92.880340278381254, 12.29740284766342 ], [ 92.880041941782281, 12.294990931586426 ] ] ], [ [ [ 92.872392420873666, 12.227856307922252 ], [ 92.871619024598488, 12.228214050138376 ], [ 92.872003135836223, 12.228461539968066 ], [ 92.872392420873666, 12.227856307922252 ] ] ], [ [ [ 92.859002250353569, 12.416582064610623 ], [ 92.867430675885089, 12.420725975123617 ], [ 92.869556833281365, 12.41428964325263 ], [ 92.862809929534762, 12.412692262038263 ], [ 92.859002250353569, 12.416582064610623 ] ] ], [ [ [ 92.862123035449883, 12.246950271138132 ], [ 92.869545322858528, 12.248562670131321 ], [ 92.866402160831171, 12.235606771435357 ], [ 92.862882128907302, 12.239159956866615 ], [ 92.862123035449883, 12.246950271138132 ] ] ], [ [ [ 92.867407423014185, 12.23194025344003 ], [ 92.867419651995419, 12.232308340557609 ], [ 92.867661941045924, 12.232024146697142 ], [ 92.867407423014185, 12.23194025344003 ] ] ], [ [ [ 92.865240744864593, 12.302707835997921 ], [ 92.866065910613315, 12.305589400530494 ], [ 92.866664201691663, 12.30523984124568 ], [ 92.865240744864593, 12.302707835997921 ] ] ], [ [ [ 92.84415713234597, 12.414749187824782 ], [ 92.844084475218381, 12.419409126629944 ], [ 92.846733550612953, 12.415616875318733 ], [ 92.84415713234597, 12.414749187824782 ] ] ], [ [ [ 92.844629054287509, 12.403863612116027 ], [ 92.843992865778148, 12.403959235230616 ], [ 92.844520224628809, 12.404334550199394 ], [ 92.844629054287509, 12.403863612116027 ] ] ], [ [ [ 92.843228606615014, 12.395031329832193 ], [ 92.843258375074015, 12.395925376455068 ], [ 92.843789334810083, 12.395387616045696 ], [ 92.843228606615014, 12.395031329832193 ] ] ], [ [ [ 92.829640069033985, 12.425934518363363 ], [ 92.841304273273636, 12.422321608955087 ], [ 92.842830824782823, 12.415910487778774 ], [ 92.835296123017713, 12.416719264282676 ], [ 92.829640069033985, 12.425934518363363 ] ] ], [ [ [ 92.843146376204288, 12.402792045616536 ], [ 92.842876798125815, 12.40308698277812 ], [ 92.843058808317437, 12.403172011878894 ], [ 92.843146376204288, 12.402792045616536 ] ] ], [ [ [ 92.842119952074199, 12.403791134853122 ], [ 92.841559415434688, 12.403978706452222 ], [ 92.841857807791769, 12.404359295944801 ], [ 92.842119952074199, 12.403791134853122 ] ] ], [ [ [ 92.768974399249259, 12.288427229633101 ], [ 92.769590594930207, 12.294383732723134 ], [ 92.770688176118426, 12.294908980864818 ], [ 92.768974399249259, 12.288427229633101 ] ] ], [ [ [ 92.752990026368821, 12.277929633146073 ], [ 92.760848579398441, 12.292523712599291 ], [ 92.765758304002588, 12.292646575279321 ], [ 92.764734219908462, 12.265304719137475 ], [ 92.752990026368821, 12.277929633146073 ] ] ], [ [ [ 92.765230572832706, 12.29668517158342 ], [ 92.76420231858225, 12.298437997015981 ], [ 92.765627637905254, 12.299051629628934 ], [ 92.765230572832706, 12.29668517158342 ] ] ], [ [ [ 92.753952853141811, 12.292817114618231 ], [ 92.753171080580955, 12.294409674567021 ], [ 92.754663946184223, 12.294088001460182 ], [ 92.753952853141811, 12.292817114618231 ] ] ], [ [ [ 92.734700692882711, 12.250031369152339 ], [ 92.739761946956378, 12.269818403896409 ], [ 92.739717565413457, 12.28215307970089 ], [ 92.748741116409462, 12.288305040545254 ], [ 92.7426907456815, 12.255002330393381 ], [ 92.734700692882711, 12.250031369152339 ] ] ], [ [ [ 92.738090048816787, 12.271738594060935 ], [ 92.734969405813558, 12.270087710379642 ], [ 92.738028906608861, 12.275663692325679 ], [ 92.738090048816787, 12.271738594060935 ] ] ], [ [ [ 92.735673114522626, 12.281221995398766 ], [ 92.737642480516115, 12.292469543734512 ], [ 92.73674475206883, 12.282200868775078 ], [ 92.735673114522626, 12.281221995398766 ] ] ] ] } },
{ "type": "Feature", "properties": { "pincode": "744210", "state": "Andaman & Nicobar Islands", "district": "North  & Middle Andaman, South Andaman", "officename": "Oralkatcha", "officetype": "S.O" }, "geometry": { "type": "MultiPolygon", "coordinates": [ [ [ [ 92.76630899306582, 12.219225547520978 ], [ 92.790173768904538, 12.210215418906557 ], [ 92.791445260990201, 12.218934220238111 ], [ 92.808337938345232, 12.226381530383435 ], [ 92.805613312704395, 12.238188240295017 ], [ 92.815421964651989, 12.234555406406912 ], [ 92.834312699971292, 12.215846311658083 ], [ 92.827228674563742, 12.204402884685521 ], [ 92.845937768413535, 12.202768109660667 ], [ 92.845990316699783, 12.189720838945618 ], [ 92.854349441373699, 12.190403226527792 ], [ 92.849692410976104, 12.176689701168755 ], [ 92.854900754566302, 12.170783534932184 ], [ 92.847508061148346, 12.159632655622659 ], [ 92.840811114741314, 12.162332081360546 ], [ 92.837514715431894, 12.167749580278951 ], [ 92.835207281690884, 12.168086391673739 ], [ 92.817916599471573, 12.162479553988248 ], [ 92.824851850032985, 12.152304270925526 ], [ 92.812010146351213, 12.130514690600592 ], [ 92.806533378512825, 12.135675464551184 ], [ 92.800197285076763, 12.131128398756687 ], [ 92.810875862930743, 12.117910398945924 ], [ 92.810124268919935, 12.105443362721019 ], [ 92.786264720840222, 12.104638316605019 ], [ 92.792270399759218, 12.080054382603805 ], [ 92.779432295164327, 12.082788890894733 ], [ 92.764786299648051, 12.063506465750834 ], [ 92.760575498460526, 12.077382411369172 ], [ 92.741927184392125, 12.077675790005742 ], [ 92.739202300645729, 12.096738113273318 ], [ 92.759353007735172, 12.146261372664299 ], [ 92.768910950280315, 12.189706542423096 ], [ 92.769534440362293, 12.201729462844639 ], [ 92.764265893456354, 12.210687608846172 ], [ 92.76630899306582, 12.219225547520978 ] ] ], [ [ [ 92.628111939614485, 12.04243963188361 ], [ 92.620041603437357, 12.071766316062678 ], [ 92.645967222509341, 12.177322258215725 ], [ 92.663578083162179, 12.216988968666044 ], [ 92.665732505350888, 12.21671243792872 ], [ 92.655476180781193, 12.18932142934068 ], [ 92.653599077135823, 12.181800083407211 ], [ 92.654960724458022, 12.180728453955226 ], [ 92.674246629978086, 12.217697977079979 ], [ 92.67688268229, 12.198063720964115 ], [ 92.680424390573421, 12.214127691040176 ], [ 92.683750898285382, 12.206157923349622 ], [ 92.689162095654126, 12.234702944685239 ], [ 92.699069423915034, 12.239279269922406 ], [ 92.712637055855453, 12.189961265500187 ], [ 92.70549045292222, 12.180560339188276 ], [ 92.703685140356981, 12.162211615373849 ], [ 92.712879354798531, 12.175625811282202 ], [ 92.711162419510174, 12.168108823463513 ], [ 92.711472956311979, 12.160899911901595 ], [ 92.720601093965513, 12.179851274117084 ], [ 92.757426046574722, 12.176770234558717 ], [ 92.75512608620005, 12.152453285890488 ], [ 92.736287561921586, 12.10960882728557 ], [ 92.735178400163022, 12.085827718074825 ], [ 92.740664665741747, 12.074209321702938 ], [ 92.757875240849785, 12.06467840918134 ], [ 92.748800149707222, 12.055440896879929 ], [ 92.781867421844197, 12.046157084781839 ], [ 92.773168784212146, 12.03575637765482 ], [ 92.777729130295313, 12.024057315692573 ], [ 92.758704143281591, 12.022476653774618 ], [ 92.753672669358423, 12.035692988940468 ], [ 92.74358232636331, 12.035066754127627 ], [ 92.740376745090884, 12.042908651712992 ], [ 92.733109139275427, 12.030511367805445 ], [ 92.741080180406243, 12.029443568566023 ], [ 92.733681126083184, 12.025776547849432 ], [ 92.732256857168295, 12.018676607139923 ], [ 92.740088379275392, 12.017808850398239 ], [ 92.734589685066112, 12.015613471284723 ], [ 92.734273439367826, 12.014160560761297 ], [ 92.746565566447771, 12.016437845630037 ], [ 92.753369118490241, 12.001382359108561 ], [ 92.76632006911592, 12.010873582749753 ], [ 92.766989773559317, 11.999598426126624 ], [ 92.74476082225425, 11.999240360154545 ], [ 92.742557270102111, 11.987056990787664 ], [ 92.756262894017368, 11.987362645170037 ], [ 92.747666245800588, 11.977936357976716 ], [ 92.745054274635208, 11.983448757853921 ], [ 92.733752523260421, 11.9783634361238 ], [ 92.740518605049715, 11.997166645824166 ], [ 92.727826484704565, 11.995295439033384 ], [ 92.72323035189936, 11.975937951075764 ], [ 92.732765766427065, 11.968347294392117 ], [ 92.717442117359894, 11.963444022423744 ], [ 92.714485185143303, 11.951612287976673 ], [ 92.714008074113508, 11.932716779056079 ], [ 92.725855834479376, 11.927319251382414 ], [ 92.726689997045924, 11.852472104803837 ], [ 92.699807026273447, 11.803065563924747 ], [ 92.707799260827414, 11.784174827706238 ], [ 92.703439860161552, 11.770370058931235 ], [ 92.719424329269373, 11.755112156600831 ], [ 92.709978961160346, 11.747119922046863 ], [ 92.649673919515919, 11.748573055602208 ], [ 92.657666154069943, 11.792167062260091 ], [ 92.652580186626437, 11.848112704137975 ], [ 92.664205255068566, 11.864823740023724 ], [ 92.660572421180291, 11.894612977007398 ], [ 92.672015847253647, 11.930759674419505 ], [ 92.646949293874911, 12.038654840448658 ], [ 92.628111939614485, 12.04243963188361 ] ] ], [ [ [ 92.774376363278748, 12.012921515315838 ], [ 92.775205008504429, 12.018099784677418 ], [ 92.776380003334566, 12.016338493926469 ], [ 92.774376363278748, 12.012921515315838 ] ] ], [ [ [ 92.730056279973383, 12.242349311671376 ], [ 92.733059684656894, 12.209962978308909 ], [ 92.735610794202898, 12.220838321531289 ], [ 92.745584883635502, 12.22066470111514 ], [ 92.739942946310009, 12.236088732509074 ], [ 92.745294369339661, 12.226349855361718 ], [ 92.762072053082761, 12.229529655769227 ], [ 92.762749689546695, 12.208923993347526 ], [ 92.76824933433943, 12.200299002996644 ], [ 92.763677269190737, 12.181609401952414 ], [ 92.733432327739877, 12.184694567600332 ], [ 92.730396597824779, 12.193149091457371 ], [ 92.723557114269624, 12.188398016255462 ], [ 92.722272995702383, 12.232901716840843 ], [ 92.730056279973383, 12.242349311671376 ] ] ], [ [ [ 92.738052828575292, 11.957913054244159 ], [ 92.750698208455617, 11.968005290312135 ], [ 92.76564266557665, 11.965270355742291 ], [ 92.766824577991883, 11.956128589762727 ], [ 92.746291972896415, 11.944972298333028 ], [ 92.738052828575292, 11.957913054244159 ] ] ], [ [ [ 92.744119782801761, 11.965576822212654 ], [ 92.743513448187059, 11.967194457058611 ], [ 92.744480312916323, 11.967305917234285 ], [ 92.744119782801761, 11.965576822212654 ] ] ], [ [ [ 92.738718011227377, 12.106761229247525 ], [ 92.741328273680836, 12.113613392344178 ], [ 92.742975023178872, 12.114511208025874 ], [ 92.738718011227377, 12.106761229247525 ] ] ], [ [ [ 92.738329853939717, 11.963772855932632 ], [ 92.73780053546642, 11.964183473788466 ], [ 92.738263473180893, 11.964267803216671 ], [ 92.738329853939717, 11.963772855932632 ] ] ], [ [ [ 92.733183272190331, 11.958967080366506 ], [ 92.731333507035799, 11.943912105559434 ], [ 92.72582881344897, 11.941461962899325 ], [ 92.726391936538789, 11.955003466836672 ], [ 92.733183272190331, 11.958967080366506 ] ] ], [ [ [ 92.724276643852193, 11.951824177244021 ], [ 92.724380270932784, 11.954229520176341 ], [ 92.725926869229681, 11.953191033439566 ], [ 92.724276643852193, 11.951824177244021 ] ] ], [ [ [ 92.70931397456053, 12.233524018918445 ], [ 92.702073877207795, 12.264865676409954 ], [ 92.705545430277482, 12.298587088423631 ], [ 92.723938228067027, 12.29095812601679 ], [ 92.70931397456053, 12.233524018918445 ] ] ], [ [ [ 92.723269951746886, 11.951100032340719 ], [ 92.723187162857528, 11.951767707913461 ], [ 92.723471031163285, 11.951418301513513 ], [ 92.723269951746886, 11.951100032340719 ] ] ], [ [ [ 92.721148789185349, 12.190264115796481 ], [ 92.72133593450593, 12.191557652963468 ], [ 92.721544228283733, 12.190036473104783 ], [ 92.721148789185349, 12.190264115796481 ] ] ], [ [ [ 92.720659258517969, 12.180712746396239 ], [ 92.719889858830015, 12.181578905042556 ], [ 92.720874087669245, 12.181762460269397 ], [ 92.720659258517969, 12.180712746396239 ] ] ], [ [ [ 92.719306996520686, 12.178959110674441 ], [ 92.719261177861029, 12.179831154484191 ], [ 92.719599150280715, 12.179807815278423 ], [ 92.719306996520686, 12.178959110674441 ] ] ], [ [ [ 92.713340921046665, 12.169651560071486 ], [ 92.712729757972056, 12.170500644189531 ], [ 92.713372425197406, 12.170544702875816 ], [ 92.713340921046665, 12.169651560071486 ] ] ], [ [ [ 92.713218848870838, 12.169030171705117 ], [ 92.713309531109985, 12.169378476435611 ], [ 92.71351537783255, 12.169204586222804 ], [ 92.713218848870838, 12.169030171705117 ] ] ], [ [ [ 92.695881175276099, 12.246524766804669 ], [ 92.699433468579855, 12.248808230915245 ], [ 92.699472943421767, 12.243675945688437 ], [ 92.695881175276099, 12.246524766804669 ] ] ], [ [ [ 92.628964059843611, 12.112987797848689 ], [ 92.630225369804975, 12.115753864249484 ], [ 92.629444340983639, 12.11267644086513 ], [ 92.628964059843611, 12.112987797848689 ] ] ] ] } },
{ "type": "Feature", "properties": { "pincode": "744211", "state": "Andaman & Nicobar Islands", "district": "North  & Middle Andaman, South Andaman", "officename": "Havelock", "officetype": "S.O" }, "geometry": { "type": "MultiPolygon", "coordinates": [ [ [ [ 93.848103176520567, 12.270690150929909 ], [ 93.849477608604786, 12.289197708507572 ], [ 93.862403940289653, 12.295496386549132 ], [ 93.874104894425386, 12.288824310893403 ], [ 93.872463231493043, 12.267944580977712 ], [ 93.848103176520567, 12.270690150929909 ] ] ], [ [ [ 93.109465725363009, 12.140043075128006 ], [ 93.12228819434489, 12.144214962650381 ], [ 93.115768920699338, 12.129564332028281 ], [ 93.109465725363009, 12.140043075128006 ] ] ], [ [ [ 93.093538922583434, 12.22436258206767 ], [ 93.063056069082506, 12.230422982934329 ], [ 93.071957485849396, 12.258652083227219 ], [ 93.083214848486477, 12.258545623282032 ], [ 93.088489757196669, 12.23687081353728 ], [ 93.105549483621758, 12.260104277890207 ], [ 93.100815892139792, 12.204577089661086 ], [ 93.092485928882695, 12.211968152608222 ], [ 93.093538922583434, 12.22436258206767 ] ] ], [ [ [ 93.097346247431517, 12.133400159989321 ], [ 93.0970481401597, 12.136974717809039 ], [ 93.099096087114845, 12.136335562436329 ], [ 93.097346247431517, 12.133400159989321 ] ] ], [ [ [ 93.094783777649411, 12.145385834088927 ], [ 93.090221473742133, 12.097964526841565 ], [ 93.073966076673173, 12.083452497934616 ], [ 93.0369603603325, 12.133158200090975 ], [ 93.067577587835501, 12.211249561917782 ], [ 93.087593827393448, 12.192390867644576 ], [ 93.083719851989656, 12.15518042783458 ], [ 93.094783777649411, 12.145385834088927 ] ] ], [ [ [ 93.034478601106684, 12.124395495655676 ], [ 93.033120072633324, 12.100788366589882 ], [ 93.053875287814321, 12.075323781367388 ], [ 93.044978516045774, 12.045446096060573 ], [ 93.027880163738587, 12.068041781902821 ], [ 93.006282297290227, 12.079796734032186 ], [ 93.008975328848521, 12.103793613984124 ], [ 93.00191705372913, 12.133441419086296 ], [ 93.027320553400955, 12.166571294829509 ], [ 93.024741383208379, 12.141399832835987 ], [ 93.034478601106684, 12.124395495655676 ] ] ], [ [ [ 93.009279462477423, 11.996359405362341 ], [ 93.053548920246669, 11.903703648005035 ], [ 93.038670596571023, 11.88184738744701 ], [ 93.025090115116768, 11.888291550614724 ], [ 92.997442698122029, 11.935457802036069 ], [ 93.002069952866236, 11.948333079208282 ], [ 92.97369610669017, 11.949096600028213 ], [ 92.959715653554724, 11.981354995836625 ], [ 92.934046816107866, 11.985038293382729 ], [ 92.925205988465791, 11.997628402728708 ], [ 92.949922819782387, 12.011274437565419 ], [ 92.964831055808702, 12.049380371906693 ], [ 92.965551309345528, 12.040375078946795 ], [ 92.970052614936321, 12.029868324663482 ], [ 92.974611630922027, 12.042059690802148 ], [ 92.982425809603569, 12.042280398821504 ], [ 93.0033401085592, 12.028318899797569 ], [ 93.009279462477423, 11.996359405362341 ] ] ], [ [ [ 93.020810787387973, 12.223538416364875 ], [ 93.020022671009599, 12.224687331755092 ], [ 93.021314868186778, 12.224660631782911 ], [ 93.020810787387973, 12.223538416364875 ] ] ], [ [ [ 93.004859362069908, 12.103372984875534 ], [ 92.997097669621894, 12.045009932062896 ], [ 92.980297602652286, 12.050709015009033 ], [ 92.975660943697733, 12.066552395776569 ], [ 92.961633822043325, 12.071638806585725 ], [ 92.9611374700184, 12.082528923870825 ], [ 92.971777413896518, 12.087691609779995 ], [ 92.960704453647736, 12.093713802949765 ], [ 92.959729566066756, 12.107128067206645 ], [ 92.973301458095989, 12.101060487051882 ], [ 92.986374989913998, 12.108914103703114 ], [ 93.004859362069908, 12.103372984875534 ] ] ], [ [ [ 93.002740935246095, 12.109456285179533 ], [ 93.002557521212793, 12.110483420673347 ], [ 93.003095700706126, 12.109176754303746 ], [ 93.002740935246095, 12.109456285179533 ] ] ], [ [ [ 93.00102577252153, 12.111383773342595 ], [ 93.000594351548273, 12.116700951088148 ], [ 93.002711732460682, 12.1168626419975 ], [ 93.00102577252153, 12.111383773342595 ] ] ], [ [ [ 93.001077547390935, 12.107546704317031 ], [ 93.001763220196551, 12.108066046610816 ], [ 93.002405405385332, 12.107543179873915 ], [ 93.001077547390935, 12.107546704317031 ] ] ], [ [ [ 93.00076870760978, 12.109947830328281 ], [ 93.000798199077735, 12.110251160862504 ], [ 93.000959983516566, 12.110046167596579 ], [ 93.00076870760978, 12.109947830328281 ] ] ], [ [ [ 92.981159415774528, 12.111437211058501 ], [ 92.97615475693658, 12.120911120951519 ], [ 92.962878195972166, 12.122465738503024 ], [ 92.957448487857619, 12.14849395763008 ], [ 92.991985248620495, 12.143614725439136 ], [ 93.000552999821082, 12.118009220049544 ], [ 92.981159415774528, 12.111437211058501 ] ] ], [ [ [ 92.997998496233777, 12.113337096330042 ], [ 92.998873851347298, 12.113455992100398 ], [ 92.997959557387844, 12.112649114065448 ], [ 92.997998496233777, 12.113337096330042 ] ] ], [ [ [ 92.992959914068933, 12.109771904050319 ], [ 92.99325251659053, 12.111140284596615 ], [ 92.9936436344463, 12.10979123317901 ], [ 92.992959914068933, 12.109771904050319 ] ] ], [ [ [ 92.97801558285289, 12.109940232855593 ], [ 92.978404770763746, 12.110780695172934 ], [ 92.978578124980572, 12.110018771549221 ], [ 92.97801558285289, 12.109940232855593 ] ] ], [ [ [ 92.973951177804793, 12.103373066713687 ], [ 92.975781720849739, 12.105487786532137 ], [ 92.97700672967693, 12.103985249619654 ], [ 92.973951177804793, 12.103373066713687 ] ] ], [ [ [ 92.947703457548641, 12.116008297744941 ], [ 92.957719333980208, 12.099491543300076 ], [ 92.951608336355832, 12.084298916461876 ], [ 92.949972933604101, 12.108835064986408 ], [ 92.947703457548641, 12.116008297744941 ] ] ], [ [ [ 92.928173021867508, 12.222459634604604 ], [ 92.941027718954217, 12.218022986671485 ], [ 92.932873107308183, 12.195857729850388 ], [ 92.9253880436234, 12.207997888591819 ], [ 92.928173021867508, 12.222459634604604 ] ] ] ] } },
{ "type": "Feature", "properties": { "pincode": "744301", "state": "Andaman & Nicobar Islands", "district": "Nicobars", "officename": "Carnicobar", "officetype": "S.O" }, "geometry": { "type": "MultiPolygon", "coordinates": [ [ [ [ 92.811820983851476, 9.203608513222377 ], [ 92.824241638440924, 9.162621498183739 ], [ 92.820259094181949, 9.135425567835796 ], [ 92.796440124412243, 9.120357513288582 ], [ 92.767974853157114, 9.121316910047426 ], [ 92.769950866939041, 9.128245353640182 ], [ 92.782463073412089, 9.126590728779206 ], [ 92.773727416986844, 9.138421058485108 ], [ 92.758003235061437, 9.123238563409018 ], [ 92.723571777715335, 9.121575355418315 ], [ 92.711540222003805, 9.151522636560514 ], [ 92.716552734621246, 9.215995788574901 ], [ 92.738182067448577, 9.208729743982587 ], [ 92.760490417199037, 9.217111587329953 ], [ 92.766777038929376, 9.259294510033783 ], [ 92.811820983851476, 9.203608513222377 ] ] ], [ [ [ 92.851898193446914, 8.81648445129639 ], [ 92.848487853631582, 8.828161239749534 ], [ 92.860801696640976, 8.838915824705623 ], [ 92.851898193446914, 8.81648445129639 ] ] ] ] } },
{ "type": "Feature", "properties": { "pincode": "744101", "state": "Andaman & Nicobar Islands", "district": "South Andaman", "officename": "Port Blair", "officetype": "H.O" }, "geometry": { "type": "Polygon", "coordinates": [ [ [ 92.740730284774997, 11.641528013307266 ], [ 92.746665834560702, 11.639356021063634 ], [ 92.736435458130074, 11.636811104249091 ], [ 92.732716900864432, 11.626529183175421 ], [ 92.719675812988328, 11.625941536472737 ], [ 92.72158855316934, 11.634224466985586 ], [ 92.717541219951443, 11.63476558546364 ], [ 92.718532195504622, 11.637100819946909 ], [ 92.712173029961491, 11.638851471718226 ], [ 92.710904407612475, 11.641068557767881 ], [ 92.707749162294078, 11.641367042755007 ], [ 92.707614493314338, 11.642361975324945 ], [ 92.710583251615901, 11.652012003950915 ], [ 92.719980621108789, 11.65286031105461 ], [ 92.724949290877191, 11.657051668000179 ], [ 92.726527335768083, 11.656332752654635 ], [ 92.727492728306743, 11.65697147905064 ], [ 92.729072517882571, 11.656635596655519 ], [ 92.729348365135138, 11.65668120937039 ], [ 92.729668665876432, 11.656911466391136 ], [ 92.718924675833193, 11.663990778451762 ], [ 92.731339921000597, 11.665521743833438 ], [ 92.738307643383166, 11.677541129919121 ], [ 92.755231047874588, 11.666283462411968 ], [ 92.744959839525166, 11.663444489771507 ], [ 92.740730284774997, 11.641528013307266 ] ] ] } },
{ "type": "Feature", "properties": { "pincode": "744112", "state": "Andaman & Nicobar Islands", "district": "South Andaman", "officename": "Chakargoan", "officetype": "S.O" }, "geometry": { "type": "Polygon", "coordinates": [ [ [ 92.753254767893338, 11.645092644410113 ], [ 92.74027203432712, 11.641410372990435 ], [ 92.739833342335032, 11.647723987871814 ], [ 92.74457458524904, 11.654510032811856 ], [ 92.757377627075925, 11.656198698811068 ], [ 92.753254767893338, 11.645092644410113 ] ] ] } },
{ "type": "Feature", "properties": { "pincode": "744202", "state": "Andaman & Nicobar Islands", "district": "North  & Middle Andaman", "officename": "Diglipur", "officetype": "S.O" }, "geometry": { "type": "MultiPolygon", "coordinates": [ [ [ [ 94.249504281697284, 13.444573076386348 ], [ 94.262929478112994, 13.464246065403586 ], [ 94.277246875742776, 13.461939146074769 ], [ 94.27486879395974, 13.44131668881414 ], [ 94.26314658434751, 13.429768978255879 ], [ 94.249504281697284, 13.444573076386348 ] ] ], [ [ [ 93.098224457892513, 13.431173545722686 ], [ 93.09796129737623, 13.437453967526608 ], [ 93.103642139373392, 13.430247640616301 ], [ 93.098224457892513, 13.431173545722686 ] ] ], [ [ [ 93.090729826320626, 13.410043114498194 ], [ 93.091107062241349, 13.419590702249138 ], [ 93.094553885753328, 13.417312648459983 ], [ 93.090729826320626, 13.410043114498194 ] ] ], [ [ [ 92.973591330275781, 13.529636328054266 ], [ 92.988409413763463, 13.525587154823427 ], [ 92.992035115128601, 13.530010158242192 ], [ 92.981829571677565, 13.549248184756095 ], [ 92.988123814262792, 13.572927427758771 ], [ 93.009913467432625, 13.542127121669523 ], [ 93.01535967990543, 13.543527249183171 ], [ 93.016229675958925, 13.571068297963734 ], [ 93.027500992476917, 13.578727189808035 ], [ 93.04456529824995, 13.52606862756528 ], [ 93.034600568061933, 13.467546517058338 ], [ 93.021149193280792, 13.467370323681621 ], [ 93.016923879733383, 13.465973223285744 ], [ 93.015792394103926, 13.462540865368737 ], [ 93.033128358087424, 13.455976562668411 ], [ 93.034567834537995, 13.435266016813387 ], [ 93.020076284093363, 13.430767088130835 ], [ 93.040451606756392, 13.426862388288612 ], [ 93.035237663087742, 13.418067422473598 ], [ 93.04566522576971, 13.403142006698317 ], [ 93.06187181573182, 13.420690766465782 ], [ 93.05841840648435, 13.399611968917441 ], [ 93.069764887439703, 13.406873401786129 ], [ 93.068663167571287, 13.397073698092811 ], [ 93.05197754742602, 13.391619350352755 ], [ 93.048098159002905, 13.373177749053923 ], [ 93.054984154595104, 13.382161768550816 ], [ 93.070561101313899, 13.347610936995181 ], [ 93.089998235929897, 13.335775665514632 ], [ 93.07546895532812, 13.329212924936655 ], [ 93.065649158981557, 13.303946292187732 ], [ 93.061399235486476, 13.329609128458742 ], [ 93.03992909525158, 13.322863579090949 ], [ 93.046314953572278, 13.345544370476375 ], [ 93.041493931799721, 13.367972366931269 ], [ 93.035044076822885, 13.362700254213507 ], [ 93.040611074541516, 13.351499858231932 ], [ 93.032144956624563, 13.345157251006412 ], [ 93.003377229875355, 13.354073231394693 ], [ 92.986471608578029, 13.328795447052357 ], [ 92.97098084658893, 13.34761298295291 ], [ 92.971026255157597, 13.359441713664296 ], [ 92.950999898226769, 13.344393605180869 ], [ 92.964398151853345, 13.325008689699359 ], [ 93.000968059428374, 13.312544480943075 ], [ 93.009220008296779, 13.320532847512879 ], [ 93.006418906107683, 13.308925248401465 ], [ 93.021769937732529, 13.294435526278733 ], [ 93.01079204841443, 13.296390078639376 ], [ 93.016381870926693, 13.289240555607307 ], [ 93.009979510046492, 13.282394437753339 ], [ 93.011623749536625, 13.276384069769222 ], [ 93.046433191039057, 13.28190994239003 ], [ 93.040060637288718, 13.270180767528473 ], [ 93.044714147739853, 13.258357309542248 ], [ 93.065783917893668, 13.272447465578182 ], [ 93.056037312871808, 13.233015683227165 ], [ 93.041131104816714, 13.223223615677512 ], [ 93.04500304595399, 13.210334153498479 ], [ 93.032299275791047, 13.182248816130027 ], [ 93.034453345445627, 13.08135382541883 ], [ 93.003324110519316, 13.028406395538866 ], [ 92.995472593785166, 13.035858006242108 ], [ 92.982590710193335, 13.023888656636245 ], [ 92.965177914429432, 13.036232805899374 ], [ 92.967718113400281, 13.017971960237844 ], [ 92.975611018733673, 13.014883440118695 ], [ 92.970583850764285, 13.012716056900558 ], [ 92.955079556676424, 13.018655515139926 ], [ 92.934618050183019, 13.042394259087928 ], [ 92.936021625697492, 13.051953995780309 ], [ 92.945469035267877, 13.053956196021829 ], [ 92.936154636327387, 13.087577870522523 ], [ 92.935201912538446, 13.062204262516673 ], [ 92.924292481413033, 13.056812898796238 ], [ 92.913181157884196, 13.076553118431718 ], [ 92.909297889785819, 13.079495380907133 ], [ 92.907173044500325, 13.080305042344037 ], [ 92.904755798141707, 13.08039115602719 ], [ 92.913031427058797, 13.067235108713362 ], [ 92.905425775978813, 13.059599785401815 ], [ 92.91634420661984, 13.050389652061028 ], [ 92.900989569613046, 13.020419310502859 ], [ 92.917855121616697, 12.986164380182117 ], [ 92.932606963740568, 12.989524621464341 ], [ 92.930619978229515, 12.979512694854975 ], [ 92.937187598529022, 12.980991390740201 ], [ 92.938483362417401, 12.971686985066526 ], [ 92.927703337439084, 12.957858104568004 ], [ 92.921879803610068, 12.961996048978619 ], [ 92.918198918945109, 12.960197129693768 ], [ 92.912280852879064, 12.946886506007502 ], [ 92.907621557988534, 12.985402246116792 ], [ 92.898359526571028, 12.987004367657619 ], [ 92.899807128396446, 12.99456896108893 ], [ 92.881479496381758, 12.982442531397794 ], [ 92.871516875103737, 12.949791943943239 ], [ 92.877244887441634, 12.944823191437251 ], [ 92.868826413808051, 12.934431196042908 ], [ 92.857156029427358, 12.934295066564232 ], [ 92.85303191838841, 12.914400375776836 ], [ 92.866304947715207, 12.90157031202034 ], [ 92.875670503690969, 12.908603825206455 ], [ 92.87365408876542, 12.883286182911093 ], [ 92.842283427238442, 12.876615066832017 ], [ 92.842989780853884, 12.891885709857831 ], [ 92.829796387393515, 12.886450560844821 ], [ 92.824324608094344, 12.89690721839338 ], [ 92.802943804712868, 12.898680199431794 ], [ 92.794512573296743, 12.91451115336713 ], [ 92.794107761464147, 12.930930756749149 ], [ 92.802555803007976, 12.938859424523002 ], [ 92.801966979992187, 12.948268104789179 ], [ 92.792368268480857, 12.952150748758186 ], [ 92.792129344693649, 12.965745575298058 ], [ 92.798209805837985, 12.96282659986781 ], [ 92.794754966668393, 12.986834049551874 ], [ 92.818675212690948, 12.985606622447733 ], [ 92.808913431609653, 12.997891422750968 ], [ 92.819084918634076, 13.000361673352586 ], [ 92.825560704662905, 13.013906297037977 ], [ 92.806170571314851, 13.006588021620132 ], [ 92.78821176206327, 13.018938074033031 ], [ 92.796153740702607, 13.030044185990391 ], [ 92.797213278769846, 13.082079359774809 ], [ 92.809684324172281, 13.07559078358787 ], [ 92.808946037429735, 13.07173430989053 ], [ 92.809544487688015, 13.071664193347885 ], [ 92.812458441304159, 13.076777875198843 ], [ 92.807350531302177, 13.09948792153051 ], [ 92.813510122894002, 13.103621784817733 ], [ 92.820578121483265, 13.094195809688927 ], [ 92.822814715626748, 13.09542278173592 ], [ 92.825973645467457, 13.115131550280921 ], [ 92.816548347528339, 13.114829334905892 ], [ 92.81001791779272, 13.126721241192456 ], [ 92.824068248251081, 13.133650958225189 ], [ 92.834233278143415, 13.123188792329074 ], [ 92.847844038871472, 13.13922504889689 ], [ 92.842896095778372, 13.146716022027022 ], [ 92.80961086844701, 13.153278978442131 ], [ 92.815633119173185, 13.1746867273107 ], [ 92.835816146997729, 13.173195575815271 ], [ 92.826832964769551, 13.18163468079598 ], [ 92.819089217393639, 13.184293033596589 ], [ 92.824709088953398, 13.192441188110365 ], [ 92.817622761281541, 13.19956738182924 ], [ 92.832818494378046, 13.214548272285015 ], [ 92.824182377614818, 13.216431449052266 ], [ 92.827814838284326, 13.236979978443344 ], [ 92.836736227195331, 13.243610848062247 ], [ 92.849276148075887, 13.238552461027325 ], [ 92.84995488980644, 13.259324863152131 ], [ 92.852990093618075, 13.256157172115877 ], [ 92.8557969550655, 13.255270988265522 ], [ 92.856194721609313, 13.255516394366282 ], [ 92.845910777060737, 13.262018391135882 ], [ 92.839312929648145, 13.258066520953321 ], [ 92.834308688994838, 13.268809028913665 ], [ 92.82254010314341, 13.270897729546732 ], [ 92.824313285629728, 13.288038812241496 ], [ 92.837062339355725, 13.285713017042212 ], [ 92.842349012996635, 13.301153182273538 ], [ 92.821953439399692, 13.310626540882254 ], [ 92.831674767176935, 13.315099460271938 ], [ 92.826482266043854, 13.326002435164298 ], [ 92.841399144554941, 13.377498248645281 ], [ 92.851829347646401, 13.368846312807079 ], [ 92.854620156195438, 13.378397690301199 ], [ 92.868039630224871, 13.38027339999752 ], [ 92.866484801332547, 13.390323896730536 ], [ 92.85948575196602, 13.385610829576194 ], [ 92.844008232494048, 13.393076904075997 ], [ 92.844657285805226, 13.406967191183014 ], [ 92.851030728985052, 13.411298933199305 ], [ 92.865961028078971, 13.400195769219408 ], [ 92.873524526136009, 13.413356360807484 ], [ 92.870230466862665, 13.42499477428953 ], [ 92.884863063379669, 13.431074391869743 ], [ 92.873056779746832, 13.447627963659841 ], [ 92.872096341573013, 13.472024928607652 ], [ 92.895264407226705, 13.473984159241581 ], [ 92.903977804532246, 13.485050665955612 ], [ 92.902184062644437, 13.497273915758683 ], [ 92.918852240438696, 13.500913145625304 ], [ 92.922167645120851, 13.494260432373153 ], [ 92.93086371249052, 13.502310042774354 ], [ 92.923113972931674, 13.512645622797322 ], [ 92.927306779584285, 13.52221377264749 ], [ 92.913708069771644, 13.526265070076931 ], [ 92.91744656140969, 13.536283691239476 ], [ 92.965561334088477, 13.543135955060393 ], [ 92.973591330275781, 13.529636328054266 ] ] ], [ [ [ 93.081849119141566, 13.367406024268519 ], [ 93.081923193600687, 13.369413630334805 ], [ 93.082859136040327, 13.368313526548093 ], [ 93.081849119141566, 13.367406024268519 ] ] ], [ [ [ 93.072247148487236, 13.298215524327134 ], [ 93.078467941642373, 13.301609643070719 ], [ 93.078873646501734, 13.300515558446421 ], [ 93.072247148487236, 13.298215524327134 ] ] ], [ [ [ 93.077288845903638, 13.363004593787139 ], [ 93.075790970177252, 13.366274839912023 ], [ 93.07772874208797, 13.363898794193972 ], [ 93.077288845903638, 13.363004593787139 ] ] ], [ [ [ 93.068248125051127, 13.414683107239682 ], [ 93.072734751907319, 13.431042822968095 ], [ 93.071293100896128, 13.412640008529536 ], [ 93.068248125051127, 13.414683107239682 ] ] ], [ [ [ 93.047166350746579, 13.621099493546978 ], [ 93.043289624316742, 13.637663426426172 ], [ 93.056340369112888, 13.653688753533231 ], [ 93.065539637744337, 13.652907178823398 ], [ 93.047166350746579, 13.621099493546978 ] ] ], [ [ [ 93.062006764400792, 13.382748316281891 ], [ 93.063080752774567, 13.38659624282252 ], [ 93.063913898207943, 13.38558919818297 ], [ 93.062006764400792, 13.382748316281891 ] ] ], [ [ [ 93.058465533657454, 13.223060121627384 ], [ 93.058854402308896, 13.225970532813903 ], [ 93.059982277160543, 13.22219273090991 ], [ 93.058465533657454, 13.223060121627384 ] ] ], [ [ [ 93.052176778735486, 13.563171931139891 ], [ 93.05693930410564, 13.56590486291924 ], [ 93.053935537894802, 13.560060753500977 ], [ 93.052176778735486, 13.563171931139891 ] ] ], [ [ [ 93.049770951068638, 13.293421964252389 ], [ 93.049451324818904, 13.294116944141706 ], [ 93.050357990728742, 13.294925381601047 ], [ 93.049770951068638, 13.293421964252389 ] ] ], [ [ [ 93.03639312913964, 13.341840291396466 ], [ 93.038510599984193, 13.343622347493465 ], [ 93.037019252436664, 13.340469193998217 ], [ 93.03639312913964, 13.341840291396466 ] ] ], [ [ [ 93.015957595966427, 13.675301143133368 ], [ 93.032038687335728, 13.633364408041132 ], [ 93.024061355447316, 13.627143431424258 ], [ 93.01051359942312, 13.648281713730171 ], [ 92.986143945986385, 13.642875399680008 ], [ 92.977457268438229, 13.656289196289492 ], [ 92.983350736247473, 13.655169860500621 ], [ 92.981802511077206, 13.664880817295966 ], [ 93.005195105070072, 13.666183999691896 ], [ 93.015957595966427, 13.675301143133368 ] ] ], [ [ [ 93.018107020622665, 13.329190556998583 ], [ 93.02504955659191, 13.326408770448495 ], [ 93.021517489940265, 13.302093376708058 ], [ 93.014857660352902, 13.308562936730311 ], [ 93.018107020622665, 13.329190556998583 ] ] ], [ [ [ 93.016898432516825, 13.338193866054212 ], [ 93.020883376166864, 13.343963914503206 ], [ 93.018578965946745, 13.336603803522792 ], [ 93.016898432516825, 13.338193866054212 ] ] ], [ [ [ 93.014896985907285, 13.337356812167172 ], [ 93.014253522782042, 13.338723606309429 ], [ 93.015895877293076, 13.33872443908183 ], [ 93.014896985907285, 13.337356812167172 ] ] ], [ [ [ 93.007875443596845, 13.335596922560001 ], [ 93.008523762161929, 13.33704096576804 ], [ 93.009455692726078, 13.336758877220461 ], [ 93.007875443596845, 13.335596922560001 ] ] ], [ [ [ 92.972912133488421, 12.953528995766646 ], [ 92.956200748665822, 12.95796660687364 ], [ 92.954053782756034, 12.967741815732381 ], [ 92.963150505291821, 12.969867418246793 ], [ 92.952540710285689, 12.980443042612364 ], [ 92.961736606459283, 12.989567526320343 ], [ 92.972445577801182, 12.969470606783148 ], [ 92.988980655932608, 12.985198559565958 ], [ 92.985913338230034, 12.993190201466689 ], [ 93.006074483750524, 12.997909283286788 ], [ 92.979981056580641, 12.966679996984226 ], [ 92.988050399006909, 12.954745937674943 ], [ 92.980128976171329, 12.952177621400267 ], [ 92.981524530632669, 12.932945835282169 ], [ 92.968239822709791, 12.944921678892456 ], [ 92.952430373363143, 12.940837954608014 ], [ 92.959895581815829, 12.949429915558198 ], [ 92.974005512144686, 12.945303320591847 ], [ 92.972912133488421, 12.953528995766646 ] ] ], [ [ [ 92.986738021042925, 12.998754673889266 ], [ 92.989256285549345, 13.000213216866541 ], [ 92.988137517232758, 12.998252100354307 ], [ 92.986738021042925, 12.998754673889266 ] ] ], [ [ [ 92.96768886924599, 13.332603696403623 ], [ 92.967484729436933, 13.337579993322151 ], [ 92.969999314816675, 13.3383181361732 ], [ 92.96768886924599, 13.332603696403623 ] ] ], [ [ [ 92.947025240122798, 13.024252557409568 ], [ 92.949015229369422, 13.024467744490892 ], [ 92.949006446590317, 13.020597191907029 ], [ 92.947025240122798, 13.024252557409568 ] ] ], [ [ [ 92.915622579818319, 13.013545787608166 ], [ 92.922812500396731, 13.028770740577272 ], [ 92.939653932582985, 13.025016653795603 ], [ 92.944445684121092, 12.997457743580185 ], [ 92.921285025283737, 13.000335137057107 ], [ 92.915622579818319, 13.013545787608166 ] ] ], [ [ [ 92.933047458873205, 13.049420707199999 ], [ 92.93223506619546, 13.052834098415019 ], [ 92.933649945288778, 13.052925274381835 ], [ 92.933047458873205, 13.049420707199999 ] ] ], [ [ [ 92.91543995269177, 13.506696430296188 ], [ 92.918268965340644, 13.51559789292844 ], [ 92.92216071584437, 13.513057734427093 ], [ 92.91543995269177, 13.506696430296188 ] ] ], [ [ [ 92.919221383360252, 13.040407623413273 ], [ 92.915485089665196, 13.046197576556892 ], [ 92.917497776001539, 13.047604143216631 ], [ 92.919221383360252, 13.040407623413273 ] ] ], [ [ [ 92.915097919833215, 13.05880712654772 ], [ 92.914019196528727, 13.067217476605322 ], [ 92.917663468894034, 13.058172062191034 ], [ 92.915097919833215, 13.05880712654772 ] ] ], [ [ [ 92.914466027385345, 13.053730420322722 ], [ 92.915902031553685, 13.054749647178539 ], [ 92.915868405002925, 13.053292221159154 ], [ 92.914466027385345, 13.053730420322722 ] ] ], [ [ [ 92.914691303960694, 13.067398613555213 ], [ 92.91453761252103, 13.068390293277389 ], [ 92.914926186194691, 13.06739478064452 ], [ 92.914691303960694, 13.067398613555213 ] ] ], [ [ [ 92.906367010029726, 13.530600772707487 ], [ 92.90746474500213, 13.537013712313126 ], [ 92.912618410711275, 13.534027360574441 ], [ 92.906367010029726, 13.530600772707487 ] ] ], [ [ [ 92.911823929830518, 13.075279262927779 ], [ 92.910544907721317, 13.075684899438613 ], [ 92.910746199377741, 13.076169227527942 ], [ 92.911823929830518, 13.075279262927779 ] ] ], [ [ [ 92.895718184446764, 13.599684548303401 ], [ 92.903338605092586, 13.596304685612893 ], [ 92.88490352387862, 13.574534821125269 ], [ 92.882112941958781, 13.581150990426011 ], [ 92.895718184446764, 13.599684548303401 ] ] ], [ [ [ 92.902170920851347, 12.939033183434617 ], [ 92.901735139065579, 12.941592569441582 ], [ 92.903097879963127, 12.938664009936076 ], [ 92.902170920851347, 12.939033183434617 ] ] ], [ [ [ 92.889841759689489, 12.934332709487137 ], [ 92.890582810948047, 12.937777829683171 ], [ 92.893023411801209, 12.936880548198872 ], [ 92.889841759689489, 12.934332709487137 ] ] ], [ [ [ 92.891735447732856, 12.93188830270293 ], [ 92.891723779928725, 12.932486593781334 ], [ 92.892140008654508, 12.932330250240909 ], [ 92.891735447732856, 12.93188830270293 ] ] ], [ [ [ 92.860197333340238, 12.933193525660727 ], [ 92.874080853948271, 12.934445004233623 ], [ 92.886212073428624, 12.923911615628697 ], [ 92.875661276646781, 12.927326312659432 ], [ 92.873326127598943, 12.916224699110614 ], [ 92.865479483391482, 12.91664470408989 ], [ 92.860197333340238, 12.933193525660727 ] ] ], [ [ [ 92.875296720267556, 13.535011543548137 ], [ 92.875151784627178, 13.540927986337522 ], [ 92.878225075626801, 13.537330975144414 ], [ 92.875296720267556, 13.535011543548137 ] ] ], [ [ [ 92.866812885706281, 13.506512221262028 ], [ 92.872211695813348, 13.512535527792352 ], [ 92.872848410425945, 13.502329774799421 ], [ 92.866812885706281, 13.506512221262028 ] ] ], [ [ [ 92.865167844020846, 13.411885396394098 ], [ 92.86546876527143, 13.414125005964422 ], [ 92.867041189399572, 13.411682318684086 ], [ 92.865167844020846, 13.411885396394098 ] ] ], [ [ [ 92.822789297188365, 13.420746252837375 ], [ 92.825667694308834, 13.438627686218808 ], [ 92.842906519820076, 13.442038510768725 ], [ 92.846239758058573, 13.431043795135167 ], [ 92.83522927011478, 13.420237046802299 ], [ 92.822789297188365, 13.420746252837375 ] ] ], [ [ [ 92.840112199418513, 13.248562311101864 ], [ 92.839635721511456, 13.249056033509135 ], [ 92.840114288543646, 13.249142899924891 ], [ 92.840112199418513, 13.248562311101864 ] ] ], [ [ [ 92.830415851210603, 13.36834615754924 ], [ 92.830525669224301, 13.368782041857799 ], [ 92.830993912938879, 13.368612840710171 ], [ 92.830415851210603, 13.36834615754924 ] ] ], [ [ [ 92.823942979884748, 13.178645739908973 ], [ 92.824538455185632, 13.18233503323529 ], [ 92.825654378946524, 13.180739188962377 ], [ 92.823942979884748, 13.178645739908973 ] ] ], [ [ [ 92.812191864263184, 13.406359300741201 ], [ 92.813868146597827, 13.413911833364523 ], [ 92.812782027268781, 13.419427977119597 ], [ 92.818846766465299, 13.416157750779576 ], [ 92.812191864263184, 13.406359300741201 ] ] ], [ [ [ 92.812701253759997, 13.272384316982823 ], [ 92.815626657544271, 13.271671572784953 ], [ 92.813740891628981, 13.268540050682873 ], [ 92.812701253759997, 13.272384316982823 ] ] ], [ [ [ 92.802080775707282, 13.08760128976769 ], [ 92.795700913166797, 13.084244714122349 ], [ 92.799535973106799, 13.091360819246574 ], [ 92.802080775707282, 13.08760128976769 ] ] ], [ [ [ 92.795093388748967, 13.167359568389486 ], [ 92.79396902485081, 13.170433543773242 ], [ 92.796933438527503, 13.170432634558495 ], [ 92.795093388748967, 13.167359568389486 ] ] ], [ [ [ 92.755778051515904, 13.200858977360042 ], [ 92.755565346563628, 13.202515078008446 ], [ 92.756501548907522, 13.202328362563946 ], [ 92.755778051515904, 13.200858977360042 ] ] ], [ [ [ 92.729145920547978, 13.090581506331546 ], [ 92.728348730009884, 13.093618415257652 ], [ 92.731468034822001, 13.09508148542244 ], [ 92.729145920547978, 13.090581506331546 ] ] ], [ [ [ 92.695488534868048, 13.095432355019284 ], [ 92.720199597933174, 13.098011639425749 ], [ 92.703946747744283, 13.080176882657099 ], [ 92.705659814149271, 13.070516892240789 ], [ 92.695488534868048, 13.095432355019284 ] ] ] ] } },
{ "type": "Feature", "properties": { "pincode": "744303", "state": "Andaman & Nicobar Islands", "district": "Nicobars", "officename": "Nancowrie", "officetype": "S.O" }, "geometry": { "type": "MultiPolygon", "coordinates": [ [ [ [ 93.499595641725421, 8.144586563319308 ], [ 93.518844604894639, 8.116560935538871 ], [ 93.51709747307001, 8.108728408889021 ], [ 93.547439575476233, 8.077620505881669 ], [ 93.542900085570636, 8.035524368654819 ], [ 93.529388427434128, 8.047536849745882 ], [ 93.522903442240136, 8.031607627789811 ], [ 93.505195617583922, 8.029554366740626 ], [ 93.507072448734675, 7.994448184935834 ], [ 93.499404907210874, 7.992348194213946 ], [ 93.484016418822762, 8.0109176638191 ], [ 93.47550201450639, 8.08225917841844 ], [ 93.483947753785912, 8.088565826251909 ], [ 93.470321655120529, 8.091155051764304 ], [ 93.462310791110326, 8.105300903713839 ], [ 93.471328735732641, 8.120574951572905 ], [ 93.456405639309025, 8.116485595733707 ], [ 93.461387634331913, 8.141360283250606 ], [ 93.454032897700131, 8.139431000040759 ], [ 93.451339721351189, 8.169726371874731 ], [ 93.48784637421079, 8.19866657240442 ], [ 93.490806579959781, 8.219841957140773 ], [ 93.518798828503236, 8.229833603138445 ], [ 93.538192748896222, 8.226851462924742 ], [ 93.543182372868387, 8.197040557675678 ], [ 93.53491210930639, 8.176261901665498 ], [ 93.52899932855621, 8.18452835120263 ], [ 93.518829346097561, 8.172162056134141 ], [ 93.512962341738785, 8.181051254711747 ], [ 93.499595641725421, 8.144586563319308 ] ] ], [ [ [ 93.095924377008373, 8.239543915119611 ], [ 93.074417114558287, 8.27670478789571 ], [ 93.072219848667089, 8.301722526973037 ], [ 93.088867187370909, 8.346992493109155 ], [ 93.114311218587943, 8.357681274671222 ], [ 93.128364562674619, 8.342474937668328 ], [ 93.114784240400411, 8.274958610251815 ], [ 93.144256591368674, 8.244795799386623 ], [ 93.182060241986619, 8.228069305054476 ], [ 93.185150146162471, 8.204903602819059 ], [ 93.169990539731714, 8.201253891354099 ], [ 93.136421203975374, 8.211832046411928 ], [ 93.095924377008373, 8.239543915119611 ] ] ], [ [ [ 93.527153014999783, 8.005470275932566 ], [ 93.526237488069796, 8.022918701037327 ], [ 93.544776916721389, 7.998753070497855 ], [ 93.541252136377182, 8.01965427442525 ], [ 93.558509826966997, 8.021240234249547 ], [ 93.575538635599742, 7.993584632524744 ], [ 93.572822570605297, 7.92561864858186 ], [ 93.507156371669225, 7.979965209526881 ], [ 93.527153014999783, 8.005470275932566 ] ] ], [ [ [ 93.593818664699768, 8.538683891048834 ], [ 93.595054626369972, 8.569269180028698 ], [ 93.605484008380472, 8.528248786652227 ], [ 93.615974426478715, 8.519179344151382 ], [ 93.625427246370407, 8.463668823057844 ], [ 93.61177825905952, 8.466496467837885 ], [ 93.605209350930977, 8.419303894159441 ], [ 93.602455139393214, 8.474201202623533 ], [ 93.610183716105666, 8.483485221565786 ], [ 93.593818664699768, 8.538683891048834 ] ] ], [ [ [ 93.58447265638813, 8.063361167583821 ], [ 93.567794800089985, 8.108190536064512 ], [ 93.576728820878429, 8.111973762679156 ], [ 93.571365356825766, 8.11719322188975 ], [ 93.562728882132319, 8.10790061981794 ], [ 93.557846069740435, 8.111288070987825 ], [ 93.560508727595845, 8.119590759605842 ], [ 93.575904845831985, 8.122991562111054 ], [ 93.596420288265733, 8.047421455036272 ], [ 93.59214782686081, 8.038640976400018 ], [ 93.569786071769784, 8.05905055963575 ], [ 93.571235656600265, 8.072162628302635 ], [ 93.58447265638813, 8.063361167583821 ] ] ], [ [ [ 93.198532104073365, 8.253794670287903 ], [ 93.205780029125151, 8.263312339392996 ], [ 93.215721130525878, 8.261376380515685 ], [ 93.221015930441013, 8.227897644260963 ], [ 93.208778381417289, 8.229804038825478 ], [ 93.198532104073365, 8.253794670287903 ] ] ], [ [ [ 93.04220581084968, 8.465169906665835 ], [ 93.043190002816516, 8.444727897474536 ], [ 93.039093017129119, 8.440994263074799 ], [ 93.022933959934392, 8.457777023490905 ], [ 93.030128478746349, 8.47097778329811 ], [ 93.04220581084968, 8.465169906665835 ] ] ], [ [ [ 93.633995056027175, 8.384940147669852 ], [ 93.628585815582937, 8.393610000701074 ], [ 93.639030456390515, 8.388446807574155 ], [ 93.633995056027175, 8.384940147669852 ] ] ] ] } },
{ "type": "Feature", "properties": { "pincode": "744302", "state": "Andaman & Nicobar Islands", "district": "Nicobars", "officename": "Campbelbay", "officetype": "S.O" }, "geometry": { "type": "MultiPolygon", "coordinates": [ [ [ [ 93.537853956222477, 7.510835409164372 ], [ 93.531261920929069, 7.517191410064754 ], [ 93.532253980636654, 7.525809526443481 ], [ 93.541973948478642, 7.520621538162231 ], [ 93.537853956222477, 7.510835409164372 ] ] ], [ [ [ 93.630085945129395, 7.480963468551749 ], [ 93.626377940177974, 7.475318431854248 ], [ 93.624881982803288, 7.481718540191594 ], [ 93.630085945129395, 7.480963468551749 ] ] ], [ [ [ 93.643680930137748, 7.468766450881901 ], [ 93.638821005821228, 7.472364425659237 ], [ 93.639393925666866, 7.476432561874503 ], [ 93.642879962921086, 7.476162433624268 ], [ 93.643680930137748, 7.468766450881901 ] ] ], [ [ [ 93.685230970382804, 7.396947383880672 ], [ 93.675686955452079, 7.404799461364746 ], [ 93.677495002746696, 7.409109592437744 ], [ 93.680141925811768, 7.409754514694328 ], [ 93.685230970382804, 7.396947383880672 ] ] ], [ [ [ 93.760746955871582, 7.393518447876033 ], [ 93.754657983779907, 7.39887547492981 ], [ 93.758777976036072, 7.404489517211914 ], [ 93.764377951622066, 7.398474454879761 ], [ 93.760746955871582, 7.393518447876033 ] ] ], [ [ [ 93.841175913810787, 7.287521362304688 ], [ 93.835735917091426, 7.287217378616333 ], [ 93.841182947158927, 7.289338588714543 ], [ 93.841175913810787, 7.287521362304688 ] ] ], [ [ [ 93.645324707031364, 7.240755558013916 ], [ 93.623802185058537, 7.263403415679988 ], [ 93.627609252929801, 7.285386562347412 ], [ 93.614730834960994, 7.303896427154541 ], [ 93.629524230956974, 7.314320564269963 ], [ 93.623588562011832, 7.368760108947697 ], [ 93.655059814453239, 7.373915672302246 ], [ 93.661346435546989, 7.367540359497127 ], [ 93.682640075683651, 7.388602733612117 ], [ 93.702033996582031, 7.389933586120719 ], [ 93.691032409668026, 7.401032924652156 ], [ 93.694641113281307, 7.441417694091854 ], [ 93.705062866210881, 7.425964355468693 ], [ 93.710769653320426, 7.389243602752629 ], [ 93.746513366699219, 7.355412483215389 ], [ 93.732627868652401, 7.335995674133358 ], [ 93.733856201171818, 7.32147216796875 ], [ 93.670539855956974, 7.279660701751823 ], [ 93.664123535156307, 7.254755496978817 ], [ 93.645324707031364, 7.240755558013916 ] ] ], [ [ [ 93.717536926269588, 7.201131820678768 ], [ 93.711318969726676, 7.201295375824031 ], [ 93.705749511718807, 7.225827217102051 ], [ 93.718505859375057, 7.211688995361328 ], [ 93.717536926269588, 7.201131820678768 ] ] ], [ [ [ 93.847808837890682, 6.747382164001522 ], [ 93.817527770996151, 6.760151386260986 ], [ 93.826377868652344, 6.798581600189266 ], [ 93.818176269531421, 6.802020072937012 ], [ 93.826736450195426, 6.803404808044434 ], [ 93.820190429687557, 6.808411121368465 ], [ 93.8135986328125, 6.803061962127799 ], [ 93.797393798828125, 6.825813770294303 ], [ 93.805221557617188, 6.842866897583065 ], [ 93.787940979003963, 6.851148128509521 ], [ 93.785110473632926, 6.865950584411564 ], [ 93.799835205078239, 6.874306678772029 ], [ 93.778152465820312, 6.890067577362174 ], [ 93.772987365722827, 6.91252517700201 ], [ 93.760543823242301, 6.903648853301945 ], [ 93.751182556152287, 6.915171623230037 ], [ 93.747726440429801, 6.958523273468018 ], [ 93.730613708496037, 6.964726924896297 ], [ 93.723106384277401, 6.994147300720215 ], [ 93.701263427734375, 6.995642185211238 ], [ 93.688255310058707, 7.017613410949764 ], [ 93.678833007812557, 7.018321037292537 ], [ 93.668167114257869, 7.006866455078239 ], [ 93.659759521484432, 7.011228561401481 ], [ 93.671127319335938, 7.031868934631404 ], [ 93.660415649414176, 7.044804573059025 ], [ 93.665107727050838, 7.065389633178825 ], [ 93.658828735351619, 7.071996212005558 ], [ 93.667060852050895, 7.078452587127742 ], [ 93.65732574462902, 7.093433380126953 ], [ 93.671806335449276, 7.109848499298096 ], [ 93.658012390136719, 7.110900402069205 ], [ 93.653648376464901, 7.119987964630127 ], [ 93.678016662597827, 7.144195556640739 ], [ 93.672348022460994, 7.173792362213135 ], [ 93.687858581543082, 7.185348510742244 ], [ 93.732933044433594, 7.18232250213623 ], [ 93.741508483886719, 7.19313907623291 ], [ 93.757339477539233, 7.190421581268367 ], [ 93.750244140625114, 7.200961112976188 ], [ 93.762153625488281, 7.206859111785889 ], [ 93.797805786132812, 7.204768180847282 ], [ 93.803329467773438, 7.195880413055534 ], [ 93.804344177246151, 7.225530147552604 ], [ 93.842666625976619, 7.236939907073975 ], [ 93.842903137207145, 7.220139980316162 ], [ 93.855834960937557, 7.212436199188289 ], [ 93.868591308593807, 7.215779304504451 ], [ 93.882148742675838, 7.197015762329158 ], [ 93.892341613769645, 7.147512912750358 ], [ 93.891166687011832, 7.094857692718506 ], [ 93.896965026855469, 7.07905817031866 ], [ 93.913032531738338, 7.068508148193416 ], [ 93.925102233886776, 7.02009916305542 ], [ 93.935745239257869, 7.022117137908936 ], [ 93.95468902587902, 6.998373508453483 ], [ 93.950775146484375, 6.989734172821159 ], [ 93.93674468994152, 7.007594585418758 ], [ 93.920593261718921, 6.998129367828426 ], [ 93.932937622070426, 6.968578338623104 ], [ 93.949996948242188, 6.952247619628906 ], [ 93.92819976806652, 6.94661378860485 ], [ 93.919166564941463, 6.918780326843319 ], [ 93.92398834228527, 6.909677505493278 ], [ 93.907371520996207, 6.899763584137077 ], [ 93.909675598144645, 6.873928546905574 ], [ 93.900421142578125, 6.846558570861816 ], [ 93.919059753417912, 6.828803539276237 ], [ 93.913749694824219, 6.80247879028326 ], [ 93.900329589843864, 6.791328430175838 ], [ 93.891082763671875, 6.798707962036133 ], [ 93.862510681152401, 6.797854423523006 ], [ 93.857742309570369, 6.76576137542736 ], [ 93.847808837890682, 6.747382164001522 ] ], [ [ 93.865613698959351, 6.802247762680167 ], [ 93.888362765312195, 6.802356958389396 ], [ 93.880065917968807, 6.808436393737736 ], [ 93.865613698959351, 6.802247762680167 ] ] ] ] } },
{ "type": "Feature", "properties": { "pincode": "744107", "state": "Andaman & Nicobar Islands", "district": "South Andaman", "officename": "Bambooflat", "officetype": "S.O" }, "geometry": { "type": "MultiPolygon", "coordinates": [ [ [ [ 92.720873675779728, 11.699800658173899 ], [ 92.722552149762066, 11.722797986637886 ], [ 92.709978961160346, 11.747119922046863 ], [ 92.719424329269373, 11.755112156600831 ], [ 92.703439860161552, 11.770370058931235 ], [ 92.707799260827414, 11.784174827706238 ], [ 92.699807026273447, 11.803065563924747 ], [ 92.726689997045924, 11.852472104803837 ], [ 92.725855834479376, 11.927319251382414 ], [ 92.770954259431676, 11.939682204570147 ], [ 92.784982376635355, 11.934848450195943 ], [ 92.787727354833521, 11.90024152342761 ], [ 92.776862256687934, 11.8921277580896 ], [ 92.788033739465675, 11.883912305508431 ], [ 92.75732859783659, 11.707876984735208 ], [ 92.754552552558323, 11.701327823020733 ], [ 92.74282004750728, 11.7132595216097 ], [ 92.743619836186667, 11.690715000896716 ], [ 92.720873675779728, 11.699800658173899 ] ] ], [ [ [ 92.761239036252675, 11.675511194586079 ], [ 92.766266124182266, 11.679878107288971 ], [ 92.761602378547082, 11.669920348645178 ], [ 92.761239036252675, 11.675511194586079 ] ] ] ] } },
{ "type": "Feature", "properties": { "pincode": "744104", "state": "Andaman & Nicobar Islands", "district": "South Andaman", "officename": "Aberdeen Bazar", "officetype": "S.O" }, "geometry": { "type": "MultiPolygon", "coordinates": [ [ [ [ 93.082550596632757, 11.779851298298865 ], [ 93.082166832533346, 11.789437251128277 ], [ 93.085890232648183, 11.788384589277427 ], [ 93.082550596632757, 11.779851298298865 ] ] ], [ [ [ 93.014067390997525, 11.848717401087185 ], [ 93.031453705324282, 11.836402878190313 ], [ 93.059894882842627, 11.844839078360792 ], [ 93.07143833780907, 11.834401518815241 ], [ 93.060954550412305, 11.816934476844722 ], [ 93.049532823181266, 11.813169317609834 ], [ 93.014892613403504, 11.828367870081138 ], [ 93.014067390997525, 11.848717401087185 ] ] ] ] } },
{ "type": "Feature", "properties": { "pincode": "744103", "state": "Andaman & Nicobar Islands", "district": "South Andaman", "officename": "Junglighat", "officetype": "S.O" }, "geometry": { "type": "MultiPolygon", "coordinates": [ [ [ [ 92.643801799813446, 11.639543893935524 ], [ 92.634492057562568, 11.63517175617153 ], [ 92.638687444370134, 11.644906061165784 ], [ 92.631720138373794, 11.652090282740403 ], [ 92.631095992686141, 11.628369339973233 ], [ 92.608078825177813, 11.633781015781324 ], [ 92.591311011493985, 11.668886773106067 ], [ 92.599916937116916, 11.690665946476258 ], [ 92.588267620254669, 11.717470669036231 ], [ 92.574614444800829, 11.717792313364669 ], [ 92.572590768749023, 11.699124035246086 ], [ 92.561270637929795, 11.695257211251374 ], [ 92.552093005188226, 11.71979752993218 ], [ 92.552775650875731, 11.762934584763286 ], [ 92.560024508524293, 11.773350401400023 ], [ 92.549275062294441, 11.816633686895329 ], [ 92.540720916037515, 11.819832802042185 ], [ 92.546373240532716, 11.829013684034408 ], [ 92.546540276112921, 11.837899797937439 ], [ 92.542423831794508, 11.828273369320698 ], [ 92.536666761462072, 11.838960342346013 ], [ 92.523082722289985, 11.82608506337499 ], [ 92.513676677037097, 11.847325344988747 ], [ 92.52630473957214, 11.87123206970432 ], [ 92.526996458519818, 11.895847686821412 ], [ 92.538521452203327, 11.90385496523453 ], [ 92.534705099061171, 11.912139996563781 ], [ 92.54313116477141, 11.923681428055545 ], [ 92.55530827935371, 11.923105860147359 ], [ 92.562227270172571, 11.94629590792988 ], [ 92.580143418284308, 11.924381259787481 ], [ 92.586974629875385, 11.885868691587007 ], [ 92.594454686134952, 11.899383668221901 ], [ 92.601974269397147, 11.896096224361315 ], [ 92.600036464211485, 11.866700016292839 ], [ 92.60497228624223, 11.857842448670169 ], [ 92.61203622978843, 11.879401784564834 ], [ 92.612223028869835, 11.914734484908649 ], [ 92.605801654522736, 11.923388884889334 ], [ 92.614407931780704, 11.964739793506737 ], [ 92.612218690540317, 11.983609931653177 ], [ 92.617399946550336, 11.991157366019763 ], [ 92.613667542423229, 12.008387006755015 ], [ 92.624375061360183, 12.028528364492615 ], [ 92.620652696364914, 12.040979087015273 ], [ 92.628111939614485, 12.04243963188361 ], [ 92.646949293874911, 12.038654840448658 ], [ 92.672015847253647, 11.930759674419505 ], [ 92.660572421180291, 11.894612977007398 ], [ 92.664205255068566, 11.864823740023724 ], [ 92.652580186626437, 11.848112704137975 ], [ 92.657666154069943, 11.792167062260091 ], [ 92.649673919515919, 11.748573055602208 ], [ 92.655458221320032, 11.718278706297326 ], [ 92.650417485278865, 11.701939770304193 ], [ 92.640683651529343, 11.696899035162517 ], [ 92.649896030477578, 11.672738268156593 ], [ 92.643801799813446, 11.639543893935524 ] ] ], [ [ [ 92.629122347718123, 11.543841529363021 ], [ 92.627481049910614, 11.548143834770258 ], [ 92.628754060951223, 11.548946744097009 ], [ 92.629122347718123, 11.543841529363021 ] ] ], [ [ [ 92.619988520953541, 11.556339148832649 ], [ 92.617443599642513, 11.536556253668323 ], [ 92.610249600638724, 11.531142838571157 ], [ 92.601896572468945, 11.554607657117685 ], [ 92.619988520953541, 11.556339148832649 ] ] ], [ [ [ 92.600486599177373, 11.571830945941429 ], [ 92.601392406234652, 11.585683355402523 ], [ 92.617114247224833, 11.582618232945208 ], [ 92.614776533310476, 11.562024821088698 ], [ 92.600486599177373, 11.571830945941429 ] ] ], [ [ [ 92.610165657918913, 11.503889356109084 ], [ 92.613101287894267, 11.510120397938067 ], [ 92.61593601573469, 11.511033457128462 ], [ 92.610165657918913, 11.503889356109084 ] ] ], [ [ [ 92.608028992843799, 11.556003629763779 ], [ 92.608075548048134, 11.562133389044732 ], [ 92.609574433713306, 11.55563677651611 ], [ 92.608028992843799, 11.556003629763779 ] ] ], [ [ [ 92.598527364046845, 11.927354656792033 ], [ 92.588583886637196, 11.97240847087437 ], [ 92.593018742221261, 11.977091059105135 ], [ 92.609018472824289, 11.942245958584238 ], [ 92.602709559598622, 11.936064875893351 ], [ 92.598527364046845, 11.927354656792033 ] ] ], [ [ [ 92.601738554390863, 11.524122583190774 ], [ 92.606231445924664, 11.533311233526661 ], [ 92.606176786929325, 11.521477668959335 ], [ 92.601738554390863, 11.524122583190774 ] ] ], [ [ [ 92.604122183192374, 11.933422727976733 ], [ 92.605451932460937, 11.934800610759737 ], [ 92.605226431055144, 11.932887814820845 ], [ 92.604122183192374, 11.933422727976733 ] ] ], [ [ [ 92.595231461163223, 11.906441959528877 ], [ 92.601675616236776, 11.917820701863889 ], [ 92.596467517262283, 11.905070453838334 ], [ 92.595231461163223, 11.906441959528877 ] ] ], [ [ [ 92.587738430384434, 11.533734651433122 ], [ 92.587883613338079, 11.569861892012625 ], [ 92.592765473348038, 11.57769901869483 ], [ 92.595212611373029, 11.532838128077287 ], [ 92.587738430384434, 11.533734651433122 ] ] ], [ [ [ 92.587356364204879, 11.699780092477397 ], [ 92.586886016976337, 11.700905022049255 ], [ 92.587475750106023, 11.700561396491423 ], [ 92.587356364204879, 11.699780092477397 ] ] ], [ [ [ 92.586059338567736, 11.70389716452263 ], [ 92.586133763762291, 11.704921459058198 ], [ 92.586417032220425, 11.704831299325178 ], [ 92.586059338567736, 11.70389716452263 ] ] ], [ [ [ 92.583706565505679, 11.534884038068014 ], [ 92.583425454521034, 11.540271943895277 ], [ 92.584641005178355, 11.541686810398005 ], [ 92.585999146943266, 11.540196578909047 ], [ 92.583706565505679, 11.534884038068014 ] ] ], [ [ [ 92.584701636571424, 11.977163104693602 ], [ 92.582906141005651, 11.981478334257872 ], [ 92.583753949885136, 11.982056409475774 ], [ 92.584701636571424, 11.977163104693602 ] ] ], [ [ [ 92.57263774303749, 11.563853357746439 ], [ 92.576529011504931, 11.570425433287085 ], [ 92.573681687759802, 11.562326165020522 ], [ 92.57263774303749, 11.563853357746439 ] ] ], [ [ [ 92.565554302189412, 11.946227968645985 ], [ 92.567555772181265, 11.949617168097916 ], [ 92.569196850554192, 11.944645824645136 ], [ 92.565554302189412, 11.946227968645985 ] ] ], [ [ [ 92.546472191138832, 11.590994881808456 ], [ 92.56946665706073, 11.589346379531889 ], [ 92.56171109259293, 11.58438188261789 ], [ 92.565300562970776, 11.573321537159188 ], [ 92.530099692446925, 11.55459253861477 ], [ 92.537502686699725, 11.566489570137549 ], [ 92.536251246797633, 11.605385388924674 ], [ 92.547114941101768, 11.601178602310711 ], [ 92.546472191138832, 11.590994881808456 ] ] ], [ [ [ 92.559235064746531, 11.540003971106444 ], [ 92.568745931379681, 11.52760876463276 ], [ 92.566439826836586, 11.517243520472221 ], [ 92.552793515908206, 11.530791986061274 ], [ 92.559235064746531, 11.540003971106444 ] ] ], [ [ [ 92.565832928347106, 11.567289505406336 ], [ 92.565621022891946, 11.570302978899463 ], [ 92.567474039995091, 11.570139581976321 ], [ 92.565832928347106, 11.567289505406336 ] ] ], [ [ [ 92.207396092156102, 11.585425476604598 ], [ 92.215964401835834, 11.594465336805968 ], [ 92.229866611255204, 11.587263514599613 ], [ 92.234571749986287, 11.594800208362926 ], [ 92.271944306085004, 11.584537407775258 ], [ 92.268968377488818, 11.554496570160609 ], [ 92.276405299565056, 11.534084422058527 ], [ 92.270470149078221, 11.522659638931373 ], [ 92.260736348603587, 11.517612213732832 ], [ 92.251001439265224, 11.525694776193063 ], [ 92.214827208209272, 11.529403795249038 ], [ 92.207435888055841, 11.547943299443773 ], [ 92.215033090005136, 11.571646885295593 ], [ 92.207396092156102, 11.585425476604598 ] ] ] ] } },
{ "type": "Feature", "properties": { "pincode": "744201", "state": "Andaman & Nicobar Islands", "district": "North  & Middle Andaman", "officename": "Betapur", "officetype": "S.O" }, "geometry": { "type": "Polygon", "coordinates": [ [ [ 92.943662749636246, 12.790828966183994 ], [ 92.930608988514223, 12.774061071561334 ], [ 92.939104493577588, 12.766342174252088 ], [ 92.949535960216508, 12.770009102338236 ], [ 92.947923249158805, 12.760984413699873 ], [ 92.968350004049569, 12.740176446985572 ], [ 92.96374118720621, 12.725732934727205 ], [ 92.980122495656758, 12.708474006670201 ], [ 92.972160477424268, 12.712791446767881 ], [ 92.962144816829891, 12.699603933974458 ], [ 92.96242868243786, 12.658843543594742 ], [ 92.916394759310947, 12.645085062026112 ], [ 92.91380200485878, 12.624318822056182 ], [ 92.898552259379358, 12.626320284853307 ], [ 92.891482574561223, 12.628461364700399 ], [ 92.889436978433878, 12.666094849197975 ], [ 92.878064451313492, 12.688679726987971 ], [ 92.886713978767034, 12.727122072525788 ], [ 92.877744098411597, 12.743780422528459 ], [ 92.885432567159285, 12.760438772531529 ], [ 92.911381151319063, 12.779980298651822 ], [ 92.943662749636246, 12.790828966183994 ] ] ] } },
{ "type": "Feature", "properties": { "pincode": "744203", "state": "Andaman & Nicobar Islands", "district": "North  & Middle Andaman", "officename": "Long Island", "officetype": "S.O" }, "geometry": { "type": "Polygon", "coordinates": [ [ [ 92.949501961346641, 12.415406743326571 ], [ 92.955464091494832, 12.435353105561376 ], [ 92.96044999587059, 12.419501943859586 ], [ 92.944342671277354, 12.404714800647639 ], [ 92.931078467897066, 12.358669086509337 ], [ 92.917491764933118, 12.368399774430202 ], [ 92.928437902787039, 12.387993614114066 ], [ 92.926017392788538, 12.404071558755504 ], [ 92.937218697984633, 12.4210577880865 ], [ 92.949501961346641, 12.415406743326571 ] ] ] } }
]
}
