{
"type": "FeatureCollection",
"name": "chandigarh",
"crs": { "type": "name", "properties": { "name": "urn:ogc:def:crs:OGC:1.3:CRS84" } },
"features": [
{ "type": "Feature", "properties": { "pincode": "160001", "state": "Chandigarh", "district": "Chandigarh", "officename": "High Court (Chandigarh)", "officetype": "S.O" }, "geometry": { "type": "Polygon", "coordinates": [ [ [ 76.787470767961622, 30.765009879902209 ], [ 76.808377786905396, 30.772968755004058 ], [ 76.811080999688443, 30.78148999956403 ], [ 76.81673399957441, 30.773808999685571 ], [ 76.804951850147859, 30.764794678431656 ], [ 76.841476000217369, 30.759958000361507 ], [ 76.837553833742561, 30.74298864411071 ], [ 76.824915625056065, 30.733842768229181 ], [ 76.806709927621114, 30.741638107013046 ], [ 76.787470767961622, 30.765009879902209 ] ] ] } },
{ "type": "Feature", "properties": { "pincode": "160002", "state": "Chandigarh", "district": "Chandigarh", "officename": "Ind Area Chandigarh", "officetype": "S.O" }, "geometry": { "type": "Polygon", "coordinates": [ [ [ 76.76220150559493, 30.68607169305443 ], [ 76.801156772267291, 30.710763419796081 ], [ 76.795811110294665, 30.716389454409921 ], [ 76.806075303932232, 30.722981884306648 ], [ 76.819892953696922, 30.712993918334689 ], [ 76.810888598730003, 30.690110594228656 ], [ 76.791775524021318, 30.670936876435803 ], [ 76.76220150559493, 30.68607169305443 ] ] ] } },
{ "type": "Feature", "properties": { "pincode": "160003", "state": "Chandigarh", "district": "Chandigarh,Sahibzada Ajit Singh Nagar", "officename": "Aerodrome", "officetype": "S.O" }, "geometry": { "type": "Polygon", "coordinates": [ [ [ 76.791775524021318, 30.670936876435803 ], [ 76.805039364075526, 30.685517611748423 ], [ 76.813332539665168, 30.669667821512803 ], [ 76.806071851434922, 30.664159062091187 ], [ 76.813136645739689, 30.659362173625539 ], [ 76.794748121528642, 30.659142042971041 ], [ 76.791775524021318, 30.670936876435803 ] ] ] } },
{ "type": "Feature", "properties": { "pincode": "160005", "state": "Chandigarh", "district": "Chandigarh", "officename": "IBC Chandigarh", "officetype": "S.O" }, "geometry": { "type": "Polygon", "coordinates": [ [ [ 76.780115453065946, 30.694064019339123 ], [ 76.766851496998981, 30.698221230825311 ], [ 76.772814934761584, 30.701904502291086 ], [ 76.780115453065946, 30.694064019339123 ] ] ] } },
{ "type": "Feature", "properties": { "pincode": "160009", "state": "Chandigarh", "district": "Chandigarh", "officename": "Sector 9 (Chandigarh)", "officetype": "S.O" }, "geometry": { "type": "Polygon", "coordinates": [ [ [ 76.79633257229051, 30.734870692428615 ], [ 76.785812092554067, 30.747035088798441 ], [ 76.796797837450242, 30.753657722426112 ], [ 76.806709927621114, 30.741638107013046 ], [ 76.79633257229051, 30.734870692428615 ] ] ] } },
{ "type": "Feature", "properties": { "pincode": "160011", "state": "Chandigarh", "district": "Chandigarh", "officename": "Sector 11( Chandigarh)", "officetype": "S.O" }, "geometry": { "type": "Polygon", "coordinates": [ [ [ 76.786030893111331, 30.747044097307423 ], [ 76.775971457117066, 30.759104433123127 ], [ 76.787470767961622, 30.765009879902209 ], [ 76.796804474447015, 30.753706480070036 ], [ 76.786030893111331, 30.747044097307423 ] ] ] } },
{ "type": "Feature", "properties": { "pincode": "160012", "state": "Chandigarh", "district": "Chandigarh", "officename": "Sector 12 (Chandigarh)", "officetype": "S.O" }, "geometry": { "type": "Polygon", "coordinates": [ [ [ 76.756263999783869, 30.78777099963213 ], [ 76.772659000412602, 30.795318999672077 ], [ 76.780907000357843, 30.79138599996412 ], [ 76.789888429807434, 30.781999253263109 ], [ 76.778966939672614, 30.771558020886118 ], [ 76.791635205500427, 30.767271607398868 ], [ 76.775749890245379, 30.759165169736718 ], [ 76.756263999783869, 30.78777099963213 ] ] ] } },
{ "type": "Feature", "properties": { "pincode": "160014", "state": "Chandigarh", "district": "Chandigarh,Sahibzada Ajit Singh Nagar", "officename": "Dadu Majra Colony", "officetype": "S.O" }, "geometry": { "type": "Polygon", "coordinates": [ [ [ 76.731374242327547, 30.765134007928282 ], [ 76.694472121591332, 30.759097957105212 ], [ 76.70724832135312, 30.765718102308767 ], [ 76.707335623040592, 30.783014418780624 ], [ 76.730968734419548, 30.784955237594204 ], [ 76.731621534306441, 30.778735458874394 ], [ 76.744951598637329, 30.777822763909455 ], [ 76.753257999656967, 30.787381999679724 ], [ 76.769871595797724, 30.775735615506392 ], [ 76.776137977385929, 30.758873128392224 ], [ 76.764580186326612, 30.751606137713111 ], [ 76.75727202108709, 30.761565301097789 ], [ 76.743843773271692, 30.758466695082063 ], [ 76.749270291490802, 30.751202672165562 ], [ 76.73796519373883, 30.744145975356446 ], [ 76.731374242327547, 30.765134007928282 ] ] ] } },
{ "type": "Feature", "properties": { "pincode": "160015", "state": "Chandigarh", "district": "Chandigarh", "officename": "Sector 15 Chandigarh", "officetype": "S.O" }, "geometry": { "type": "Polygon", "coordinates": [ [ [ 76.769389821782909, 30.746087740257167 ], [ 76.764871316658002, 30.751867906978418 ], [ 76.775916092154148, 30.75865557339614 ], [ 76.780405767712068, 30.752652235412427 ], [ 76.769389821782909, 30.746087740257167 ] ] ] } },
{ "type": "Feature", "properties": { "pincode": "160016", "state": "Chandigarh", "district": "Chandigarh", "officename": "Nodal Delivery Office Chandigarh", "officetype": "S.O" }, "geometry": { "type": "Polygon", "coordinates": [ [ [ 76.769389821782909, 30.746087740257167 ], [ 76.780838606016971, 30.752754186156835 ], [ 76.78560373762258, 30.747043143126689 ], [ 76.773863091908254, 30.740000504519799 ], [ 76.769389821782909, 30.746087740257167 ] ] ] } },
{ "type": "Feature", "properties": { "pincode": "160017", "state": "Chandigarh", "district": "Chandigarh", "officename": "Chandigarh G.P.O.", "officetype": "H.O" }, "geometry": { "type": "Polygon", "coordinates": [ [ [ 76.774444618724317, 30.740148978992181 ], [ 76.78560373762258, 30.747043143126689 ], [ 76.791031229807516, 30.740438731562392 ], [ 76.779439385918977, 30.733496555321778 ], [ 76.774444618724317, 30.740148978992181 ] ] ] } },
{ "type": "Feature", "properties": { "pincode": "160018", "state": "Chandigarh", "district": "Chandigarh", "officename": "Sector 18 (Chandigarh)", "officetype": "S.O" }, "geometry": { "type": "Polygon", "coordinates": [ [ [ 76.779705917993795, 30.733660552092942 ], [ 76.791031229807516, 30.740438731562392 ], [ 76.796159551721985, 30.734925406282514 ], [ 76.784971099636664, 30.727867936056498 ], [ 76.779705917993795, 30.733660552092942 ] ] ] } },
{ "type": "Feature", "properties": { "pincode": "160019", "state": "Chandigarh", "district": "Chandigarh", "officename": "Sector 26 (Chandigarh)", "officetype": "S.O" }, "geometry": { "type": "Polygon", "coordinates": [ [ [ 76.788376825929788, 30.729813966441327 ], [ 76.810442409989321, 30.743651650403422 ], [ 76.816606151952328, 30.736899071934772 ], [ 76.795933600655246, 30.715965040953904 ], [ 76.788376825929788, 30.729813966441327 ] ] ] } },
{ "type": "Feature", "properties": { "pincode": "160020", "state": "Chandigarh", "district": "Chandigarh", "officename": "Sector 20 (Chandigarh)", "officetype": "S.O" }, "geometry": { "type": "Polygon", "coordinates": [ [ [ 76.778214405870187, 30.714649042319536 ], [ 76.773065726002528, 30.720609845068395 ], [ 76.78506306340978, 30.727831337246471 ], [ 76.789968585481915, 30.721722530370471 ], [ 76.778214405870187, 30.714649042319536 ] ] ] } },
{ "type": "Feature", "properties": { "pincode": "160022", "state": "Chandigarh", "district": "Chandigarh", "officename": "Sector 34(Chandigarh)", "officetype": "S.O" }, "geometry": { "type": "Polygon", "coordinates": [ [ [ 76.751458110903229, 30.725867313226104 ], [ 76.774268844431731, 30.740172879374995 ], [ 76.784559428674811, 30.727805870244822 ], [ 76.762263899659274, 30.713697922921028 ], [ 76.751458110903229, 30.725867313226104 ] ] ] } },
{ "type": "Feature", "properties": { "pincode": "160023", "state": "Chandigarh", "district": "Chandigarh", "officename": "Sector 23 ( Chandigarh)", "officetype": "S.O" }, "geometry": { "type": "Polygon", "coordinates": [ [ [ 76.758267833193997, 30.738656484808985 ], [ 76.769119809331755, 30.745602337478033 ], [ 76.774158007486108, 30.739319779784239 ], [ 76.762722376736349, 30.733046271967851 ], [ 76.758267833193997, 30.738656484808985 ] ] ] } },
{ "type": "Feature", "properties": { "pincode": "160025", "state": "Chandigarh", "district": "Chandigarh", "officename": "Maloya Colony", "officetype": "S.O" }, "geometry": { "type": "Polygon", "coordinates": [ [ [ 76.711277806625674, 30.740697430542127 ], [ 76.704486095057405, 30.756139224445803 ], [ 76.731374242327547, 30.765134007928282 ], [ 76.733605780482492, 30.750425282900608 ], [ 76.711277806625674, 30.740697430542127 ] ] ] } },
{ "type": "Feature", "properties": { "pincode": "160030", "state": "Chandigarh", "district": "Chandigarh", "officename": "Sector 31 (Chandigarh)", "officetype": "S.O" }, "geometry": { "type": "Polygon", "coordinates": [ [ [ 76.778847779501632, 30.714654725135574 ], [ 76.789968585481915, 30.721722530370471 ], [ 76.801156772267291, 30.710763419796081 ], [ 76.777985008601377, 30.696313406338675 ], [ 76.772814934761584, 30.701904502291086 ], [ 76.783657493198803, 30.708833159023186 ], [ 76.778847779501632, 30.714654725135574 ] ] ] } },
{ "type": "Feature", "properties": { "pincode": "160036", "state": "Chandigarh", "district": "Chandigarh", "officename": "Sector 36 (Chandigarh)", "officetype": "S.O" }, "geometry": { "type": "Polygon", "coordinates": [ [ [ 76.730730240508365, 30.731472233556815 ], [ 76.749270291490802, 30.751202672165562 ], [ 76.743843773271692, 30.758466695082063 ], [ 76.75727202108709, 30.761565301097789 ], [ 76.769575377102115, 30.745936132546603 ], [ 76.740600967260946, 30.719119012832209 ], [ 76.756046465472195, 30.700668709693218 ], [ 76.744464422395424, 30.693411424497697 ], [ 76.729117498873563, 30.711775921521735 ], [ 76.730730240508365, 30.731472233556815 ] ] ] } },
{ "type": "Feature", "properties": { "pincode": "160040", "state": "Chandigarh", "district": "Chandigarh", "officename": "Sector 40 (Chandigarh)", "officetype": "S.O" }, "geometry": { "type": "Polygon", "coordinates": [ [ [ 76.731230281552314, 30.731184924444619 ], [ 76.722056849544003, 30.743389551986297 ], [ 76.733605780482492, 30.750425282900608 ], [ 76.742148251740502, 30.738262939683068 ], [ 76.731230281552314, 30.731184924444619 ] ] ] } },
{ "type": "Feature", "properties": { "pincode": "160043", "state": "Chandigarh", "district": "Chandigarh", "officename": "District Court Sector-43, Chandigarh", "officetype": "S.O" }, "geometry": { "type": "Polygon", "coordinates": [ [ [ 76.756883133549763, 30.719228015160809 ], [ 76.746374130062122, 30.712251636803671 ], [ 76.740600967260946, 30.719119012832209 ], [ 76.751458110903229, 30.725867313226104 ], [ 76.756883133549763, 30.719228015160809 ] ] ] } },
{ "type": "Feature", "properties": { "pincode": "160047", "state": "Chandigarh", "district": "Chandigarh", "officename": "Sector 44 (Chandigarh)", "officetype": "S.O" }, "geometry": { "type": "Polygon", "coordinates": [ [ [ 76.772619956346148, 30.692352654451497 ], [ 76.754780339641002, 30.680944018651644 ], [ 76.744464422395424, 30.693411424497697 ], [ 76.756046465472195, 30.700668709693218 ], [ 76.746629555509628, 30.712688007645511 ], [ 76.773687010946901, 30.720025911666482 ], [ 76.783818184062113, 30.709328063139822 ], [ 76.766895129406691, 30.698585371717684 ], [ 76.772619956346148, 30.692352654451497 ] ] ] } },
{ "type": "Feature", "properties": { "pincode": "160101", "state": "Chandigarh", "district": "Chandigarh", "officename": "Manimajra", "officetype": "S.O" }, "geometry": { "type": "Polygon", "coordinates": [ [ [ 76.807090643918229, 30.723336559834536 ], [ 76.816606151952328, 30.736899071934772 ], [ 76.825174221513237, 30.733913398284926 ], [ 76.837553833742561, 30.74298864411071 ], [ 76.837044323736677, 30.730608541750883 ], [ 76.850936553379427, 30.719446454190688 ], [ 76.838252658233841, 30.705688299975179 ], [ 76.807090643918229, 30.723336559834536 ] ] ] } },
{ "type": "Feature", "properties": { "pincode": "160102", "state": "Chandigarh", "district": "Chandigarh", "officename": "Mauli Jagran", "officetype": "S.O" }, "geometry": { "type": "Polygon", "coordinates": [ [ [ 76.832954000227062, 30.681946000108042 ], [ 76.813332539665168, 30.669667821512803 ], [ 76.803992933627057, 30.688078916009204 ], [ 76.819892953696922, 30.712993918334689 ], [ 76.837376446965493, 30.708164795468974 ], [ 76.834348436830965, 30.702280636542298 ], [ 76.8421549676778, 30.703668878615929 ], [ 76.832954000227062, 30.681946000108042 ] ] ] } }
]
}
