{
"type": "FeatureCollection",
"name": "dadra_and_nagar_haveli_gujarat",
"crs": { "type": "name", "properties": { "name": "urn:ogc:def:crs:OGC:1.3:CRS84" } },
"features": [
{ "type": "Feature", "properties": { "pincode": "396230", "state": "Dadra & Nagar Haveli, Gujarat", "district": "Dadra & Nagar Haveli, Valsad", "officename": "Silvassa", "officetype": "S.O" }, "geometry": { "type": "MultiPolygon", "coordinates": [ [ [ [ 72.991544815940529, 20.237967347215374 ], [ 72.981410281159583, 20.295854057918632 ], [ 73.006043290265666, 20.291226547767053 ], [ 73.008466515317593, 20.310809441802292 ], [ 73.037010222743675, 20.30487390370763 ], [ 73.040896178016283, 20.323843083291763 ], [ 73.080443357774755, 20.326244395462538 ], [ 73.092882197555355, 20.358899470534254 ], [ 73.111176201220928, 20.341718540678187 ], [ 73.103969653077229, 20.307461118335993 ], [ 73.12476744935833, 20.307777380221978 ], [ 73.127960176621002, 20.317200774296282 ], [ 73.144054429568428, 20.3203831071948 ], [ 73.163917631493632, 20.310161896654279 ], [ 73.162287503265645, 20.285075546499399 ], [ 73.147720725431213, 20.292859007936897 ], [ 73.141913657289479, 20.282170468292634 ], [ 73.150733669223428, 20.272167880243558 ], [ 73.15253085281671, 20.237687482691285 ], [ 73.182291989583803, 20.21100617679383 ], [ 73.179142687884905, 20.193377993399736 ], [ 73.198165431989082, 20.194731303107233 ], [ 73.218789811100976, 20.181331627652526 ], [ 73.207847722894087, 20.163314723995541 ], [ 73.18984240520291, 20.162489169739445 ], [ 73.186215277513156, 20.153938895963336 ], [ 73.18716659386331, 20.127972352342283 ], [ 73.211480725854983, 20.111239893706227 ], [ 73.205762267914395, 20.083714943689927 ], [ 73.187016877427084, 20.072977462939662 ], [ 73.186613695165988, 20.051143503769765 ], [ 73.163269356995386, 20.057371889001502 ], [ 73.152542740055594, 20.077839375087024 ], [ 73.143894234231595, 20.07635049617852 ], [ 73.13564021062723, 20.086480986708182 ], [ 73.116388847167627, 20.075938737982483 ], [ 73.10558004658202, 20.089841019347659 ], [ 73.061321418448756, 20.098423253230692 ], [ 73.05374783719293, 20.096055965110679 ], [ 73.052168039523565, 20.064015763716611 ], [ 73.039922253609348, 20.068302768058345 ], [ 73.000610535248086, 20.115760502345438 ], [ 73.012729872885529, 20.130781535839276 ], [ 73.004013490730074, 20.137490279552935 ], [ 73.025452470355276, 20.158238001582561 ], [ 73.026446810272205, 20.173613842804684 ], [ 73.044845199146835, 20.174814327119691 ], [ 73.061943588326017, 20.161102378272176 ], [ 73.061881825585829, 20.188266242393297 ], [ 73.050008306837867, 20.19982506407564 ], [ 73.065995172639191, 20.227298341745211 ], [ 73.083704682625125, 20.229615941422708 ], [ 73.065341480624909, 20.235550601778925 ], [ 73.055837416463646, 20.253460481616059 ], [ 73.036210818074835, 20.258887724688805 ], [ 73.019972410998037, 20.247754338991683 ], [ 73.017733342819724, 20.229757643100811 ], [ 73.007209299070041, 20.226258470052414 ], [ 72.991544815940529, 20.237967347215374 ] ] ], [ [ [ 72.969974265500127, 20.148633316774237 ], [ 72.996263967907907, 20.139167002555325 ], [ 72.990840958843307, 20.11818574007998 ], [ 72.973877532722099, 20.114751940549752 ], [ 72.962727591405383, 20.129204963138648 ], [ 72.969974265500127, 20.148633316774237 ] ] ] ] } },
{ "type": "Feature", "properties": { "pincode": "396235", "state": "Dadra & Nagar Haveli, Gujarat", "district": "Dadra & Nagar Haveli, Valsad", "officename": "Naroli", "officetype": "S.O" }, "geometry": { "type": "Polygon", "coordinates": [ [ [ 72.918256626142579, 20.25734630199031 ], [ 72.912078920405918, 20.270059434995119 ], [ 72.937578513537517, 20.293005265580575 ], [ 72.934819479835255, 20.303615703601963 ], [ 72.953791739597193, 20.31242980699011 ], [ 72.981180576322572, 20.295063427035529 ], [ 72.991913805977504, 20.238634652267478 ], [ 72.974747801269984, 20.225259261206133 ], [ 72.991955603768133, 20.210680580844326 ], [ 72.987720067627095, 20.177428584361621 ], [ 72.962954876166521, 20.181251124839548 ], [ 72.959904617704012, 20.212107697912074 ], [ 72.917563999778849, 20.223888000131126 ], [ 72.92324183804044, 20.230929513686078 ], [ 72.912714864299573, 20.249759001576763 ], [ 72.918256626142579, 20.25734630199031 ] ] ] } },
{ "type": "Feature", "properties": { "pincode": "396240", "state": "Dadra & Nagar Haveli, Gujarat", "district": "Dadra & Nagar Haveli, Valsad", "officename": "Karad Daman Project", "officetype": "S.O" }, "geometry": { "type": "Polygon", "coordinates": [ [ [ 73.006413246174418, 20.139542009955903 ], [ 72.969974265500127, 20.148633316774237 ], [ 72.976258342148867, 20.177023777025738 ], [ 72.987720067627095, 20.177428584361621 ], [ 72.99250677486782, 20.205717178405052 ], [ 72.97481484932581, 20.226121032060064 ], [ 72.991544815940529, 20.237967347215374 ], [ 73.009096329432225, 20.226495084380758 ], [ 73.019846621024783, 20.231849455388101 ], [ 73.025867857315859, 20.254512745966565 ], [ 73.053635086490146, 20.254493697426369 ], [ 73.065341480624909, 20.235550601778925 ], [ 73.083742683478249, 20.229258991509312 ], [ 73.065995172639191, 20.227298341745211 ], [ 73.050008306837867, 20.19982506407564 ], [ 73.061881825585829, 20.188266242393297 ], [ 73.062645445331214, 20.162162562952005 ], [ 73.044845199146835, 20.174814327119691 ], [ 73.026446810272205, 20.173613842804684 ], [ 73.025452470355276, 20.158238001582561 ], [ 73.006413246174418, 20.139542009955903 ] ] ] } },
{ "type": "Feature", "properties": { "pincode": "396193", "state": "Dadra & Nagar Haveli, Gujarat", "district": "Dadra & Nagar Haveli, Valsad", "officename": "Dadra", "officetype": "S.O" }, "geometry": { "type": "Polygon", "coordinates": [ [ [ 72.95486028797194, 20.317014281883644 ], [ 72.960930513032906, 20.331766148289091 ], [ 72.977738942798055, 20.331296644624501 ], [ 72.990169247113158, 20.341818105521327 ], [ 73.00364701699641, 20.331737623592517 ], [ 73.032026682685341, 20.332036780373301 ], [ 73.043712441875869, 20.324631924523885 ], [ 73.037010222743675, 20.30487390370763 ], [ 73.00782001967832, 20.310405671384842 ], [ 73.005090671697303, 20.291051702474135 ], [ 72.977103999849874, 20.295483000340369 ], [ 72.95486028797194, 20.317014281883644 ] ] ] } }
]
}
