{
"type": "FeatureCollection",
"name": "daman_and_diu",
"crs": { "type": "name", "properties": { "name": "urn:ogc:def:crs:OGC:1.3:CRS84" } },
"features": [
{ "type": "Feature", "properties": { "pincode": "362570", "state": "Daman & Diu", "district": "Diu", "officename": "Wanakbara", "officetype": "S.O" }, "geometry": { "type": "Polygon", "coordinates": [ [ [ 70.934886813375783, 20.727854633484696 ], [ 70.929686342450793, 20.711758975796272 ], [ 70.913240484261053, 20.69923253305501 ], [ 70.872159027817077, 20.710170148933287 ], [ 70.88139780546453, 20.722613446653327 ], [ 70.902856893031185, 20.721016896412664 ], [ 70.882951772806166, 20.725212314696591 ], [ 70.893649980162422, 20.729385639335874 ], [ 70.923685927263818, 20.734235062598088 ], [ 70.926990404283856, 20.726306688003376 ], [ 70.934886813375783, 20.727854633484696 ] ] ] } },
{ "type": "Feature", "properties": { "pincode": "396210", "state": "Daman & Diu", "district": "Daman", "officename": "Daman", "officetype": "S.O" }, "geometry": { "type": "Polygon", "coordinates": [ [ [ 72.830067349029093, 20.411554669312693 ], [ 72.827859999939108, 20.434999999550428 ], [ 72.841320950701288, 20.457853712578753 ], [ 72.855879961091489, 20.46825561310618 ], [ 72.887302294065648, 20.460735618853846 ], [ 72.894615771600684, 20.443236325396128 ], [ 72.885713334103116, 20.438575003433755 ], [ 72.875233026183309, 20.445301457496328 ], [ 72.85393951099968, 20.416558636571892 ], [ 72.830067349029093, 20.411554669312693 ] ] ] } },
{ "type": "Feature", "properties": { "pincode": "396220", "state": "Daman & Diu", "district": "Daman", "officename": "Moti Daman", "officetype": "S.O" }, "geometry": { "type": "Polygon", "coordinates": [ [ [ 72.821340590495879, 20.367861605928454 ], [ 72.832779435422765, 20.411832832319419 ], [ 72.853796056542819, 20.407923108864566 ], [ 72.863830984212598, 20.380795078230278 ], [ 72.880642588584692, 20.370719235904119 ], [ 72.843785797276894, 20.374418277881375 ], [ 72.821340590495879, 20.367861605928454 ] ] ] } },
{ "type": "Feature", "properties": { "pincode": "396215", "state": "Daman & Diu", "district": "Daman", "officename": "Daman I.E.", "officetype": "S.O" }, "geometry": { "type": "Polygon", "coordinates": [ [ [ 72.888090313317434, 20.372074944103474 ], [ 72.863830984212598, 20.380795078230278 ], [ 72.863023833683087, 20.396424770187139 ], [ 72.843004582295805, 20.411740183263021 ], [ 72.856728354529992, 20.419855724761931 ], [ 72.871853852373533, 20.414843552088428 ], [ 72.898257864908715, 20.42044623310727 ], [ 72.902261323801099, 20.405561175307923 ], [ 72.882442196750105, 20.39787089082904 ], [ 72.896288568163129, 20.379547365118981 ], [ 72.888090313317434, 20.372074944103474 ] ] ] } },
{ "type": "Feature", "properties": { "pincode": "362520", "state": "Daman & Diu", "district": "Diu", "officename": "Diu Zampa", "officetype": "S.O" }, "geometry": { "type": "Polygon", "coordinates": [ [ [ 70.929686342450793, 20.711758975796272 ], [ 70.934886813375783, 20.727854633484696 ], [ 70.934857513463612, 20.72019673898842 ], [ 70.947981492751808, 20.715489586675119 ], [ 70.951618018356896, 20.721351557528408 ], [ 70.998052232424641, 20.716027880382512 ], [ 70.976785848888028, 20.701993603721917 ], [ 70.929686342450793, 20.711758975796272 ] ] ] } },
{ "type": "Feature", "properties": { "pincode": "362540", "state": "Daman & Diu", "district": "Diu", "officename": "Ghoghla", "officetype": "S.O" }, "geometry": { "type": "Polygon", "coordinates": [ [ [ 71.006117668195998, 20.737185323643871 ], [ 70.987296234633732, 20.72143266018918 ], [ 70.983239065530483, 20.725107268485715 ], [ 70.999000162827258, 20.739357877963812 ], [ 71.006117668195998, 20.737185323643871 ] ] ] } }
]
}
