{
"type": "FeatureCollection",
"name": "lakshadweep",
"crs": { "type": "name", "properties": { "name": "urn:ogc:def:crs:OGC:1.3:CRS84" } },
"features": [
{ "type": "Feature", "properties": { "pincode": "682551", "officename": "Androth S.O", "officetype": "S.O", "circle": "Kerala", "region": "Kochi", "division": "Lakshadweep", "state": "Lakshadweep", "district": "Lakshadweep" }, "geometry": { "type": "Polygon", "coordinates": [ [ [ 73.666253255045518, 10.818692466785402 ], [ 73.676066857247747, 10.818354328518886 ], [ 73.676885795596746, 10.817619214744118 ], [ 73.679084970226953, 10.81834168974177 ], [ 73.681848117972308, 10.817572914209801 ], [ 73.700286820713131, 10.818012826350193 ], [ 73.702690261459182, 10.815733722627217 ], [ 73.700287982234826, 10.813152750850957 ], [ 73.684199014460731, 10.807327820969059 ], [ 73.67801701618626, 10.805605358489185 ], [ 73.672613769228221, 10.805166401430409 ], [ 73.664628207188144, 10.806727504049892 ], [ 73.662410673688456, 10.808038967168605 ], [ 73.661018837461981, 10.81020711264974 ], [ 73.660047228633815, 10.814405957987852 ], [ 73.660451854990626, 10.816586100717268 ], [ 73.662362078424863, 10.818087863207998 ], [ 73.666253255045518, 10.818692466785402 ] ] ] } },
{ "type": "Feature", "properties": { "pincode": "682552", "officename": "Amini S.O", "officetype": "S.O", "circle": "Kerala", "region": "Kochi", "division": "Lakshadweep", "state": "Lakshadweep", "district": "Lakshadweep" }, "geometry": { "type": "Polygon", "coordinates": [ [ [ 72.719278063650123, 11.112627550808943 ], [ 72.717041838006026, 11.114670775616059 ], [ 72.715885092686023, 11.118112603690918 ], [ 72.716209736643165, 11.122973917949736 ], [ 72.718036574859454, 11.126918367836044 ], [ 72.728753260603341, 11.13499892394235 ], [ 72.732868785178042, 11.134903588583651 ], [ 72.733399363422478, 11.131824509331629 ], [ 72.729186969917478, 11.122321442139643 ], [ 72.725387099858921, 11.117541836908419 ], [ 72.719278063650123, 11.112627550808943 ] ] ] } },
{ "type": "Feature", "properties": { "pincode": "682553", "officename": "Agathi S.O", "officetype": "S.O", "circle": "Kerala", "region": "Kochi", "division": "Lakshadweep", "state": "Lakshadweep", "district": "Lakshadweep" }, "geometry": { "type": "MultiPolygon", "coordinates": [ [ [ [ 72.204244970240879, 10.877656443351528 ], [ 72.206226095005533, 10.877713552689329 ], [ 72.206728746424446, 10.876338159151867 ], [ 72.203282623043322, 10.868829463270984 ], [ 72.189564745885249, 10.847573984891346 ], [ 72.180536999775057, 10.829312288329636 ], [ 72.170949285239189, 10.816531214708936 ], [ 72.171620871135502, 10.819216584977221 ], [ 72.182394814597274, 10.836072911009278 ], [ 72.188633660059565, 10.848808707575884 ], [ 72.192925189751236, 10.867414079884757 ], [ 72.194366048839399, 10.870186934316669 ], [ 72.20101245006461, 10.878195606865919 ], [ 72.202107735347823, 10.878675611860464 ], [ 72.204244970240879, 10.877656443351528 ] ] ], [ [ [ 72.168824650116335, 10.814386203682414 ], [ 72.168547631242276, 10.81336351777175 ], [ 72.169552143562669, 10.81235268827413 ], [ 72.165088545171571, 10.812377991921254 ], [ 72.166326264631294, 10.81378172201299 ], [ 72.168824650116335, 10.814386203682414 ] ] ], [ [ [ 72.287354556298737, 10.94613141841953 ], [ 72.290823216613745, 10.945586659422844 ], [ 72.2891131737574, 10.944736311787448 ], [ 72.288310217335635, 10.942767856497078 ], [ 72.289631189062632, 10.941589144117739 ], [ 72.290573527185543, 10.936633619775442 ], [ 72.288998990698275, 10.935240111611057 ], [ 72.285731049950385, 10.935023379365596 ], [ 72.284281282269518, 10.936478806732334 ], [ 72.283647837941885, 10.938835994028416 ], [ 72.286275690422286, 10.945328505787513 ], [ 72.287354556298737, 10.94613141841953 ] ] ], [ [ [ 72.313564910650953, 10.942577699465351 ], [ 72.31282077501568, 10.944248065557842 ], [ 72.314580672573641, 10.948211330911574 ], [ 72.32100212846521, 10.950245801728308 ], [ 72.32622295633513, 10.953118410979364 ], [ 72.318519712330939, 10.945077859295148 ], [ 72.313564910650953, 10.942577699465351 ] ] ], [ [ [ 72.332009510831639, 10.953569514286272 ], [ 72.332952876627274, 10.953007998673904 ], [ 72.332138670603186, 10.952443585663982 ], [ 72.332009510831639, 10.953569514286272 ] ] ], [ [ [ 72.333349074990053, 10.95540667956358 ], [ 72.332097978717456, 10.955775981851318 ], [ 72.331743594236187, 10.958897554975939 ], [ 72.333829935076807, 10.957081981828615 ], [ 72.333349074990053, 10.95540667956358 ] ] ] ] } },
{ "type": "Feature", "properties": { "pincode": "682554", "officename": "Chetlat S.O", "officetype": "S.O", "circle": "Kerala", "region": "Kochi", "division": "Lakshadweep", "state": "Lakshadweep", "district": "Lakshadweep" }, "geometry": { "type": "MultiPolygon", "coordinates": [ [ [ [ 72.70789661740946, 11.681442306326172 ], [ 72.705873173910064, 11.681289396890534 ], [ 72.704427359714813, 11.682058894220647 ], [ 72.70512067855276, 11.683710978815377 ], [ 72.707964791454685, 11.686032957217492 ], [ 72.712533567294173, 11.699108490704766 ], [ 72.715168264937063, 11.703111333606154 ], [ 72.714144227733996, 11.704948115396155 ], [ 72.714151294780336, 11.705490949107727 ], [ 72.715440789539741, 11.703070876278179 ], [ 72.716066456253685, 11.700983294578942 ], [ 72.71607606643056, 11.69307586224963 ], [ 72.712974268196149, 11.687770130742502 ], [ 72.70789661740946, 11.681442306326172 ] ] ], [ [ [ 72.1854234621198, 11.600517778611824 ], [ 72.188374920104906, 11.598595697925751 ], [ 72.189078463567455, 11.596137017603416 ], [ 72.186371058980427, 11.596063501458424 ], [ 72.184226797465215, 11.599889616088356 ], [ 72.182989591841846, 11.60012042977819 ], [ 72.1854234621198, 11.600517778611824 ] ] ] ] } },
{ "type": "Feature", "properties": { "pincode": "682555", "officename": "Kavaratti H.O", "officetype": "S.O", "circle": "Kerala", "region": "Kochi", "division": "Lakshadweep", "state": "Lakshadweep", "district": "Lakshadweep" }, "geometry": { "type": "MultiPolygon", "coordinates": [ [ [ [ 72.639956231174281, 10.577438138291543 ], [ 72.645765539098633, 10.576605316893289 ], [ 72.648662580737096, 10.572772971684747 ], [ 72.649742340437243, 10.567847169630474 ], [ 72.648472996686266, 10.562485594214301 ], [ 72.646145528260448, 10.560492519987156 ], [ 72.634374553647973, 10.555317622387713 ], [ 72.622755193994195, 10.546307131105195 ], [ 72.618576018391764, 10.541434172437013 ], [ 72.615972565052786, 10.541017309196933 ], [ 72.6155312883307, 10.542646112093427 ], [ 72.617318180262941, 10.544891819546251 ], [ 72.622027493935377, 10.546518449730337 ], [ 72.623736793884945, 10.548169130563638 ], [ 72.633640086580087, 10.56383566424787 ], [ 72.635898314660452, 10.568980442412464 ], [ 72.635928672327168, 10.570805927351698 ], [ 72.639956231174281, 10.577438138291543 ] ] ], [ [ [ 72.289855291776576, 10.048246492030392 ], [ 72.287586208454314, 10.045073837101018 ], [ 72.285706609486425, 10.039833681876319 ], [ 72.28122218275719, 10.03763276462786 ], [ 72.281743865883712, 10.040398664377429 ], [ 72.288259850594301, 10.048018410755434 ], [ 72.291072711107475, 10.049966611369546 ], [ 72.293437580890171, 10.051050194232792 ], [ 72.289855291776576, 10.048246492030392 ] ] ], [ [ [ 72.326236886510245, 10.08245619421189 ], [ 72.327053140693152, 10.083658118302916 ], [ 72.329756558556966, 10.085953158966817 ], [ 72.332594918647814, 10.090499044511526 ], [ 72.33560981026838, 10.098598202524288 ], [ 72.335626121877311, 10.101004661999815 ], [ 72.33604144177923, 10.098808973096693 ], [ 72.332303176386219, 10.088633800097812 ], [ 72.3306622687725, 10.085954591748035 ], [ 72.326236886510245, 10.08245619421189 ] ] ], [ [ [ 72.331257810483365, 10.127376692126944 ], [ 72.331063009915695, 10.123873302260497 ], [ 72.329973648123456, 10.126842803613421 ], [ 72.327959088063935, 10.126357770335458 ], [ 72.325954705018233, 10.12730851820856 ], [ 72.326645812203964, 10.129656989571341 ], [ 72.32652783825435, 10.135368992292273 ], [ 72.327352275191174, 10.135556307531022 ], [ 72.331257810483365, 10.127376692126944 ] ] ] ] } },
{ "type": "Feature", "properties": { "pincode": "682556", "officename": "Kadamat S.O", "officetype": "S.O", "circle": "Kerala", "region": "Kochi", "division": "Lakshadweep", "state": "Lakshadweep", "district": "Lakshadweep" }, "geometry": { "type": "Polygon", "coordinates": [ [ [ 72.762150158788103, 11.182035720618089 ], [ 72.759917907290799, 11.180250205825212 ], [ 72.764489857776496, 11.196860197494818 ], [ 72.774184203234896, 11.223943959468535 ], [ 72.778826823285655, 11.241039380912886 ], [ 72.784863375332478, 11.254947903067739 ], [ 72.786967397712871, 11.257583928778676 ], [ 72.789928282618547, 11.258705348922772 ], [ 72.789569195456764, 11.254603405934521 ], [ 72.782135790990907, 11.235915716053155 ], [ 72.777339747672741, 11.217484042629026 ], [ 72.775440636398599, 11.213365292816668 ], [ 72.768980985937773, 11.204171546672169 ], [ 72.762150158788103, 11.182035720618089 ] ] ] } },
{ "type": "Feature", "properties": { "pincode": "682557", "officename": "Kalpeni S.O", "officetype": "S.O", "circle": "Kerala", "region": "Kochi", "division": "Lakshadweep", "state": "Lakshadweep", "district": "Lakshadweep" }, "geometry": { "type": "MultiPolygon", "coordinates": [ [ [ [ 73.647861909689837, 10.079669434018671 ], [ 73.647256148744276, 10.058794104403832 ], [ 73.644739301981829, 10.057034761481528 ], [ 73.640917085432264, 10.05762469073586 ], [ 73.639310744990638, 10.059797380924749 ], [ 73.640136923760849, 10.061701410272752 ], [ 73.635338331023917, 10.071723226809796 ], [ 73.635992199447827, 10.072256108302586 ], [ 73.637850700582959, 10.071177142787148 ], [ 73.640235581236908, 10.071581380483236 ], [ 73.64382804556773, 10.075764603875248 ], [ 73.65075717985053, 10.096993321957443 ], [ 73.651216159671918, 10.104076712061881 ], [ 73.65195714311885, 10.100428153201655 ], [ 73.647861909689837, 10.079669434018671 ] ] ], [ [ [ 73.632024379465463, 10.068961239227267 ], [ 73.631004894924246, 10.06815662017887 ], [ 73.630331957063447, 10.06857343985725 ], [ 73.630824246415543, 10.068885152756783 ], [ 73.632024379465463, 10.068961239227267 ] ] ], [ [ [ 73.633084816403851, 10.06888796717109 ], [ 73.632520130924675, 10.069288477889314 ], [ 73.633157052630779, 10.070116866185542 ], [ 73.63339542418467, 10.069815366648957 ], [ 73.633084816403851, 10.06888796717109 ] ] ], [ [ [ 73.627537902780716, 10.072665797399898 ], [ 73.626853361381407, 10.073379474895347 ], [ 73.629663780273631, 10.074843079302806 ], [ 73.628376190840925, 10.073085512307994 ], [ 73.627537902780716, 10.072665797399898 ] ] ], [ [ [ 73.652199275918875, 10.108581571181913 ], [ 73.652666804108478, 10.109133081932756 ], [ 73.652910196346525, 10.110324263923282 ], [ 73.652958314604703, 10.108928978316149 ], [ 73.652199275918875, 10.108581571181913 ] ] ], [ [ [ 73.660930669613464, 10.155678598712234 ], [ 73.664708384522186, 10.142557646282951 ], [ 73.664795701666108, 10.139947432995561 ], [ 73.662020500326278, 10.130714351553124 ], [ 73.656872275195909, 10.125506285917455 ], [ 73.657753034704456, 10.127467346295552 ], [ 73.659808557042624, 10.128805765941072 ], [ 73.662413261734784, 10.136845224307155 ], [ 73.662622462296468, 10.143890195889673 ], [ 73.660119019296388, 10.151852777370495 ], [ 73.65835421783531, 10.152823406195596 ], [ 73.659539666125269, 10.155414677498763 ], [ 73.660930669613464, 10.155678598712234 ] ] ] ] } },
{ "type": "Feature", "properties": { "pincode": "682558", "officename": "Kiltan S.O", "officetype": "S.O", "circle": "Kerala", "region": "Kochi", "division": "Lakshadweep", "state": "Lakshadweep", "district": "Lakshadweep" }, "geometry": { "type": "Polygon", "coordinates": [ [ [ 73.005444560397393, 11.493000561986698 ], [ 73.009038632712546, 11.486721285708537 ], [ 73.009653585220065, 11.478156850579547 ], [ 73.011323371873559, 11.471612452444209 ], [ 73.010053787374119, 11.469719199922061 ], [ 73.007452428008037, 11.46816257224595 ], [ 73.006484485204552, 11.469224422968386 ], [ 73.00740350485934, 11.471710508914299 ], [ 73.003668078142638, 11.480836785635805 ], [ 73.002196723047206, 11.490374339417789 ], [ 73.001163178973457, 11.492224607088744 ], [ 72.999029346000384, 11.492818779314852 ], [ 72.997498941946418, 11.496103859323252 ], [ 73.000130215211399, 11.497263586424303 ], [ 73.001972311312812, 11.49702031380618 ], [ 73.005444560397393, 11.493000561986698 ] ] ] } },
{ "type": "Feature", "properties": { "pincode": "682559", "officename": "Minicoy S.O", "officetype": "S.O", "circle": "Kerala", "region": "Kochi", "division": "Lakshadweep", "state": "Lakshadweep", "district": "Lakshadweep" }, "geometry": { "type": "MultiPolygon", "coordinates": [ [ [ [ 73.054069319291131, 8.274203177979055 ], [ 73.050460358298437, 8.269215034502434 ], [ 73.047090865702614, 8.266423649852053 ], [ 73.044216499338546, 8.265675272107041 ], [ 73.037227649547233, 8.266008011441714 ], [ 73.028066087697354, 8.267747318686652 ], [ 73.019388132084032, 8.271359582949874 ], [ 73.018095274930516, 8.277240864421197 ], [ 73.01877830536354, 8.277585231325201 ], [ 73.022349767083, 8.275342535380435 ], [ 73.025765183352803, 8.27220658724382 ], [ 73.035167429918431, 8.274367102098042 ], [ 73.041779921538307, 8.274186859258581 ], [ 73.046737020210529, 8.275866505156618 ], [ 73.055564977408267, 8.282700536455835 ], [ 73.064651649407864, 8.297172110515534 ], [ 73.066714995173839, 8.304993081624508 ], [ 73.072773207398811, 8.317250634367257 ], [ 73.075429966766762, 8.322016711429059 ], [ 73.078398258281979, 8.325020108719636 ], [ 73.069434498271121, 8.309581444611057 ], [ 73.066985419515419, 8.303405469569631 ], [ 73.065855752113009, 8.294382356164899 ], [ 73.066276293921703, 8.286250445087541 ], [ 73.054069319291131, 8.274203177979055 ] ] ], [ [ [ 73.013396427529472, 8.279104530244224 ], [ 73.011849447761819, 8.277340643674318 ], [ 73.010586579965732, 8.278319580965819 ], [ 73.013396427529472, 8.279104530244224 ] ] ], [ [ [ 73.013888640524769, 8.301977199194791 ], [ 73.013498396195672, 8.301809817197844 ], [ 73.013716172075078, 8.302090154579799 ], [ 73.013888640524769, 8.301977199194791 ] ] ] ] } }
]
}
