{
"type": "FeatureCollection",
"name": "manipur",
"crs": { "type": "name", "properties": { "name": "urn:ogc:def:crs:OGC:1.3:CRS84" } },
"features": [
{ "type": "Feature", "properties": { "pincode": "795132", "state": "Manipur", "district": "Imphal West", "officename": "Mayang Imphal", "officetype": "S.O" }, "geometry": { "type": "Polygon", "coordinates": [ [ [ 93.838148268727707, 24.613650351982187 ], [ 93.812369879466473, 24.619692162063757 ], [ 93.817337589658109, 24.641711202609827 ], [ 93.801523900907284, 24.657375262158837 ], [ 93.806224690517126, 24.669929045189406 ], [ 93.831588154169992, 24.676583650615044 ], [ 93.842626585848222, 24.661823130033554 ], [ 93.879595520816622, 24.659569383120584 ], [ 93.86658672130028, 24.634027686428681 ], [ 93.892611183959104, 24.629330291759686 ], [ 93.903647727960276, 24.619312899970396 ], [ 93.916636999597984, 24.623175552909572 ], [ 93.912217222946481, 24.602377024580107 ], [ 93.91784767503043, 24.582255101192004 ], [ 93.908639204535632, 24.569919306630879 ], [ 93.883392381153556, 24.560090021537292 ], [ 93.883710135914157, 24.536540426599515 ], [ 93.898349567278729, 24.523999747590324 ], [ 93.893247287032807, 24.515460053438687 ], [ 93.900640228663747, 24.506071992828367 ], [ 93.892868414345969, 24.486680890910577 ], [ 93.875746315440324, 24.473229479257213 ], [ 93.865369046444414, 24.533815979024439 ], [ 93.880371492750271, 24.595369581840828 ], [ 93.861363148590613, 24.577902453535444 ], [ 93.841969498893434, 24.594727407443941 ], [ 93.838148268727707, 24.613650351982187 ] ] ] } },
{ "type": "Feature", "properties": { "pincode": "795133", "state": "Manipur", "district": "Bishnupur, Churachandpur", "officename": "Moirang", "officetype": "S.O" }, "geometry": { "type": "Polygon", "coordinates": [ [ [ 93.677525919485731, 24.478253321533657 ], [ 93.694684349203499, 24.551164735863892 ], [ 93.734371728772373, 24.533997619594572 ], [ 93.766944376481888, 24.539743898062568 ], [ 93.765717294717547, 24.521338046613721 ], [ 93.805976374210388, 24.547497160265834 ], [ 93.85261568586543, 24.529340230367382 ], [ 93.853489734263917, 24.508351100622917 ], [ 93.866149351311549, 24.514934979765599 ], [ 93.87521335920917, 24.482555543303761 ], [ 93.851442115561383, 24.412268497293496 ], [ 93.8746529763539, 24.329978467032788 ], [ 93.863707318738022, 24.320744172505727 ], [ 93.858092387153988, 24.327119178707221 ], [ 93.822910931194656, 24.293272973169223 ], [ 93.807981444188385, 24.323556329161363 ], [ 93.735693430907304, 24.378719164258086 ], [ 93.677525919485731, 24.478253321533657 ] ] ] } },
{ "type": "Feature", "properties": { "pincode": "795135", "state": "Manipur", "district": "Chandel, Kakching, Tengnoupal", "officename": "Pallel", "officetype": "S.O" }, "geometry": { "type": "Polygon", "coordinates": [ [ [ 93.930778239824065, 24.26650838555372 ], [ 93.903554643631992, 24.323744233509615 ], [ 93.911434629304836, 24.331675706268868 ], [ 93.902564785037043, 24.35224424917277 ], [ 93.907601681872165, 24.369954269074412 ], [ 93.92406228984288, 24.381154924959844 ], [ 93.931221837617784, 24.406291842194832 ], [ 93.945158093571251, 24.40372150514338 ], [ 93.943611083384837, 24.416250744776221 ], [ 93.961945789466711, 24.419576393635793 ], [ 93.951770922790047, 24.429785551462089 ], [ 93.966453865153881, 24.436520400695997 ], [ 93.974390869643059, 24.451247905366699 ], [ 93.978308254422473, 24.484385526071208 ], [ 93.994593910080994, 24.478456705013116 ], [ 93.995006649437471, 24.459699798706936 ], [ 94.006851303544977, 24.461391213933496 ], [ 94.013586942383483, 24.478086587226187 ], [ 94.026434309096146, 24.467502689098012 ], [ 94.039518104876834, 24.468367419620904 ], [ 94.035023124217844, 24.499133092818226 ], [ 94.051785773994368, 24.535720029955542 ], [ 94.075344384635684, 24.508248728096476 ], [ 94.08714958098841, 24.513070563755605 ], [ 94.105287992946614, 24.507381751966307 ], [ 94.108162189333825, 24.516994956052372 ], [ 94.095992085866044, 24.518847527991113 ], [ 94.083595916218655, 24.547140233735036 ], [ 94.089060303989925, 24.549781438262812 ], [ 94.097562106106466, 24.538256950897676 ], [ 94.098128871450285, 24.556518041174741 ], [ 94.108228699594918, 24.556728987053134 ], [ 94.127820447455747, 24.538021030846039 ], [ 94.12306545480709, 24.560854142205017 ], [ 94.104248414432845, 24.579541515628421 ], [ 94.110786622404873, 24.58699223870093 ], [ 94.107692561562487, 24.627167363782917 ], [ 94.122507580160686, 24.640886547676189 ], [ 94.134662470696526, 24.643080777456078 ], [ 94.155018221413911, 24.623117562825371 ], [ 94.218979200529873, 24.617635964727981 ], [ 94.257369744218408, 24.626348978922408 ], [ 94.289166245525905, 24.60391542016049 ], [ 94.308259208695688, 24.602674162382868 ], [ 94.315898476433688, 24.590156539292934 ], [ 94.346821042657041, 24.580691423870121 ], [ 94.346099752201781, 24.567449108190033 ], [ 94.381130049212629, 24.562796742575699 ], [ 94.386459731131879, 24.552852629345409 ], [ 94.381623607943254, 24.540846146732292 ], [ 94.391440959033162, 24.526024131408576 ], [ 94.428427780617653, 24.504550084518939 ], [ 94.397438049426512, 24.470762253075634 ], [ 94.393714904719332, 24.420667648093627 ], [ 94.381942749458403, 24.401002884275783 ], [ 94.329264925535938, 24.397191357795009 ], [ 94.278460926330865, 24.407790753040786 ], [ 94.241244658014693, 24.429831616535978 ], [ 94.216155179118289, 24.417131878033786 ], [ 94.132296307628735, 24.427752076397326 ], [ 94.108074516226111, 24.413394112148694 ], [ 94.100031826107966, 24.390886596739222 ], [ 94.044473917937012, 24.339004327487942 ], [ 94.02581893899287, 24.336054997240524 ], [ 94.008142127457234, 24.348712270654801 ], [ 93.983540673763116, 24.351744593038575 ], [ 93.972095076726589, 24.340351313162728 ], [ 93.967229260621878, 24.317952968254872 ], [ 93.975713566428055, 24.294667538376189 ], [ 93.96047882074123, 24.293040502017732 ], [ 93.939233581164899, 24.268700184466013 ], [ 93.943453675946444, 24.265619207860254 ], [ 93.930778239824065, 24.26650838555372 ] ] ] } },
{ "type": "Feature", "properties": { "pincode": "795138", "state": "Manipur", "district": "Imphal East, Imphal West, Thoubal", "officename": "Thoubal", "officetype": "S.O" }, "geometry": { "type": "Polygon", "coordinates": [ [ [ 93.900065696774675, 24.626156378314249 ], [ 93.926991403330589, 24.653205003308415 ], [ 93.941039887480997, 24.640003251548933 ], [ 93.960630515685807, 24.671088587868155 ], [ 93.997567538211399, 24.654766276742521 ], [ 94.01511227441199, 24.68246744621581 ], [ 94.047762736860875, 24.690072740264895 ], [ 94.047334572332716, 24.664116319412585 ], [ 94.03241788088053, 24.651793288029864 ], [ 94.06075337277008, 24.651891458923728 ], [ 94.052820140936888, 24.636801458220873 ], [ 94.066149737620549, 24.634718490765806 ], [ 94.068793943185995, 24.625837917585841 ], [ 94.033433516743571, 24.608344341118425 ], [ 94.027198380301229, 24.612642134626924 ], [ 94.00384163778142, 24.583569731058276 ], [ 93.9626698992966, 24.579867369683484 ], [ 93.942672286496986, 24.563275506559535 ], [ 93.931262294519399, 24.562880181675212 ], [ 93.931312092678979, 24.553211631511715 ], [ 93.905396023507933, 24.565455983007439 ], [ 93.918697110783057, 24.585355593086319 ], [ 93.912217222946481, 24.602377024580107 ], [ 93.917227829900526, 24.620830219938739 ], [ 93.903647727960276, 24.619312899970396 ], [ 93.900065696774675, 24.626156378314249 ] ] ] } },
{ "type": "Feature", "properties": { "pincode": "795141", "state": "Manipur", "district": "Tamenglong", "officename": "Tamenglong", "officetype": "S.O" }, "geometry": { "type": "Polygon", "coordinates": [ [ [ 93.25188001015448, 24.662999603349135 ], [ 93.209492050118115, 24.69463724301454 ], [ 93.144888240999592, 24.693016306757329 ], [ 93.177992654237642, 24.773901896355596 ], [ 93.21632634638371, 24.782116258958183 ], [ 93.242533374116022, 24.824938858641474 ], [ 93.243863207021491, 24.850212521390745 ], [ 93.222857211391442, 24.869482667191448 ], [ 93.232779999897332, 24.88129200042556 ], [ 93.229904000369402, 24.89134800011027 ], [ 93.242766999997173, 24.900153999707527 ], [ 93.238410999668019, 24.911462999617925 ], [ 93.252678000189576, 24.915233999949294 ], [ 93.242469999790842, 24.927763000362233 ], [ 93.247931999862089, 24.936526999821183 ], [ 93.239425999710249, 24.935281999964388 ], [ 93.253547999840407, 24.93902599994999 ], [ 93.248687999651622, 24.951507999994192 ], [ 93.261826000269878, 24.947769000239248 ], [ 93.262694999874441, 24.962777999904745 ], [ 93.250999000103775, 24.977845999593285 ], [ 93.25517999955747, 24.998627000136025 ], [ 93.262802000312092, 25.000656000174274 ], [ 93.246444999637106, 25.000074000314896 ], [ 93.248352000344653, 25.015240000026097 ], [ 93.257301000241, 25.018161999876384 ], [ 93.267699999555475, 25.046086999815259 ], [ 93.304085000222585, 25.044332999868232 ], [ 93.312241000421864, 25.074285999799088 ], [ 93.335289000287332, 25.092138000168575 ], [ 93.348740000051123, 25.121683000170492 ], [ 93.352661000105172, 25.178082000184304 ], [ 93.384398999614234, 25.221969999715782 ], [ 93.388343999875815, 25.242163000122503 ], [ 93.403197999588144, 25.259289000287197 ], [ 93.420340999637574, 25.262437999813926 ], [ 93.426048000215246, 25.277234999595692 ], [ 93.459578999671237, 25.290842000258237 ], [ 93.4736249998939, 25.305372000317732 ], [ 93.476303000183464, 25.275111999719172 ], [ 93.510315000237199, 25.271614000285922 ], [ 93.504639000189798, 25.240137000222433 ], [ 93.554153000161023, 25.246435000175268 ], [ 93.589637999793922, 25.215764999555176 ], [ 93.592361000359915, 25.19971999977821 ], [ 93.611892999961981, 25.201957999562069 ], [ 93.587200370300991, 25.165845185007527 ], [ 93.523575777200449, 25.153739406448551 ], [ 93.516285824131728, 25.135567884150646 ], [ 93.48879869690245, 25.123170287279038 ], [ 93.484277208726382, 25.084859240961293 ], [ 93.632230663514349, 25.023905138811074 ], [ 93.5414461965849, 24.882813463570528 ], [ 93.522296702031326, 24.822710906083557 ], [ 93.412498860134235, 24.831775714377784 ], [ 93.409502971984637, 24.815929216560221 ], [ 93.371844165276229, 24.814034793770873 ], [ 93.360475623051627, 24.80596287029033 ], [ 93.363477807355082, 24.773099389025674 ], [ 93.322937100666707, 24.741051443569347 ], [ 93.339996328867585, 24.724348309127151 ], [ 93.319722749205596, 24.714801376082733 ], [ 93.31413162627365, 24.700580692445101 ], [ 93.294010309927955, 24.700159865485375 ], [ 93.298704104610863, 24.684648192460202 ], [ 93.291185489918576, 24.676524992334635 ], [ 93.25188001015448, 24.662999603349135 ] ] ] } },
{ "type": "Feature", "properties": { "pincode": "795142", "state": "Manipur", "district": "Ukhrul", "officename": "Ukhrul", "officetype": "S.O" }, "geometry": { "type": "Polygon", "coordinates": [ [ [ 94.318516156495548, 25.242259021636642 ], [ 94.343661721611227, 25.269186492662584 ], [ 94.353681242095774, 25.294456395346515 ], [ 94.399951717497913, 25.35764895143808 ], [ 94.401629695054623, 25.410438265213827 ], [ 94.427408230005938, 25.441060274412223 ], [ 94.455100880201485, 25.511907517118232 ], [ 94.479276200936113, 25.539475772189178 ], [ 94.482520340641429, 25.564693977345314 ], [ 94.492904583879522, 25.575457799238109 ], [ 94.507499999725383, 25.620926000234931 ], [ 94.550613000389831, 25.656414000006123 ], [ 94.571876999823758, 25.691585999594281 ], [ 94.594436999667835, 25.685153999757347 ], [ 94.574867000112022, 25.638583999751916 ], [ 94.593941000177097, 25.637683999617082 ], [ 94.554436000421219, 25.57968300037021 ], [ 94.563347000363933, 25.561775000116313 ], [ 94.556037999654052, 25.506574999636598 ], [ 94.631439000009948, 25.459236000141289 ], [ 94.664390999744853, 25.448883000250305 ], [ 94.679071073271587, 25.452564291408976 ], [ 94.669517516720248, 25.424064636373942 ], [ 94.631179810000276, 25.387300491424639 ], [ 94.617927551415505, 25.322797775097342 ], [ 94.603027343637166, 25.303260803143644 ], [ 94.582000732847746, 25.247245788462408 ], [ 94.579063415744088, 25.210527419904679 ], [ 94.608657837089595, 25.170652389596228 ], [ 94.707771301404534, 25.145301818624205 ], [ 94.733497619919319, 25.129259109420502 ], [ 94.73989551476626, 25.109003335435773 ], [ 94.614970537360591, 25.093184206685919 ], [ 94.590266004272735, 25.083593594468994 ], [ 94.507538281166831, 25.015634907624985 ], [ 94.406970741706516, 24.994201794277387 ], [ 94.330567302139286, 24.990846514555074 ], [ 94.255468050410286, 24.945626592093618 ], [ 94.168932161590135, 24.926468356129931 ], [ 94.175715681233896, 24.955800874211036 ], [ 94.165894429784089, 25.024448163851844 ], [ 94.153920122215823, 25.046038291633977 ], [ 94.271653603431162, 25.111942327076747 ], [ 94.362570991957909, 25.205420011724186 ], [ 94.343516405557807, 25.233180014846027 ], [ 94.318516156495548, 25.242259021636642 ] ] ] } },
{ "type": "Feature", "properties": { "pincode": "795143", "state": "Manipur", "district": "Pherzawl", "officename": "Thanlon", "officetype": "S.O" }, "geometry": { "type": "Polygon", "coordinates": [ [ [ 93.168502999913642, 24.071567999663557 ], [ 93.140877000273349, 24.083352999941042 ], [ 93.128044000230489, 24.060675000051333 ], [ 93.099601999832601, 24.041734999870528 ], [ 93.101043999780813, 24.070662000151174 ], [ 93.078261999591746, 24.099671999763132 ], [ 93.052475000221079, 24.087447999925303 ], [ 92.995293000072081, 24.113604000124667 ], [ 92.975273000448681, 24.111750000062557 ], [ 92.972510999882786, 24.120806000396726 ], [ 92.988303999729908, 24.12867199981298 ], [ 92.990051000253516, 24.14721299958029 ], [ 93.00435599982967, 24.157465000209527 ], [ 93.002235000045346, 24.170907999604424 ], [ 93.009818999947015, 24.179054000242047 ], [ 93.001984000161542, 24.194378000044821 ], [ 93.015548999786631, 24.196857000150601 ], [ 93.021210000041492, 24.206870999697003 ], [ 93.018371999568274, 24.225667999578604 ], [ 93.025543000209211, 24.229429000348091 ], [ 93.016990999734844, 24.233192000310737 ], [ 93.005753000400716, 24.259632000116824 ], [ 93.162158200140937, 24.340315503957527 ], [ 93.23712423979191, 24.398292119885582 ], [ 93.228385256774345, 24.504525224559529 ], [ 93.275509076382946, 24.516596211046476 ], [ 93.283579124776907, 24.549153120620076 ], [ 93.31098226342084, 24.56663833878838 ], [ 93.331167841722674, 24.564074356346566 ], [ 93.352939070481852, 24.575999622984398 ], [ 93.394736023948496, 24.568996429541642 ], [ 93.392571018537808, 24.525689987402984 ], [ 93.412867511126819, 24.516997862661412 ], [ 93.390493112467311, 24.469604627751323 ], [ 93.366614074280164, 24.445116277294403 ], [ 93.367926186044826, 24.430019102699475 ], [ 93.355927032906379, 24.411483099565487 ], [ 93.367716955173478, 24.394614040205965 ], [ 93.390030965256869, 24.385064148391905 ], [ 93.478069470129981, 24.386575837704868 ], [ 93.498518137002463, 24.379856881290152 ], [ 93.505007807664299, 24.351158088475074 ], [ 93.495282060618536, 24.277186785341939 ], [ 93.412784658385476, 24.205146141381476 ], [ 93.406310188064879, 24.1694401414494 ], [ 93.381463875957195, 24.110469861894671 ], [ 93.383586552977135, 24.084735079860195 ], [ 93.336555481350445, 24.086250305307374 ], [ 93.331415089634788, 24.049668886410075 ], [ 93.286652000289735, 24.04779100035438 ], [ 93.253754000347044, 24.020104999746025 ], [ 93.250869999550957, 24.030147999730332 ], [ 93.265099000118823, 24.056547000343983 ], [ 93.26222199964559, 24.069110999672887 ], [ 93.246566999867298, 24.081670999717005 ], [ 93.222403999844744, 24.080395000229032 ], [ 93.21527900042571, 24.046459000082848 ], [ 93.168441999798631, 24.051453000155902 ], [ 93.168502999913642, 24.071567999663557 ] ] ] } },
{ "type": "Feature", "properties": { "pincode": "795148", "state": "Manipur", "district": "Kakching, Thoubal", "officename": "Wangjing", "officetype": "S.O" }, "geometry": { "type": "Polygon", "coordinates": [ [ [ 93.92881378502824, 24.55869627651208 ], [ 93.9626698992966, 24.579867369683484 ], [ 94.004726174073824, 24.58395472453094 ], [ 94.01226249192058, 24.601614971453728 ], [ 94.059843153638724, 24.625007644587242 ], [ 94.067853165091606, 24.623559602993396 ], [ 94.069147785941766, 24.611115468004641 ], [ 94.073449228898994, 24.62473420841701 ], [ 94.083672088795879, 24.616775252376101 ], [ 94.111008185679225, 24.617311375119982 ], [ 94.104973837272837, 24.575739312419444 ], [ 94.12306545480709, 24.560854142205017 ], [ 94.128094046403191, 24.53871691095668 ], [ 94.110525423309809, 24.55592585919112 ], [ 94.099029924691365, 24.55735481986909 ], [ 94.097562106106466, 24.538256950897676 ], [ 94.087118323252128, 24.550806305666526 ], [ 94.083593881052877, 24.544728475938541 ], [ 94.095992085866044, 24.518847527991113 ], [ 94.108162189333825, 24.516994956052372 ], [ 94.103863156559612, 24.506128660909042 ], [ 94.08714958098841, 24.513070563755605 ], [ 94.075344384635684, 24.508248728096476 ], [ 94.054431906807167, 24.537063304128367 ], [ 94.042375709671433, 24.507584362028865 ], [ 93.97352494302163, 24.535267727623648 ], [ 93.962842252568009, 24.5275600268738 ], [ 93.946682498398729, 24.535816183670079 ], [ 93.949873533137009, 24.549579180734725 ], [ 93.92881378502824, 24.55869627651208 ] ] ] } },
{ "type": "Feature", "properties": { "pincode": "795149", "state": "Manipur", "district": "Imphal East, Kamjong-Chassad, Kangpokpi, Thoubal", "officename": "Yairipok", "officetype": "S.O" }, "geometry": { "type": "Polygon", "coordinates": [ [ [ 94.013517444574518, 24.714441936846129 ], [ 94.021943905986575, 24.73898215480267 ], [ 94.034721388181708, 24.73568220317128 ], [ 94.036774962194784, 24.751243541256599 ], [ 94.041395600626629, 24.74417263066249 ], [ 94.054486376045531, 24.758417027623807 ], [ 94.056256031390774, 24.751056695410227 ], [ 94.063118803789848, 24.752484531935693 ], [ 94.063071943715272, 24.764478739702213 ], [ 94.070760943063078, 24.756684794867624 ], [ 94.063890761149935, 24.775276471432107 ], [ 94.078694904246618, 24.774967503947266 ], [ 94.075923409537836, 24.767484415173783 ], [ 94.083379426919123, 24.775152710329394 ], [ 94.093871818130083, 24.769911192547681 ], [ 94.101034972186312, 24.794120104759088 ], [ 94.118090631877294, 24.796362986962436 ], [ 94.118540254229458, 24.808842181121861 ], [ 94.104673889088872, 24.805078933845778 ], [ 94.101906654468564, 24.814789361839701 ], [ 94.111645638635423, 24.826589998629572 ], [ 94.149330069727, 24.819280467319743 ], [ 94.133981188381199, 24.78092962510209 ], [ 94.143994972090411, 24.77695448316291 ], [ 94.150785307695855, 24.776743019275102 ], [ 94.158809170507027, 24.815349491985558 ], [ 94.173400970178704, 24.810561598539039 ], [ 94.173363398302229, 24.790050439576248 ], [ 94.221771815816794, 24.806406995986208 ], [ 94.268573847205289, 24.803714773817774 ], [ 94.293018853937042, 24.789310400054887 ], [ 94.308924050504629, 24.754301753323432 ], [ 94.355159458642277, 24.723385197269181 ], [ 94.352741274290508, 24.707535425020012 ], [ 94.362536226865416, 24.697350836671887 ], [ 94.396177105489187, 24.682994692651107 ], [ 94.397876327730501, 24.660932283198349 ], [ 94.419268565991615, 24.663738160787489 ], [ 94.436252804223614, 24.68193454394418 ], [ 94.45149373904502, 24.679166794911737 ], [ 94.471786692801686, 24.642431210631969 ], [ 94.470139026894685, 24.608484219870945 ], [ 94.488098598771501, 24.579476937110996 ], [ 94.450964011380108, 24.557342409225043 ], [ 94.438842773475301, 24.522483826067798 ], [ 94.423853790919907, 24.505676721903228 ], [ 94.391440959033162, 24.526024131408576 ], [ 94.381623607943254, 24.540846146732292 ], [ 94.386459731131879, 24.552852629345409 ], [ 94.381130049212629, 24.562796742575699 ], [ 94.346099752201781, 24.567449108190033 ], [ 94.346821042657041, 24.580691423870121 ], [ 94.315898476433688, 24.590156539292934 ], [ 94.308259208695688, 24.602674162382868 ], [ 94.289166245525905, 24.60391542016049 ], [ 94.257369744218408, 24.626348978922408 ], [ 94.218979200529873, 24.617635964727981 ], [ 94.155018221413911, 24.623117562825371 ], [ 94.134662470696526, 24.643080777456078 ], [ 94.108726704573883, 24.629213474322569 ], [ 94.111008185679225, 24.617311375119982 ], [ 94.083672088795879, 24.616775252376101 ], [ 94.073449228898994, 24.62473420841701 ], [ 94.065912843602916, 24.610781415729889 ], [ 94.066149737620549, 24.634718490765806 ], [ 94.052820140936888, 24.636801458220873 ], [ 94.06075337277008, 24.651891458923728 ], [ 94.03241788088053, 24.651793288029864 ], [ 94.047334572332716, 24.664116319412585 ], [ 94.047762736860875, 24.690072740264895 ], [ 94.021445326340881, 24.684525301901317 ], [ 94.013517444574518, 24.714441936846129 ] ] ] } },
{ "type": "Feature", "properties": { "pincode": "795007", "state": "Manipur", "district": "Senapati", "officename": "Karong", "officetype": "S.O" }, "geometry": { "type": "Polygon", "coordinates": [ [ [ 94.006767000197044, 25.564978000334634 ], [ 93.967705487618218, 25.40377945096094 ], [ 93.937648978417769, 25.387863252087584 ], [ 93.810642360956365, 25.469759906294769 ], [ 93.813323999902821, 25.480223000291289 ], [ 93.796738000358516, 25.499914000031026 ], [ 93.765304999626153, 25.495496999586862 ], [ 93.770195000299111, 25.535883000400133 ], [ 93.819228999718689, 25.539900000384876 ], [ 93.83600599997709, 25.558549999782713 ], [ 93.861717000339411, 25.552955999919561 ], [ 93.899672999709423, 25.56407500006128 ], [ 93.96458400015149, 25.551788000016188 ], [ 93.97982799986238, 25.566435000075217 ], [ 94.006767000197044, 25.564978000334634 ] ] ] } },
{ "type": "Feature", "properties": { "pincode": "795008", "state": "Manipur", "district": "Imphal East, Kangpokpi", "officename": "Singjamei", "officetype": "S.O" }, "geometry": { "type": "Polygon", "coordinates": [ [ [ 93.938186242401287, 24.731600739782493 ], [ 93.961260562724874, 24.739699945995937 ], [ 93.964725048921821, 24.764938676378904 ], [ 93.957805825178923, 24.773062041979699 ], [ 93.969533992799597, 24.776960335051513 ], [ 93.978832405391188, 24.802336224637202 ], [ 94.01231692158882, 24.799399451623628 ], [ 94.007261068843263, 24.788132747728298 ], [ 93.99433113627299, 24.793932795761975 ], [ 93.996689258502727, 24.776962858549155 ], [ 94.036774962194784, 24.751243541256599 ], [ 94.034721388181708, 24.73568220317128 ], [ 94.021943905986575, 24.73898215480267 ], [ 94.011217075907439, 24.706311950436316 ], [ 94.001628887363324, 24.704812587231174 ], [ 93.998526393578231, 24.718988225626219 ], [ 93.964207132952879, 24.730110140470572 ], [ 93.944236583451698, 24.720295811102915 ], [ 93.938186242401287, 24.731600739782493 ] ] ] } },
{ "type": "Feature", "properties": { "pincode": "795001", "state": "Manipur", "district": "Imphal East, Imphal West", "officename": "Imphal", "officetype": "H.O" }, "geometry": { "type": "Polygon", "coordinates": [ [ [ 93.941424986174184, 24.795221009841896 ], [ 93.925398211158665, 24.814741257103321 ], [ 93.932551052689121, 24.826445795936763 ], [ 93.960276392341825, 24.823521815779202 ], [ 93.958155593106255, 24.807234572817435 ], [ 93.946712398158695, 24.80741973243488 ], [ 93.941424986174184, 24.795221009841896 ] ] ] } },
{ "type": "Feature", "properties": { "pincode": "795011", "state": "Manipur", "district": "Bishnupur", "officename": "Ningthoukhong", "officetype": "S.O" }, "geometry": { "type": "Polygon", "coordinates": [ [ [ 93.729773020308699, 24.594718305405536 ], [ 93.782075091292597, 24.58648639523102 ], [ 93.781666538280206, 24.566599403539783 ], [ 93.732617068722902, 24.57086219813209 ], [ 93.729773020308699, 24.594718305405536 ] ] ] } },
{ "type": "Feature", "properties": { "pincode": "795002", "state": "Manipur", "district": "Imphal East, Imphal West, Kangpokpi, Senapati", "officename": "Mantripukhri", "officetype": "S.O" }, "geometry": { "type": "Polygon", "coordinates": [ [ [ 93.82893673424303, 24.909452407802405 ], [ 93.759097328479072, 24.939068906604916 ], [ 93.777710978179186, 24.950700085940184 ], [ 93.791561796739586, 24.987737546550591 ], [ 93.825566081509578, 24.978406350972421 ], [ 93.851381114546996, 24.95399495100628 ], [ 93.846107329089989, 24.943540829545668 ], [ 93.852110807368035, 24.941180271952021 ], [ 93.883854402458837, 24.957886778851844 ], [ 93.887147699107231, 24.938849360509664 ], [ 93.908597371671533, 24.928236738934345 ], [ 93.966600531089796, 24.868311912664694 ], [ 93.960256812302191, 24.850163602768191 ], [ 93.975519713963706, 24.83544837024607 ], [ 93.961909714961564, 24.823235066045584 ], [ 93.940454050214328, 24.826203107587389 ], [ 93.933985962382394, 24.840105745084088 ], [ 93.919250096714791, 24.84529130075299 ], [ 93.877626622470757, 24.845910164722511 ], [ 93.868771055839659, 24.876881543448519 ], [ 93.82893673424303, 24.909452407802405 ] ] ] } },
{ "type": "Feature", "properties": { "pincode": "795103", "state": "Manipur", "district": "Kakching", "officename": "Kakching", "officetype": "S.O" }, "geometry": { "type": "Polygon", "coordinates": [ [ [ 93.859394840199855, 24.373692696860587 ], [ 93.854348582321279, 24.429474074868779 ], [ 93.867316736078692, 24.446947877942421 ], [ 93.871685190219523, 24.472829122665985 ], [ 93.892868414345969, 24.486680890910577 ], [ 93.900640228663747, 24.506071992828367 ], [ 93.893247287032807, 24.515460053438687 ], [ 93.898349567278729, 24.523999747590324 ], [ 93.883344735970979, 24.537981189979917 ], [ 93.886793901317731, 24.564000835869933 ], [ 93.904874108253637, 24.568456994594783 ], [ 93.914840115479137, 24.557629532177259 ], [ 93.949873533137009, 24.549579180734725 ], [ 93.946682498398729, 24.535816183670079 ], [ 93.962842252568009, 24.5275600268738 ], [ 93.97352494302163, 24.535267727623648 ], [ 94.042375709671433, 24.507584362028865 ], [ 94.035023124217844, 24.499133092818226 ], [ 94.039518104876834, 24.468367419620904 ], [ 94.026434309096146, 24.467502689098012 ], [ 94.013586942383483, 24.478086587226187 ], [ 94.006851303544977, 24.461391213933496 ], [ 93.995006649437471, 24.459699798706936 ], [ 93.994593910080994, 24.478456705013116 ], [ 93.978308254422473, 24.484385526071208 ], [ 93.974390869643059, 24.451247905366699 ], [ 93.966453865153881, 24.436520400695997 ], [ 93.951770922790047, 24.429785551462089 ], [ 93.961945789466711, 24.419576393635793 ], [ 93.943611083384837, 24.416250744776221 ], [ 93.945158093571251, 24.40372150514338 ], [ 93.931221837617784, 24.406291842194832 ], [ 93.92406228984288, 24.381154924959844 ], [ 93.907601681872165, 24.369954269074412 ], [ 93.902564785037043, 24.35224424917277 ], [ 93.911434629304836, 24.331675706268868 ], [ 93.903554643631992, 24.323744233509615 ], [ 93.911847018824858, 24.307805351036166 ], [ 93.898007001122323, 24.303158049504475 ], [ 93.896354223468734, 24.292576850241574 ], [ 93.900930605363328, 24.274316844546888 ], [ 93.920994436144497, 24.254525117140588 ], [ 93.919753978763026, 24.240405067639927 ], [ 93.898949467244165, 24.260840828341713 ], [ 93.890730898512288, 24.253635101279031 ], [ 93.894512642144889, 24.242858622327731 ], [ 93.879531205800561, 24.249785309544563 ], [ 93.882192530860834, 24.317474757354319 ], [ 93.859394840199855, 24.373692696860587 ] ] ] } },
{ "type": "Feature", "properties": { "pincode": "795112", "state": "Manipur", "district": "Senapati", "officename": "T Waichong", "officetype": "S.O" }, "geometry": { "type": "Polygon", "coordinates": [ [ [ 93.80619275199399, 25.096540387528819 ], [ 93.806227182538635, 25.123129482339891 ], [ 93.78113571883847, 25.166970268363229 ], [ 93.781989904810359, 25.177852182032609 ], [ 93.807809634107343, 25.211341488019286 ], [ 93.829874185745211, 25.225284420539822 ], [ 93.83015066432182, 25.234197289273538 ], [ 93.85067080751179, 25.241468004045316 ], [ 93.86583520193318, 25.258738396659794 ], [ 93.89615228340125, 25.267850278167771 ], [ 93.893860496964521, 25.194027610485989 ], [ 93.911991798882525, 25.166158725544904 ], [ 93.885611065298576, 25.126956144410656 ], [ 93.864449479759742, 25.11260930657437 ], [ 93.80619275199399, 25.096540387528819 ] ] ] } },
{ "type": "Feature", "properties": { "pincode": "795113", "state": "Manipur", "district": "Imphal West, Senapati", "officename": "CRPF Camp Langjing", "officetype": "S.O" }, "geometry": { "type": "Polygon", "coordinates": [ [ [ 93.798951868633878, 24.762708638293134 ], [ 93.786597205396902, 24.757414636975966 ], [ 93.784095564858433, 24.740439286743822 ], [ 93.770545860902814, 24.724516610953003 ], [ 93.747524652740651, 24.744670212959988 ], [ 93.696230025695172, 24.740052047663937 ], [ 93.684412443879296, 24.732513407767613 ], [ 93.676914782491394, 24.782857385759883 ], [ 93.696957516076736, 24.80885722857829 ], [ 93.732753738694271, 24.802851729523809 ], [ 93.773157345535083, 24.818283662361182 ], [ 93.791912409130418, 24.817638841259622 ], [ 93.789842891036642, 24.823456002492492 ], [ 93.799380342528821, 24.8268450967239 ], [ 93.824045114790408, 24.817399308631366 ], [ 93.840460375346083, 24.827297222788843 ], [ 93.840701987207069, 24.80519400300102 ], [ 93.854679835006493, 24.800820598991606 ], [ 93.850549121145207, 24.80752449086259 ], [ 93.860691545678321, 24.812457532189455 ], [ 93.889291648690744, 24.804078433572897 ], [ 93.889972137804023, 24.786298434725097 ], [ 93.905574097366866, 24.783765987909987 ], [ 93.910803123565415, 24.773724665161239 ], [ 93.893508518503381, 24.759420670128009 ], [ 93.866619808257667, 24.761227663525972 ], [ 93.861528345956629, 24.753234608790194 ], [ 93.798951868633878, 24.762708638293134 ] ] ] } },
{ "type": "Feature", "properties": { "pincode": "795003", "state": "Manipur", "district": "Imphal East, Imphal West", "officename": "Manipur University", "officetype": "S.O" }, "geometry": { "type": "Polygon", "coordinates": [ [ [ 93.901354996336181, 24.759512537673572 ], [ 93.894013847561098, 24.759804973820508 ], [ 93.935164334166871, 24.799574184501239 ], [ 93.943659284348598, 24.794094698911351 ], [ 93.940224146627088, 24.782196440713278 ], [ 93.96017254672563, 24.784373003311487 ], [ 93.965386880700009, 24.74827403831631 ], [ 93.948710957944456, 24.732396797174601 ], [ 93.928726812492584, 24.72621020253888 ], [ 93.916086930167808, 24.735597851260025 ], [ 93.906152155497637, 24.726653237357141 ], [ 93.892259199202726, 24.739029466336774 ], [ 93.901354996336181, 24.759512537673572 ] ] ] } },
{ "type": "Feature", "properties": { "pincode": "795122", "state": "Manipur", "district": "Senapati", "officename": "Kalapahar", "officetype": "S.O" }, "geometry": { "type": "Polygon", "coordinates": [ [ [ 93.983086219353595, 25.108350763976659 ], [ 93.958793879733889, 25.073157716655373 ], [ 93.893713902974412, 25.079821585098159 ], [ 93.852005762955741, 25.069902317438107 ], [ 93.804852817004019, 25.075403401146161 ], [ 93.80619275199399, 25.096540387528819 ], [ 93.864449479759742, 25.11260930657437 ], [ 93.885611065298576, 25.126956144410656 ], [ 93.911991798882525, 25.166158725544904 ], [ 93.940716863592456, 25.1527911109211 ], [ 93.955368614769782, 25.12679006750767 ], [ 93.983086219353595, 25.108350763976659 ] ] ] } },
{ "type": "Feature", "properties": { "pincode": "795004", "state": "Manipur", "district": "Imphal West", "officename": "Lamphelpat", "officetype": "S.O" }, "geometry": { "type": "Polygon", "coordinates": [ [ [ 93.94032891314896, 24.82494692016428 ], [ 93.925214195478816, 24.817803752641225 ], [ 93.935164334166871, 24.799574184501239 ], [ 93.909522720097527, 24.77702755847514 ], [ 93.889972137804023, 24.786298434725097 ], [ 93.889409139720101, 24.805817699027614 ], [ 93.87816215795732, 24.826085535619029 ], [ 93.892650100322044, 24.841652589795217 ], [ 93.919250096714791, 24.84529130075299 ], [ 93.933985962382394, 24.840105745084088 ], [ 93.94032891314896, 24.82494692016428 ] ] ] } },
{ "type": "Feature", "properties": { "pincode": "795005", "state": "Manipur", "district": "Imphal East, Imphal West, Kangpokpi", "officename": "Porompat", "officetype": "S.O" }, "geometry": { "type": "Polygon", "coordinates": [ [ [ 93.940224146627088, 24.782196440713278 ], [ 93.946712398158695, 24.80741973243488 ], [ 93.984547273238206, 24.814098320081484 ], [ 93.98455455594808, 24.830970018051971 ], [ 93.99373035856928, 24.819639581901185 ], [ 94.013859102415779, 24.821099195071781 ], [ 94.017631632493931, 24.83949889695657 ], [ 94.032882429280619, 24.845089850816123 ], [ 94.033003583248899, 24.852834546976737 ], [ 94.039176092702689, 24.832730177455801 ], [ 94.026164676158885, 24.829713790159417 ], [ 94.026091258204985, 24.814444741631632 ], [ 94.033477768784223, 24.814702773314366 ], [ 94.029046707439704, 24.793450732165638 ], [ 94.038471214874789, 24.79586166438429 ], [ 94.041328727039286, 24.785626638458837 ], [ 94.046575986992366, 24.823909745538458 ], [ 94.067490628589667, 24.829930757898296 ], [ 94.067889397877479, 24.849265015468177 ], [ 94.086909463800794, 24.850310783116299 ], [ 94.077882845217346, 24.841370639743275 ], [ 94.086099583828798, 24.832063173676659 ], [ 94.074717633611954, 24.827322312974388 ], [ 94.088913622765574, 24.817784498156129 ], [ 94.080221240817707, 24.801745131732616 ], [ 94.083742491323108, 24.778936650106402 ], [ 94.075799634945326, 24.783818840167498 ], [ 94.081251602179805, 24.7764911254651 ], [ 94.072671205611755, 24.770095813471187 ], [ 94.063890761149935, 24.775276471432107 ], [ 94.070760943063078, 24.756684794867624 ], [ 94.063071943715272, 24.764478739702213 ], [ 94.063693921137542, 24.752801364891127 ], [ 94.056256031390774, 24.751056695410227 ], [ 94.054486376045531, 24.758417027623807 ], [ 94.043648636175703, 24.753906749496991 ], [ 94.042758737225995, 24.744364645811856 ], [ 94.025791560032587, 24.76265553512485 ], [ 94.005920051969042, 24.765464650273543 ], [ 93.996689258502727, 24.776962858549155 ], [ 93.99433113627299, 24.793932795761975 ], [ 94.007261068843263, 24.788132747728298 ], [ 94.01231692158882, 24.799399451623628 ], [ 93.978832405391188, 24.802336224637202 ], [ 93.969533992799597, 24.776960335051513 ], [ 93.958465496785323, 24.774613316751243 ], [ 93.959879970284533, 24.784544816090431 ], [ 93.940224146627088, 24.782196440713278 ] ] ] } },
{ "type": "Feature", "properties": { "pincode": "795006", "state": "Manipur", "district": "Churachandpur", "officename": "New Lamka", "officetype": "S.O" }, "geometry": { "type": "Polygon", "coordinates": [ [ [ 93.745946667204976, 24.35577028856801 ], [ 93.73976867278617, 24.326879079505886 ], [ 93.717600575006713, 24.334692425415199 ], [ 93.713966460483789, 24.344504533457552 ], [ 93.723051746341127, 24.35758734537967 ], [ 93.745946667204976, 24.35577028856801 ] ] ] } },
{ "type": "Feature", "properties": { "pincode": "795009", "state": "Manipur", "district": "Bishnupur, Imphal West, Thoubal", "officename": "Wangoi", "officetype": "S.O" }, "geometry": { "type": "Polygon", "coordinates": [ [ [ 93.939191005460714, 24.727216206662831 ], [ 93.935044497705633, 24.648575828511866 ], [ 93.926603040098371, 24.653020011864214 ], [ 93.900065696774675, 24.626156378314249 ], [ 93.86658672130028, 24.634027686428681 ], [ 93.88598059313, 24.676649088884403 ], [ 93.859423360399774, 24.691508952176434 ], [ 93.868851029851271, 24.716393344277492 ], [ 93.843198490817826, 24.722056261887019 ], [ 93.875037089390162, 24.74839938582312 ], [ 93.906152155497637, 24.726653237357141 ], [ 93.917433726984939, 24.735685444327942 ], [ 93.939191005460714, 24.727216206662831 ] ] ] } },
{ "type": "Feature", "properties": { "pincode": "795015", "state": "Manipur", "district": "Senapati", "officename": "Maram", "officetype": "S.O" }, "geometry": { "type": "Polygon", "coordinates": [ [ [ 94.162740579314232, 25.379621753341382 ], [ 94.297281640435415, 25.371339001793615 ], [ 94.314744706503063, 25.381695594476071 ], [ 94.327034215656681, 25.415087551549277 ], [ 94.344823984739264, 25.42593126021967 ], [ 94.42064580665874, 25.437962608187888 ], [ 94.400480071897789, 25.406953087415161 ], [ 94.399951717497913, 25.35764895143808 ], [ 94.327374506528429, 25.251400162587515 ], [ 94.160952370955272, 25.264297212346492 ], [ 94.14982074073464, 25.362327526893978 ], [ 94.162740579314232, 25.379621753341382 ] ] ] } },
{ "type": "Feature", "properties": { "pincode": "795101", "state": "Manipur", "district": "Churachandpur", "officename": "Sugnu", "officetype": "S.O" }, "geometry": { "type": "Polygon", "coordinates": [ [ [ 93.858092387153988, 24.327119178707221 ], [ 93.863707318738022, 24.320744172505727 ], [ 93.8746529763539, 24.329978467032788 ], [ 93.882192530860834, 24.317474757354319 ], [ 93.882624773814427, 24.29908869908428 ], [ 93.874428680039728, 24.292997221244832 ], [ 93.860893112527208, 24.241067689022771 ], [ 93.875700422136788, 24.226921502525386 ], [ 93.843693106251976, 24.20592059166205 ], [ 93.833024284243379, 24.18583024167242 ], [ 93.817096308747693, 24.182531143497499 ], [ 93.812989979104429, 24.16662685434585 ], [ 93.792452849519577, 24.147773092853924 ], [ 93.769638802888494, 24.174915403823036 ], [ 93.772329774999264, 24.199231406404465 ], [ 93.758315596387718, 24.217089080596622 ], [ 93.793028286126741, 24.264799886805349 ], [ 93.858092387153988, 24.327119178707221 ] ] ] } },
{ "type": "Feature", "properties": { "pincode": "795102", "state": "Manipur", "district": "Chandel", "officename": "Chakpikarong", "officetype": "S.O" }, "geometry": { "type": "Polygon", "coordinates": [ [ [ 94.254103667350421, 24.113987271395558 ], [ 94.251762390322199, 24.068307876307586 ], [ 94.228889465076804, 24.050558090183813 ], [ 94.229301452599998, 24.021448135423157 ], [ 94.19694519076802, 23.969268798516282 ], [ 94.191558838070137, 23.940572738741082 ], [ 94.167709350706104, 23.934141158887542 ], [ 94.16835021928739, 23.880985259861973 ], [ 94.160690307611787, 23.855470657045316 ], [ 94.133522034114719, 23.836048126519927 ], [ 94.1132125858922, 23.855140685894128 ], [ 94.098899841354523, 23.886390686281175 ], [ 94.054771423362638, 23.889604568296249 ], [ 94.023727417186592, 23.922277450843808 ], [ 93.963592529072059, 23.928968429349652 ], [ 93.933174133579428, 23.94988441453421 ], [ 93.886863708493422, 23.945672989217087 ], [ 93.837532043369322, 23.926288604335696 ], [ 93.812316894109415, 23.928956985476418 ], [ 93.761032104747869, 23.999999999800252 ], [ 93.750065592753003, 23.999999999800252 ], [ 93.772025336500121, 24.090425365638225 ], [ 93.782252469076127, 24.098967265826673 ], [ 93.776696236242344, 24.114323512620103 ], [ 93.782304761955174, 24.141049145201919 ], [ 93.812989979104429, 24.16662685434585 ], [ 93.817096308747693, 24.182531143497499 ], [ 93.833024284243379, 24.18583024167242 ], [ 93.843693106251976, 24.20592059166205 ], [ 93.875700422136788, 24.226921502525386 ], [ 93.860893112527208, 24.241067689022771 ], [ 93.877808607481313, 24.298751509974238 ], [ 93.885009906282335, 24.291206889586419 ], [ 93.877481556428734, 24.268182398898716 ], [ 93.880633949996991, 24.247471285571407 ], [ 93.894512642144889, 24.242858622327731 ], [ 93.890730898512288, 24.253635101279031 ], [ 93.898949467244165, 24.260840828341713 ], [ 93.910688653358761, 24.254732979243784 ], [ 93.915694290659133, 24.241083473023878 ], [ 93.922068353471843, 24.242423496147637 ], [ 93.920994436144497, 24.254525117140588 ], [ 93.89804864962548, 24.280142677042932 ], [ 93.899443690574003, 24.303988129148991 ], [ 93.909233256209973, 24.304022923019545 ], [ 93.919004511649064, 24.290299577063877 ], [ 93.935876894902833, 24.25521310659957 ], [ 93.933891632492873, 24.228076739250298 ], [ 93.946532699224747, 24.221573974459488 ], [ 93.956133922542676, 24.198764470304184 ], [ 94.041052386958143, 24.200643140568673 ], [ 94.087157115508603, 24.188589011873489 ], [ 94.141820200941652, 24.166033557203093 ], [ 94.19840604230518, 24.129341339131543 ], [ 94.254103667350421, 24.113987271395558 ] ] ] } },
{ "type": "Feature", "properties": { "pincode": "795104", "state": "Manipur", "district": "Senapati", "officename": "Tadubi", "officetype": "S.O" }, "geometry": { "type": "Polygon", "coordinates": [ [ [ 94.211823000031529, 25.497438000063653 ], [ 94.228103999899815, 25.49058299960592 ], [ 94.273093999888374, 25.497472999879164 ], [ 94.28567500000139, 25.506159000237801 ], [ 94.301528999963466, 25.48903700025744 ], [ 94.312407999829418, 25.488835999981461 ], [ 94.387383000325428, 25.530809000235422 ], [ 94.419097999673056, 25.536816000258341 ], [ 94.428885999589397, 25.586902999673725 ], [ 94.446686000258921, 25.592182000299147 ], [ 94.472916000273244, 25.615740000300718 ], [ 94.504203999714832, 25.611011999904008 ], [ 94.482520340641429, 25.564693977345314 ], [ 94.479276200936113, 25.539475772189178 ], [ 94.467760705891976, 25.532895475046303 ], [ 94.446710846728365, 25.49775348043886 ], [ 94.426045543966723, 25.439194611941844 ], [ 94.344823984739264, 25.42593126021967 ], [ 94.327034215656681, 25.415087551549277 ], [ 94.316804223236431, 25.384364228326547 ], [ 94.299587876279475, 25.372032445641025 ], [ 94.279077162481144, 25.367775834787039 ], [ 94.253631338915227, 25.376529366137447 ], [ 94.177371355603611, 25.37406997305095 ], [ 94.162740579314232, 25.379621753341382 ], [ 94.199747421606332, 25.436256551998383 ], [ 94.19633820144702, 25.454903723028622 ], [ 94.211823000031529, 25.497438000063653 ] ] ] } },
{ "type": "Feature", "properties": { "pincode": "795106", "state": "Manipur", "district": "Senapati", "officename": "Senapati", "officetype": "S.O" }, "geometry": { "type": "Polygon", "coordinates": [ [ [ 94.095374999856404, 25.536636000051431 ], [ 94.095119466490189, 25.47927657085711 ], [ 94.105613531339486, 25.481289172657171 ], [ 94.113952652393095, 25.472076926808882 ], [ 94.124436116933282, 25.498298491182595 ], [ 94.178929008367163, 25.493556353443012 ], [ 94.187662751934624, 25.529268977781328 ], [ 94.211936999892828, 25.502797999927907 ], [ 94.19633820144702, 25.454903723028622 ], [ 94.199747421606332, 25.436256551998383 ], [ 94.151062854667089, 25.368078736344728 ], [ 94.162793820978152, 25.292000420583065 ], [ 94.158814737310422, 25.26643837493117 ], [ 94.170893688193303, 25.259979631954593 ], [ 94.327374506528429, 25.251400162587515 ], [ 94.286595770878193, 25.219324425381956 ], [ 94.23438683008817, 25.201518157337205 ], [ 94.22060607590987, 25.173710296792876 ], [ 94.090507102720721, 25.158893698985139 ], [ 94.042821243705589, 25.176097440144815 ], [ 94.001461229452332, 25.178492589261737 ], [ 94.023141255264932, 25.211456070641248 ], [ 94.027842838975914, 25.237911384103086 ], [ 94.019912859091278, 25.253530819291882 ], [ 93.979104414337371, 25.278975675187439 ], [ 94.001126785972474, 25.341495788399982 ], [ 93.999199088267346, 25.356403392202935 ], [ 93.975186955813399, 25.380735748056509 ], [ 93.937648978417769, 25.387863252087584 ], [ 93.967705487618218, 25.40377945096094 ], [ 94.011611999694082, 25.570421000429008 ], [ 94.009750000162626, 25.590544000305385 ], [ 94.053405999787174, 25.571794999939414 ], [ 94.068656999820689, 25.553969999915694 ], [ 94.085167000356819, 25.554680000281905 ], [ 94.095374999856404, 25.536636000051431 ] ] ] } },
{ "type": "Feature", "properties": { "pincode": "795124", "state": "Manipur", "district": "Churachandpur", "officename": "Loktak Project", "officetype": "S.O" }, "geometry": { "type": "Polygon", "coordinates": [ [ [ 93.642591652982503, 24.613660176176438 ], [ 93.695829692486484, 24.632801092096827 ], [ 93.711052344090604, 24.634163451682127 ], [ 93.70846515464342, 24.620952161712921 ], [ 93.736382265728992, 24.622294300941292 ], [ 93.729444760567389, 24.602050118318402 ], [ 93.73353370811418, 24.534214518984925 ], [ 93.694684349203499, 24.551164735863892 ], [ 93.661525621410476, 24.527817361581981 ], [ 93.640415105672673, 24.528009275107991 ], [ 93.636960657708187, 24.540867498436342 ], [ 93.655384380484918, 24.582320875807795 ], [ 93.642591652982503, 24.613660176176438 ] ] ] } },
{ "type": "Feature", "properties": { "pincode": "795107", "state": "Manipur", "district": "Senapati", "officename": "Motbung", "officetype": "S.O" }, "geometry": { "type": "Polygon", "coordinates": [ [ [ 93.804852817004019, 25.075403401146161 ], [ 93.852005762955741, 25.069902317438107 ], [ 93.893713902974412, 25.079821585098159 ], [ 93.919960901074887, 25.07774803174641 ], [ 93.945219056814096, 25.070693895307159 ], [ 93.946322591514502, 25.059372624147329 ], [ 93.90468576323758, 25.010124630147686 ], [ 93.907033043240517, 24.99975551170769 ], [ 93.889436461123921, 25.006510664935433 ], [ 93.864231824039621, 24.957110920232935 ], [ 93.852747781884716, 24.952838102696319 ], [ 93.825566081509578, 24.978406350972421 ], [ 93.791561796739586, 24.987737546550591 ], [ 93.804852817004019, 25.075403401146161 ] ] ] } },
{ "type": "Feature", "properties": { "pincode": "795114", "state": "Manipur", "district": "Imphal East, Kangpokpi", "officename": "Pngaei Yangdong", "officetype": "S.O" }, "geometry": { "type": "Polygon", "coordinates": [ [ [ 93.933565450185426, 24.897526192380042 ], [ 93.957901442897253, 24.936903918281189 ], [ 93.955889440045667, 24.98292503955912 ], [ 93.976077320611978, 25.0028860310656 ], [ 94.013577783687822, 25.017560884926922 ], [ 94.048419237457892, 24.998694950211814 ], [ 94.056536407629267, 25.005753071547019 ], [ 94.065172898510468, 25.000410389028275 ], [ 94.139188346664923, 25.010587789095325 ], [ 94.16816122406135, 25.006200234253527 ], [ 94.17200447592603, 24.961324157683919 ], [ 94.138067703261981, 24.936137878460499 ], [ 94.122222331395619, 24.900319059477113 ], [ 94.116664376360063, 24.906474645488686 ], [ 94.111435821406076, 24.894653826113426 ], [ 94.090685647824387, 24.898391457999537 ], [ 94.081881870452037, 24.91591930942883 ], [ 94.072614063588219, 24.910883841616169 ], [ 94.063119897365425, 24.925840146405676 ], [ 94.041479143147967, 24.923028854897836 ], [ 94.029421972046464, 24.933081202435631 ], [ 94.023214398026141, 24.924577355260794 ], [ 94.037552372144319, 24.90730462620769 ], [ 94.036940153265562, 24.884639335537088 ], [ 94.026263877675888, 24.877513453882898 ], [ 94.020424102990034, 24.887069190390946 ], [ 94.010854125717515, 24.883836756261474 ], [ 94.024801459519892, 24.858894468505071 ], [ 94.007989976556303, 24.843192658114674 ], [ 93.977122036053288, 24.855597075444791 ], [ 93.975519713963706, 24.83544837024607 ], [ 93.968594931511007, 24.840188661677644 ], [ 93.970333486501431, 24.846555100937337 ], [ 93.960256812302191, 24.850163602768191 ], [ 93.966600531089796, 24.868311912664694 ], [ 93.933565450185426, 24.897526192380042 ] ] ] } },
{ "type": "Feature", "properties": { "pincode": "795116", "state": "Manipur", "district": "Jiribam, Pherzawl", "officename": "Jiribam Bazar", "officetype": "S.O" }, "geometry": { "type": "Polygon", "coordinates": [ [ [ 93.14368400021641, 24.796401999552756 ], [ 93.141637791651021, 24.776382662729816 ], [ 93.152064392058037, 24.773910376063043 ], [ 93.160904000219602, 24.793908999700648 ], [ 93.173781999639687, 24.800204999561174 ], [ 93.178108000383986, 24.792669000074284 ], [ 93.180945999957999, 24.801468000248121 ], [ 93.192421000329034, 24.802732000081789 ], [ 93.19813500033024, 24.81153500043996 ], [ 93.19234500042154, 24.832892999712271 ], [ 93.200934999950277, 24.83666400004364 ], [ 93.193755999839652, 24.840429000098311 ], [ 93.200934999950277, 24.840433000282815 ], [ 93.196601999782558, 24.852995000419128 ], [ 93.20808399957707, 24.853010000211441 ], [ 93.222857211391442, 24.869482667191448 ], [ 93.243863207021491, 24.850212521390745 ], [ 93.242533374116022, 24.824938858641474 ], [ 93.226532068800054, 24.792570902025489 ], [ 93.21632634638371, 24.782116258958183 ], [ 93.177992654237642, 24.773901896355596 ], [ 93.144888240999592, 24.693016306757329 ], [ 93.209492050118115, 24.69463724301454 ], [ 93.228101948746087, 24.685366509756705 ], [ 93.22484074530422, 24.665161558259342 ], [ 93.232718548322509, 24.662095211824635 ], [ 93.233496659743139, 24.647278162557257 ], [ 93.222673737103435, 24.640797807972604 ], [ 93.235224278977284, 24.623575819568487 ], [ 93.224250401534789, 24.601580192871779 ], [ 93.232696913332006, 24.580978714096432 ], [ 93.215145500564574, 24.567224198538099 ], [ 93.213132491371425, 24.544609078346411 ], [ 93.186408869673699, 24.516916632296898 ], [ 93.201870195952893, 24.521870014489707 ], [ 93.218808718048024, 24.503721037296032 ], [ 93.228385256774345, 24.504525224559529 ], [ 93.23712423979191, 24.398292119885582 ], [ 93.162158200140937, 24.340315503957527 ], [ 93.012924000142675, 24.268500999921287 ], [ 93.01010899983072, 24.28491399958142 ], [ 93.034256000014409, 24.315183999741919 ], [ 93.042412000213744, 24.340161999576765 ], [ 93.020637999743883, 24.343638999839982 ], [ 93.016182000199251, 24.376776000012569 ], [ 93.023444999687115, 24.387274000295008 ], [ 92.99964100003217, 24.400128999553829 ], [ 93.005599999640424, 24.408771999728231 ], [ 93.015120999834323, 24.399352999741325 ], [ 93.038268999814477, 24.407906000261789 ], [ 93.031296000210432, 24.425652000239722 ], [ 93.037071000326591, 24.457931999562334 ], [ 93.047409000425205, 24.460716000243337 ], [ 93.047683999616993, 24.472242000268182 ], [ 93.034958000011784, 24.493734000323911 ], [ 93.043532999748152, 24.502567000266936 ], [ 93.040642000428079, 24.511366000440717 ], [ 93.05204800031504, 24.516400999706434 ], [ 93.051910000246437, 24.541476999563997 ], [ 93.060448000075326, 24.551514000170982 ], [ 93.064773999920249, 24.543996999761816 ], [ 93.071915000077126, 24.557798000377545 ], [ 93.060378999591251, 24.571579000070983 ], [ 93.086356999675843, 24.567868999854568 ], [ 93.10618600038373, 24.580209999691931 ], [ 93.074692000435505, 24.592944999712131 ], [ 93.086028999838618, 24.608024999953898 ], [ 93.078690000443203, 24.618028999938588 ], [ 93.08866099980537, 24.624311000052671 ], [ 93.084151999615074, 24.644363000252326 ], [ 93.095573000193781, 24.649397000371437 ], [ 93.104026999746281, 24.671997000261456 ], [ 93.09113299958841, 24.674497999583082 ], [ 93.092521999790506, 24.68453800032853 ], [ 93.075240999672531, 24.707117000149424 ], [ 93.088142000153425, 24.705882999900609 ], [ 93.106628000082253, 24.738564999775008 ], [ 93.098021999815558, 24.74106199981162 ], [ 93.110664000043698, 24.808927999827461 ], [ 93.122100999561667, 24.816479000005984 ], [ 93.120719999728237, 24.805174000279976 ], [ 93.136481999944522, 24.807700999901215 ], [ 93.14368400021641, 24.796401999552756 ] ] ] } },
{ "type": "Feature", "properties": { "pincode": "795117", "state": "Manipur", "district": "Churachandpur", "officename": "Saikot", "officetype": "S.O" }, "geometry": { "type": "Polygon", "coordinates": [ [ [ 93.73976867278617, 24.326879079505886 ], [ 93.75331260489304, 24.363075972578145 ], [ 93.807981444188385, 24.323556329161363 ], [ 93.822910931194656, 24.293272973169223 ], [ 93.793028286126741, 24.264799886805349 ], [ 93.75357830689353, 24.300531750340042 ], [ 93.73976867278617, 24.326879079505886 ] ] ] } },
{ "type": "Feature", "properties": { "pincode": "795125", "state": "Manipur", "district": "Tamenglong", "officename": "Tamei", "officetype": "S.O" }, "geometry": { "type": "Polygon", "coordinates": [ [ [ 93.732126141408287, 24.926090321611184 ], [ 93.701906407055162, 24.952467252861595 ], [ 93.721862556611825, 24.971648010547369 ], [ 93.738767746234601, 25.007397238192027 ], [ 93.72466026386013, 25.035525916587972 ], [ 93.666087819197685, 25.046806902616481 ], [ 93.640523723990725, 25.021452592263358 ], [ 93.485805775616143, 25.083214529327222 ], [ 93.482701904969076, 25.096692148124248 ], [ 93.489964544728025, 25.10401605239889 ], [ 93.487275864989272, 25.121728249559055 ], [ 93.516285824131728, 25.135567884150646 ], [ 93.521817462306046, 25.152499608270489 ], [ 93.560431115203983, 25.165118948280963 ], [ 93.580009754546609, 25.162479564880073 ], [ 93.606661818987902, 25.185824347315929 ], [ 93.672318000375526, 25.307201000126213 ], [ 93.671478000309605, 25.324408000428889 ], [ 93.686500999721375, 25.32688500044253 ], [ 93.69219199956126, 25.357267000371905 ], [ 93.71743800006368, 25.3572240001875 ], [ 93.722503999859896, 25.371192999557366 ], [ 93.739182000049311, 25.380005000330527 ], [ 93.746077999700105, 25.401299000248741 ], [ 93.780463999913707, 25.420241999668633 ], [ 93.810642360956365, 25.469759906294769 ], [ 93.889360758892053, 25.413235184656173 ], [ 93.936090519861636, 25.390969037391187 ], [ 93.898403957376843, 25.329025030780713 ], [ 93.943121052694494, 25.299657432844299 ], [ 93.936503699886032, 25.285138095146976 ], [ 93.908899885621281, 25.286794046508078 ], [ 93.888442216535225, 25.262437339711539 ], [ 93.86583520193318, 25.258738396659794 ], [ 93.85067080751179, 25.241468004045316 ], [ 93.83015066432182, 25.234197289273538 ], [ 93.829874185745211, 25.225284420539822 ], [ 93.807809634107343, 25.211341488019286 ], [ 93.781989904810359, 25.177852182032609 ], [ 93.78113571883847, 25.166970268363229 ], [ 93.80727524075985, 25.118123649886627 ], [ 93.7911381926736, 24.983579567043421 ], [ 93.777710978179186, 24.950700085940184 ], [ 93.732126141408287, 24.926090321611184 ] ] ] } },
{ "type": "Feature", "properties": { "pincode": "795126", "state": "Manipur", "district": "Bishnupur", "officename": "Bishnupur (Bishnupur)", "officetype": "S.O" }, "geometry": { "type": "Polygon", "coordinates": [ [ [ 93.729773020308699, 24.594718305405536 ], [ 93.735237624816648, 24.618079102968409 ], [ 93.754172021321892, 24.631356994929433 ], [ 93.747265567052466, 24.639703593845809 ], [ 93.76477429709621, 24.638491630584326 ], [ 93.765745689911796, 24.661188429902211 ], [ 93.780290959560261, 24.658247712462128 ], [ 93.779177879455574, 24.650579046785822 ], [ 93.789197515952765, 24.645835320843446 ], [ 93.80911203139533, 24.656004400382926 ], [ 93.817337589658109, 24.641711202609827 ], [ 93.814920865805448, 24.615932813348763 ], [ 93.838148268727707, 24.613650351982187 ], [ 93.841969498893434, 24.594727407443941 ], [ 93.861363148590613, 24.577902453535444 ], [ 93.880371492750271, 24.595369581840828 ], [ 93.869821287722289, 24.570111812810012 ], [ 93.868834306957808, 24.51942914563864 ], [ 93.853489734263917, 24.508351100622917 ], [ 93.853279759653219, 24.528817628930597 ], [ 93.811488712034475, 24.547544572523975 ], [ 93.765717294717547, 24.521338046613721 ], [ 93.766944376481888, 24.539743898062568 ], [ 93.73353370811418, 24.534214518984925 ], [ 93.732617068722902, 24.57086219813209 ], [ 93.777936448108676, 24.56478938841974 ], [ 93.784571317012762, 24.580221813186313 ], [ 93.773287141088758, 24.589217264864942 ], [ 93.729773020308699, 24.594718305405536 ] ] ] } },
{ "type": "Feature", "properties": { "pincode": "795127", "state": "Manipur", "district": "Chandel", "officename": "Chandel", "officetype": "S.O" }, "geometry": { "type": "Polygon", "coordinates": [ [ [ 93.930778239824065, 24.26650838555372 ], [ 93.943453675946444, 24.265619207860254 ], [ 93.939233581164899, 24.268700184466013 ], [ 93.96047882074123, 24.293040502017732 ], [ 93.975713566428055, 24.294667538376189 ], [ 93.967229260621878, 24.317952968254872 ], [ 93.972095076726589, 24.340351313162728 ], [ 93.983540673763116, 24.351744593038575 ], [ 94.008142127457234, 24.348712270654801 ], [ 94.02581893899287, 24.336054997240524 ], [ 94.044473917937012, 24.339004327487942 ], [ 94.100031826107966, 24.390886596739222 ], [ 94.108074516226111, 24.413394112148694 ], [ 94.152754754628347, 24.364480952833617 ], [ 94.157057004277533, 24.29853067604995 ], [ 94.199720383488966, 24.262786409964974 ], [ 94.202486607271283, 24.239517874750277 ], [ 94.191463377732873, 24.195274664594194 ], [ 94.207058842391746, 24.132727335198524 ], [ 94.19840604230518, 24.129341339131543 ], [ 94.141820200941652, 24.166033557203093 ], [ 94.058839619053174, 24.198766366974382 ], [ 93.959315043154902, 24.197119963715522 ], [ 93.945164626246481, 24.223242546906135 ], [ 93.933891632492873, 24.228076739250298 ], [ 93.930778239824065, 24.26650838555372 ] ] ] } },
{ "type": "Feature", "properties": { "pincode": "795128", "state": "Manipur", "district": "Churachandpur", "officename": "Chingkonpang", "officetype": "S.O" }, "geometry": { "type": "Polygon", "coordinates": [ [ [ 93.611877826600391, 24.263584727353532 ], [ 93.483838214562013, 24.267150230798734 ], [ 93.497251523738953, 24.282178135112929 ], [ 93.505007807664299, 24.351158088475074 ], [ 93.498518137002463, 24.379856881290152 ], [ 93.478069470129981, 24.386575837704868 ], [ 93.390030965256869, 24.385064148391905 ], [ 93.367716955173478, 24.394614040205965 ], [ 93.355927032906379, 24.411483099565487 ], [ 93.367926186044826, 24.430019102699475 ], [ 93.366614074280164, 24.445116277294403 ], [ 93.390493112467311, 24.469604627751323 ], [ 93.412867511126819, 24.516997862661412 ], [ 93.392935325804842, 24.525072205318111 ], [ 93.39027247009858, 24.541487979386886 ], [ 93.405133177853997, 24.606220867299271 ], [ 93.441768070440162, 24.636630058230821 ], [ 93.477722418155111, 24.60813492768483 ], [ 93.545482899815966, 24.589906550247122 ], [ 93.587866426194807, 24.59177709603631 ], [ 93.642591652982503, 24.613660176176438 ], [ 93.655384380484918, 24.582320875807795 ], [ 93.636960657708187, 24.540867498436342 ], [ 93.640415105672673, 24.528009275107991 ], [ 93.661525621410476, 24.527817361581981 ], [ 93.694684349203499, 24.551164735863892 ], [ 93.677871772664162, 24.471933927608688 ], [ 93.689340183702598, 24.465415380615468 ], [ 93.719226913491354, 24.404077601600079 ], [ 93.75331260489304, 24.363075972578145 ], [ 93.752306366945334, 24.355588582347252 ], [ 93.723051746341127, 24.35758734537967 ], [ 93.713966460483789, 24.344504533457552 ], [ 93.721779806393101, 24.330149782486558 ], [ 93.749762487049281, 24.317612088327394 ], [ 93.75357830689353, 24.300531750340042 ], [ 93.793028286126741, 24.264799886805349 ], [ 93.758315596387718, 24.217089080596622 ], [ 93.715058961402121, 24.232273160278226 ], [ 93.658268109685594, 24.269695016312085 ], [ 93.611877826600391, 24.263584727353532 ] ] ] } },
{ "type": "Feature", "properties": { "pincode": "795129", "state": "Manipur", "district": "Senapati", "officename": "Kangpokpi", "officetype": "S.O" }, "geometry": { "type": "Polygon", "coordinates": [ [ [ 93.983086219353595, 25.108350763976659 ], [ 93.955368614769782, 25.12679006750767 ], [ 93.940716863592456, 25.1527911109211 ], [ 93.915041414329949, 25.16265197211095 ], [ 93.893860496964521, 25.194027610485989 ], [ 93.900948536945577, 25.278701545639933 ], [ 93.911664550878527, 25.287347476704667 ], [ 93.933218239929829, 25.283282298239556 ], [ 93.943121052694494, 25.299657432844299 ], [ 93.904488037393207, 25.320960664303186 ], [ 93.899210222074203, 25.335539063177407 ], [ 93.937648978417769, 25.387863252087584 ], [ 93.975186955813399, 25.380735748056509 ], [ 93.998027925448525, 25.359876359906025 ], [ 94.001126785972474, 25.341495788399982 ], [ 93.979104414337371, 25.278975675187439 ], [ 94.019912859091278, 25.253530819291882 ], [ 94.027842838975914, 25.237911384103086 ], [ 94.023141255264932, 25.211456070641248 ], [ 93.990975173965296, 25.158524839349866 ], [ 93.983086219353595, 25.108350763976659 ] ] ] } },
{ "type": "Feature", "properties": { "pincode": "795131", "state": "Manipur", "district": "Tengnoupal", "officename": "Moreh", "officetype": "S.O" }, "geometry": { "type": "Polygon", "coordinates": [ [ [ 94.108074516226111, 24.413394112148694 ], [ 94.1431762886549, 24.429348261513155 ], [ 94.216155179118289, 24.417131878033786 ], [ 94.241244658014693, 24.429831616535978 ], [ 94.278460926330865, 24.407790753040786 ], [ 94.361938476279818, 24.395662307969246 ], [ 94.36022186294872, 24.387859344732988 ], [ 94.373794555374502, 24.374605178686124 ], [ 94.322235107664085, 24.318935393953382 ], [ 94.31177520716011, 24.256303787290051 ], [ 94.288467407544999, 24.216779708416823 ], [ 94.276710510181942, 24.170192718419401 ], [ 94.255813598718646, 24.152454376168691 ], [ 94.254103667350421, 24.113987271395558 ], [ 94.202288109808535, 24.127656594176642 ], [ 94.2066903586732, 24.150432871979604 ], [ 94.191463377732873, 24.195274664594194 ], [ 94.202486607271283, 24.239517874750277 ], [ 94.199720383488966, 24.262786409964974 ], [ 94.157057004277533, 24.29853067604995 ], [ 94.152754754628347, 24.364480952833617 ], [ 94.108074516226111, 24.413394112148694 ] ] ] } },
{ "type": "Feature", "properties": { "pincode": "795130", "state": "Manipur", "district": "Imphal East, Imphal West, Thoubal", "officename": "Lilong", "officetype": "S.O" }, "geometry": { "type": "Polygon", "coordinates": [ [ [ 93.935044497705633, 24.648575828511866 ], [ 93.938186242401287, 24.731600739782493 ], [ 93.944236583451698, 24.720295811102915 ], [ 93.964207132952879, 24.730110140470572 ], [ 93.998526393578231, 24.718988225626219 ], [ 94.001628887363324, 24.704812587231174 ], [ 94.018853342607827, 24.706554366291016 ], [ 94.021391742035348, 24.68301399120287 ], [ 93.997567538211399, 24.654766276742521 ], [ 93.960630515685807, 24.671088587868155 ], [ 93.941039887480997, 24.640003251548933 ], [ 93.935044497705633, 24.648575828511866 ] ] ] } },
{ "type": "Feature", "properties": { "pincode": "795136", "state": "Manipur", "district": "Imphal East, Imphal West, Kangpokpi", "officename": "Sekmai", "officetype": "S.O" }, "geometry": { "type": "Polygon", "coordinates": [ [ [ 93.889763643477465, 24.952832490926767 ], [ 93.877417962668972, 24.957084365950777 ], [ 93.846107329089989, 24.943540829545668 ], [ 93.849727987956385, 24.953018751314346 ], [ 93.864231824039621, 24.957110920232935 ], [ 93.887688015389585, 25.004903048537017 ], [ 93.907033043240517, 24.99975551170769 ], [ 93.90468576323758, 25.010124630147686 ], [ 93.9255383003524, 25.040427829680823 ], [ 93.942760431748582, 25.049127113925238 ], [ 93.948807706110927, 25.074494886230241 ], [ 93.978062365385881, 25.072117009492388 ], [ 93.98180272041941, 25.079528110234207 ], [ 93.995477196315733, 25.074323532105382 ], [ 94.015743248652143, 25.082739709769839 ], [ 93.99410744610185, 25.049708638043342 ], [ 93.926658443732435, 25.016121082921813 ], [ 93.929352530195331, 25.004582495985574 ], [ 93.953390726800649, 24.988090413541897 ], [ 93.960208798397332, 24.96828394894527 ], [ 93.957901442897253, 24.936903918281189 ], [ 93.933565450185426, 24.897526192380042 ], [ 93.908597371671533, 24.928236738934345 ], [ 93.887147699107231, 24.938849360509664 ], [ 93.889763643477465, 24.952832490926767 ] ] ] } },
{ "type": "Feature", "properties": { "pincode": "795140", "state": "Manipur", "district": "Imphal West", "officename": "Tulihal", "officetype": "S.O" }, "geometry": { "type": "Polygon", "coordinates": [ [ [ 93.875037089390162, 24.74839938582312 ], [ 93.853449797170413, 24.739452212449692 ], [ 93.847519780014011, 24.755123458480853 ], [ 93.902227286560048, 24.758992671075134 ], [ 93.892232414694433, 24.740092993796793 ], [ 93.875037089390162, 24.74839938582312 ] ] ] } },
{ "type": "Feature", "properties": { "pincode": "795139", "state": "Manipur", "district": "Churachandpur", "officename": "Singhat", "officetype": "S.O" }, "geometry": { "type": "Polygon", "coordinates": [ [ [ 93.383206224287903, 24.089156398848786 ], [ 93.381463875957195, 24.110469861894671 ], [ 93.406310188064879, 24.1694401414494 ], [ 93.412784658385476, 24.205146141381476 ], [ 93.483838214562013, 24.267150230798734 ], [ 93.589083021863985, 24.26124168045925 ], [ 93.658268109685594, 24.269695016312085 ], [ 93.715058961402121, 24.232273160278226 ], [ 93.761084099052027, 24.214965318094926 ], [ 93.772329774999264, 24.199231406404465 ], [ 93.769126254073399, 24.175971874302661 ], [ 93.792452849519577, 24.147773092853924 ], [ 93.779983318575432, 24.135948948685098 ], [ 93.782252469076127, 24.098967265826673 ], [ 93.772025336500121, 24.090425365638225 ], [ 93.750065592753003, 23.999999999800252 ], [ 93.616561889719435, 23.999999999800252 ], [ 93.601097107345822, 23.966098785430631 ], [ 93.585182190006321, 23.96359252957177 ], [ 93.57389068640606, 23.983602524237085 ], [ 93.565155029081438, 23.983940124337323 ], [ 93.546859741184164, 23.958942413161992 ], [ 93.520072936716815, 23.950473785237023 ], [ 93.469390869393237, 23.969543456865154 ], [ 93.466606140261149, 23.999999999800252 ], [ 93.428894043325613, 24.030624389504055 ], [ 93.412933349594482, 24.069198608029524 ], [ 93.383206224287903, 24.089156398848786 ] ] ] } },
{ "type": "Feature", "properties": { "pincode": "795144", "state": "Manipur", "district": "Ukhrul", "officename": "Somdal", "officetype": "S.O" }, "geometry": { "type": "Polygon", "coordinates": [ [ [ 94.153920122215823, 25.046038291633977 ], [ 94.142117785707399, 25.0529769569211 ], [ 94.136750228840128, 25.092480945839043 ], [ 94.148895231329902, 25.111796994835572 ], [ 94.161776221895252, 25.114346562044318 ], [ 94.162301016778542, 25.123750699835114 ], [ 94.178730765412467, 25.129449592125127 ], [ 94.195355764956787, 25.15746455304668 ], [ 94.225539206269332, 25.176388999452911 ], [ 94.23438683008817, 25.201518157337205 ], [ 94.286595770878193, 25.219324425381956 ], [ 94.318516156495548, 25.242259021636642 ], [ 94.343516405557807, 25.233180014846027 ], [ 94.362570991957909, 25.205420011724186 ], [ 94.271653603431162, 25.111942327076747 ], [ 94.153920122215823, 25.046038291633977 ] ] ] } },
{ "type": "Feature", "properties": { "pincode": "795145", "state": "Manipur", "district": "Kamjong-Chassad", "officename": "Litan", "officetype": "S.O" }, "geometry": { "type": "Polygon", "coordinates": [ [ [ 94.173472343074366, 24.790618812908122 ], [ 94.170053872488324, 24.85976989736298 ], [ 94.176720231153922, 24.874666633758181 ], [ 94.164600951972488, 24.905368815718361 ], [ 94.176214008170064, 24.931098780984144 ], [ 94.255468050410286, 24.945626592093618 ], [ 94.330567302139286, 24.990846514555074 ], [ 94.406970741706516, 24.994201794277387 ], [ 94.507538281166831, 25.015634907624985 ], [ 94.590266004272735, 25.083593594468994 ], [ 94.614970537360591, 25.093184206685919 ], [ 94.73989551476626, 25.109003335435773 ], [ 94.739654541424045, 25.02211761483602 ], [ 94.69490814169751, 24.968860626616788 ], [ 94.702011108625925, 24.922754287380485 ], [ 94.672920226687211, 24.868358611760641 ], [ 94.644813537614652, 24.837129592556778 ], [ 94.623687744194115, 24.782524108700784 ], [ 94.624122619463435, 24.75222969014817 ], [ 94.602867126716717, 24.708387375277198 ], [ 94.551902771196069, 24.705543518418779 ], [ 94.537033081011998, 24.637393951369802 ], [ 94.513549804779814, 24.601106644056529 ], [ 94.488098598771501, 24.579476937110996 ], [ 94.470139026894685, 24.608484219870945 ], [ 94.471786692801686, 24.642431210631969 ], [ 94.45149373904502, 24.679166794911737 ], [ 94.436252804223614, 24.68193454394418 ], [ 94.419268565991615, 24.663738160787489 ], [ 94.396041512905583, 24.662187812317768 ], [ 94.396177105489187, 24.682994692651107 ], [ 94.354119556372552, 24.705442140542516 ], [ 94.355159458642277, 24.723385197269181 ], [ 94.308924050504629, 24.754301753323432 ], [ 94.288978637953903, 24.792793664995713 ], [ 94.268573847205289, 24.803714773817774 ], [ 94.221771815816794, 24.806406995986208 ], [ 94.173472343074366, 24.790618812908122 ] ] ] } },
{ "type": "Feature", "properties": { "pincode": "795146", "state": "Manipur", "district": "Imphal West, Senapati", "officename": "Lamsang", "officetype": "S.O" }, "geometry": { "type": "Polygon", "coordinates": [ [ [ 93.696957516076736, 24.80885722857829 ], [ 93.735379598089935, 24.82736634018454 ], [ 93.743154345097025, 24.838245718665121 ], [ 93.747348347848174, 24.873155257409337 ], [ 93.725170307164035, 24.914173684867706 ], [ 93.732126141408287, 24.926090321611184 ], [ 93.759097328479072, 24.939068906604916 ], [ 93.85035189802187, 24.895796740327341 ], [ 93.851804115168022, 24.88656776798814 ], [ 93.870714663451054, 24.873582683594066 ], [ 93.875133681074715, 24.847727296177936 ], [ 93.892650100322044, 24.841652589795217 ], [ 93.87816215795732, 24.826085535619029 ], [ 93.889291648690744, 24.804078433572897 ], [ 93.860691545678321, 24.812457532189455 ], [ 93.850549121145207, 24.80752449086259 ], [ 93.854679835006493, 24.800820598991606 ], [ 93.840701987207069, 24.80519400300102 ], [ 93.840460375346083, 24.827297222788843 ], [ 93.824045114790408, 24.817399308631366 ], [ 93.799380342528821, 24.8268450967239 ], [ 93.789842891036642, 24.823456002492492 ], [ 93.791912409130418, 24.817638841259622 ], [ 93.773157345535083, 24.818283662361182 ], [ 93.732753738694271, 24.802851729523809 ], [ 93.696957516076736, 24.80885722857829 ] ] ] } },
{ "type": "Feature", "properties": { "pincode": "795147", "state": "Manipur", "district": "Noney", "officename": "Nungba", "officetype": "S.O" }, "geometry": { "type": "Polygon", "coordinates": [ [ [ 93.412661345145125, 24.831746838945605 ], [ 93.495061816649695, 24.829417752227641 ], [ 93.545039160828708, 24.810266527378474 ], [ 93.574897807487901, 24.84222200094473 ], [ 93.640879672958647, 24.803479544445622 ], [ 93.680639215027838, 24.794483058546291 ], [ 93.679069943023535, 24.759077556284183 ], [ 93.711052344090604, 24.634163451682127 ], [ 93.661334944452165, 24.624000349036976 ], [ 93.587866426194807, 24.59177709603631 ], [ 93.545482899815966, 24.589906550247122 ], [ 93.477722418155111, 24.60813492768483 ], [ 93.441768070440162, 24.636630058230821 ], [ 93.405133177853997, 24.606220867299271 ], [ 93.394736023948496, 24.568996429541642 ], [ 93.363214193580347, 24.577238244849184 ], [ 93.331167841722674, 24.564074356346566 ], [ 93.308900269032222, 24.565813043537219 ], [ 93.283579124776907, 24.549153120620076 ], [ 93.277404402990783, 24.518968744012511 ], [ 93.266668749663211, 24.511369405273967 ], [ 93.220667597831493, 24.503173235956126 ], [ 93.205433273926531, 24.520722992172409 ], [ 93.186994361600625, 24.516269205859317 ], [ 93.213132491371425, 24.544609078346411 ], [ 93.215145500564574, 24.567224198538099 ], [ 93.232696913332006, 24.580978714096432 ], [ 93.224250401534789, 24.601580192871779 ], [ 93.235224278977284, 24.623575819568487 ], [ 93.222673737103435, 24.640797807972604 ], [ 93.233496659743139, 24.647278162557257 ], [ 93.232718548322509, 24.662095211824635 ], [ 93.22484074530422, 24.665161558259342 ], [ 93.226969187877899, 24.686760948159304 ], [ 93.25188001015448, 24.662999603349135 ], [ 93.291185489918576, 24.676524992334635 ], [ 93.298704104610863, 24.684648192460202 ], [ 93.294010309927955, 24.700159865485375 ], [ 93.31413162627365, 24.700580692445101 ], [ 93.319722749205596, 24.714801376082733 ], [ 93.339996328867585, 24.724348309127151 ], [ 93.322485270478865, 24.739443943183574 ], [ 93.363477807355082, 24.773099389025674 ], [ 93.360781422224989, 24.80640246430238 ], [ 93.371844165276229, 24.814034793770873 ], [ 93.409502971984637, 24.815929216560221 ], [ 93.412661345145125, 24.831746838945605 ] ] ] } },
{ "type": "Feature", "properties": { "pincode": "795150", "state": "Manipur", "district": "Senapati", "officename": "Mao", "officetype": "S.O" }, "geometry": { "type": "Polygon", "coordinates": [ [ [ 94.091292999572318, 25.527642999924581 ], [ 94.137847999785379, 25.518507000397733 ], [ 94.159263999933785, 25.550027999792405 ], [ 94.167015000342019, 25.541771000331494 ], [ 94.193962000146371, 25.547124999918992 ], [ 94.180254090154222, 25.514998037329576 ], [ 94.180727861102014, 25.495209817279431 ], [ 94.124436116933282, 25.498298491182595 ], [ 94.113952652393095, 25.472076926808882 ], [ 94.105613531339486, 25.481289172657171 ], [ 94.095119466490189, 25.47927657085711 ], [ 94.091292999572318, 25.527642999924581 ] ] ] } },
{ "type": "Feature", "properties": { "pincode": "795159", "state": "Manipur", "district": "Tamenglong", "officename": "None", "officetype": "S.O" }, "geometry": { "type": "Polygon", "coordinates": [ [ [ 93.676732812769274, 24.79500643609822 ], [ 93.640879672958647, 24.803479544445622 ], [ 93.574897807487901, 24.84222200094473 ], [ 93.548652876928941, 24.810523093166296 ], [ 93.522296702031326, 24.822710906083557 ], [ 93.5414461965849, 24.882813463570528 ], [ 93.570019733623951, 24.934007718181704 ], [ 93.632230663514349, 25.023905138811074 ], [ 93.644081191993564, 25.022654325736653 ], [ 93.66245730735892, 25.045047249531024 ], [ 93.674101117672592, 25.047482012884586 ], [ 93.72466026386013, 25.035525916587972 ], [ 93.736446997131281, 25.020621497284424 ], [ 93.738767746234601, 25.007397238192027 ], [ 93.721862556611825, 24.971648010547369 ], [ 93.701906407055162, 24.952467252861595 ], [ 93.713657640487895, 24.93556774605463 ], [ 93.732126141408287, 24.926090321611184 ], [ 93.726595472703082, 24.9040103699827 ], [ 93.747547791397494, 24.866597553934128 ], [ 93.739524129135418, 24.83154828752356 ], [ 93.676732812769274, 24.79500643609822 ] ] ] } },
{ "type": "Feature", "properties": { "pincode": "795010", "state": "Manipur", "district": "Imphal East, Kangpokpi", "officename": "Lamlong", "officetype": "S.O" }, "geometry": { "type": "Polygon", "coordinates": [ [ [ 94.101906654468564, 24.814789361839701 ], [ 94.104673889088872, 24.805078933845778 ], [ 94.118540254229458, 24.808842181121861 ], [ 94.119278326034021, 24.7985386979027 ], [ 94.101034972186312, 24.794120104759088 ], [ 94.093871818130083, 24.769911192547681 ], [ 94.083379426919123, 24.775152710329394 ], [ 94.076413035533221, 24.767397068519927 ], [ 94.081285396903581, 24.777046651082117 ], [ 94.075799634945326, 24.783818840167498 ], [ 94.083844858453517, 24.779329279722504 ], [ 94.080519052212594, 24.802824248040793 ], [ 94.087731374003795, 24.806896041918833 ], [ 94.081521093024151, 24.811082895959032 ], [ 94.088913622765574, 24.817784498156129 ], [ 94.074717633611954, 24.827322312974388 ], [ 94.086099583828798, 24.832063173676659 ], [ 94.077882845217346, 24.841370639743275 ], [ 94.086909463800794, 24.850310783116299 ], [ 94.067889397877479, 24.849265015468177 ], [ 94.067490628589667, 24.829930757898296 ], [ 94.046575986992366, 24.823909745538458 ], [ 94.041328727039286, 24.785626638458837 ], [ 94.038471214874789, 24.79586166438429 ], [ 94.029046707439704, 24.793450732165638 ], [ 94.033477768784223, 24.814702773314366 ], [ 94.026091258204985, 24.814444741631632 ], [ 94.026164676158885, 24.829713790159417 ], [ 94.039176092702689, 24.832730177455801 ], [ 94.033003583248899, 24.852834546976737 ], [ 94.032882429280619, 24.845089850816123 ], [ 94.017631632493931, 24.83949889695657 ], [ 94.013859102415779, 24.821099195071781 ], [ 93.99373035856928, 24.819639581901185 ], [ 93.98455455594808, 24.830970018051971 ], [ 93.984547273238206, 24.814098320081484 ], [ 93.954443692622533, 24.816704648001235 ], [ 93.975519713963706, 24.83544837024607 ], [ 93.975592398070944, 24.85491926271402 ], [ 94.007989976556303, 24.843192658114674 ], [ 94.024513375192328, 24.858172693315225 ], [ 94.00999630108862, 24.882036505080634 ], [ 94.020424102990034, 24.887069190390946 ], [ 94.02946710002675, 24.877806408938682 ], [ 94.036940153265562, 24.884639335537088 ], [ 94.037552372144319, 24.90730462620769 ], [ 94.023214398026141, 24.924577355260794 ], [ 94.030395489060822, 24.933818261603676 ], [ 94.041479143147967, 24.923028854897836 ], [ 94.063119897365425, 24.925840146405676 ], [ 94.072614063588219, 24.910883841616169 ], [ 94.083278956458742, 24.914449526724411 ], [ 94.085819377562416, 24.900860014278408 ], [ 94.111435821406076, 24.894653826113426 ], [ 94.115089828932469, 24.906304416415708 ], [ 94.122678703159636, 24.900615919389224 ], [ 94.1453207922209, 24.944394656688189 ], [ 94.17200447592603, 24.961324157683919 ], [ 94.175765925457085, 24.950908353637828 ], [ 94.164600951972488, 24.905368815718361 ], [ 94.176720231153922, 24.874666633758181 ], [ 94.170053872488324, 24.85976989736298 ], [ 94.173400970178704, 24.810561598539039 ], [ 94.158809170507027, 24.815349491985558 ], [ 94.150785307695855, 24.776743019275102 ], [ 94.143994972090411, 24.77695448316291 ], [ 94.133981188381199, 24.78092962510209 ], [ 94.149330069727, 24.819280467319743 ], [ 94.111645638635423, 24.826589998629572 ], [ 94.101906654468564, 24.814789361839701 ] ] ] } },
{ "type": "Feature", "properties": { "pincode": "795134", "state": "Manipur", "district": "Bishnupur, Imphal West, Senapati", "officename": "Nambol", "officetype": "S.O" }, "geometry": { "type": "Polygon", "coordinates": [ [ [ 93.684412443879296, 24.732513407767613 ], [ 93.696230025695172, 24.740052047663937 ], [ 93.747524652740651, 24.744670212959988 ], [ 93.770545860902814, 24.724516610953003 ], [ 93.788832169069337, 24.759716824072257 ], [ 93.842531639023946, 24.757993681663208 ], [ 93.853449797170413, 24.739452212449692 ], [ 93.862135265130576, 24.737929974089127 ], [ 93.843198490817826, 24.722056261887019 ], [ 93.868851029851271, 24.716393344277492 ], [ 93.859423360399774, 24.691508952176434 ], [ 93.886587083327299, 24.67254224303008 ], [ 93.879595520816622, 24.659569383120584 ], [ 93.869442013937828, 24.657267482908082 ], [ 93.842626585848222, 24.661823130033554 ], [ 93.834225801879313, 24.676395959406136 ], [ 93.819936278736463, 24.6739559188307 ], [ 93.804734552557591, 24.668831528752207 ], [ 93.798832115809546, 24.649964975303419 ], [ 93.789969433742385, 24.645884203493381 ], [ 93.779177879455574, 24.650579046785822 ], [ 93.780290959560261, 24.658247712462128 ], [ 93.765745689911796, 24.661188429902211 ], [ 93.76477429709621, 24.638491630584326 ], [ 93.747265567052466, 24.639703593845809 ], [ 93.754172021321892, 24.631356994929433 ], [ 93.740420722638362, 24.618979925083636 ], [ 93.70846515464342, 24.620952161712921 ], [ 93.707037847818469, 24.668034705137643 ], [ 93.684412443879296, 24.732513407767613 ] ] ] } },
{ "type": "Feature", "properties": { "pincode": "795115", "state": "Manipur", "district": "Imphal East", "officename": "Gularthol", "officetype": "S.O" }, "geometry": { "type": "Polygon", "coordinates": [ [ [ 93.160904000219602, 24.793908999700648 ], [ 93.156149039946229, 24.774662810940072 ], [ 93.141637791651021, 24.776382662729816 ], [ 93.14368400021641, 24.796401999552756 ], [ 93.152321000114114, 24.786365999891018 ], [ 93.160904000219602, 24.793908999700648 ] ] ] } },
{ "type": "Feature", "properties": { "pincode": "795118", "state": "Manipur", "district": "Imphal East, Kangpokpi", "officename": "Saikul", "officetype": "S.O" }, "geometry": { "type": "Polygon", "coordinates": [ [ [ 93.926658443732435, 25.016121082921813 ], [ 93.99410744610185, 25.049708638043342 ], [ 94.016719613819134, 25.078687816989259 ], [ 94.012200453088553, 25.084397843785553 ], [ 93.995477196315733, 25.074323532105382 ], [ 93.966679862085982, 25.077388798454422 ], [ 93.988626847151352, 25.122435011466735 ], [ 93.990975173965296, 25.158524839349866 ], [ 94.001461229452332, 25.178492589261737 ], [ 94.042821243705589, 25.176097440144815 ], [ 94.090507102720721, 25.158893698985139 ], [ 94.215140947996417, 25.17331511939733 ], [ 94.195355764956787, 25.15746455304668 ], [ 94.178730765412467, 25.129449592125127 ], [ 94.148895231329902, 25.111796994835572 ], [ 94.135891464419672, 25.090654545970722 ], [ 94.142117785707399, 25.0529769569211 ], [ 94.158632261269929, 25.041134009726818 ], [ 94.16816122406135, 25.006200234253527 ], [ 94.139188346664923, 25.010587789095325 ], [ 94.065172898510468, 25.000410389028275 ], [ 94.056536407629267, 25.005753071547019 ], [ 94.048419237457892, 24.998694950211814 ], [ 94.039095564708646, 25.008787724973729 ], [ 94.028457575057189, 25.005035502486521 ], [ 94.009675789006508, 25.017152711428537 ], [ 93.973488087905025, 25.001567905534387 ], [ 93.955889440045667, 24.98292503955912 ], [ 93.929352530195331, 25.004582495985574 ], [ 93.926658443732435, 25.016121082921813 ] ] ] } }
]
}
