{
"type": "FeatureCollection",
"name": "meghalaya",
"crs": { "type": "name", "properties": { "name": "urn:ogc:def:crs:OGC:1.3:CRS84" } },
"features": [
{ "type": "Feature", "properties": { "pincode": "793200", "state": "Meghalaya", "district": "East Jaintia Hills", "officename": "Khliehriat", "officetype": "S.O" }, "geometry": { "type": "Polygon", "coordinates": [ [ [ 92.340858459650178, 25.072902679714957 ], [ 92.355788688597215, 25.102250210179079 ], [ 92.385283492039662, 25.12033313936297 ], [ 92.39002102974689, 25.133444886972086 ], [ 92.439599406787295, 25.152562229863179 ], [ 92.42637738700688, 25.174459708149129 ], [ 92.431977209980403, 25.188975126600837 ], [ 92.425492548542366, 25.193917753801543 ], [ 92.435529396264712, 25.201285748238661 ], [ 92.422180521713926, 25.222577340671819 ], [ 92.434071185137213, 25.253624744486444 ], [ 92.393143421931484, 25.294819510112347 ], [ 92.365447160957785, 25.286310070053787 ], [ 92.354519866598821, 25.293134075377282 ], [ 92.352840621897315, 25.31832273960282 ], [ 92.340246290234234, 25.344351025279764 ], [ 92.358717977452784, 25.348549136133784 ], [ 92.355359488949318, 25.36450195630033 ], [ 92.361236843605582, 25.367860444803796 ], [ 92.428406613674326, 25.393888731380002 ], [ 92.436742769663283, 25.417993234999926 ], [ 92.460483086525358, 25.416183435717073 ], [ 92.465380192741691, 25.448121082022453 ], [ 92.481027923300076, 25.467452876349171 ], [ 92.537759715638458, 25.470280432096274 ], [ 92.547364398648085, 25.456526496600645 ], [ 92.583145000041839, 25.470587000189994 ], [ 92.586280999868279, 25.465267000371909 ], [ 92.598984000211601, 25.469318000125668 ], [ 92.609848000285012, 25.414199999830259 ], [ 92.629372000417732, 25.422645999913016 ], [ 92.630042999884722, 25.432264000083705 ], [ 92.642348999906574, 25.417130000049553 ], [ 92.654991000134601, 25.432930000219471 ], [ 92.660773999720448, 25.407933999554587 ], [ 92.674445999783188, 25.414700000404878 ], [ 92.718673999705516, 25.372458000336508 ], [ 92.737594999909504, 25.378688999897633 ], [ 92.761031999726981, 25.332665999936012 ], [ 92.772903000373276, 25.33698300026532 ], [ 92.784798000327555, 25.329894999854389 ], [ 92.792602999628798, 25.282508999990455 ], [ 92.770134000383791, 25.266293999568632 ], [ 92.777060999665537, 25.257890999669883 ], [ 92.76501499994248, 25.24671899978199 ], [ 92.772568000213084, 25.230609999751778 ], [ 92.803374999956475, 25.218803000258276 ], [ 92.798713999951303, 25.210753999597443 ], [ 92.779861000185178, 25.20043799961411 ], [ 92.747481999894433, 25.205149000126312 ], [ 92.694297999753132, 25.178825000273662 ], [ 92.66728999983377, 25.174579999667344 ], [ 92.656112999715276, 25.151663000447286 ], [ 92.63840499969109, 25.142782000089426 ], [ 92.62200199959284, 25.115284000056704 ], [ 92.525192000310653, 25.137770000085595 ], [ 92.525719000331719, 25.123323000256278 ], [ 92.543395999825748, 25.097312999595431 ], [ 92.484840000166002, 25.105869000254131 ], [ 92.47512099983453, 25.068614999982287 ], [ 92.460334999660631, 25.052494000297941 ], [ 92.460235999591816, 25.033021999865639 ], [ 92.447020999919346, 25.039898000392441 ], [ 92.413055420171645, 25.020523070983018 ], [ 92.372726440872611, 25.044574737634207 ], [ 92.338409424055783, 25.047386169436209 ], [ 92.340858459650178, 25.072902679714957 ] ] ] } },
{ "type": "Feature", "properties": { "pincode": "793003", "state": "Meghalaya", "district": "East Khasi Hills", "officename": "Laitumkhrah", "officetype": "S.O" }, "geometry": { "type": "Polygon", "coordinates": [ [ [ 91.890424188725547, 25.566812913185629 ], [ 91.896155518662397, 25.577060663618909 ], [ 91.903529996312272, 25.573899876678126 ], [ 91.899790234831528, 25.562651472187781 ], [ 91.890424188725547, 25.566812913185629 ] ] ] } },
{ "type": "Feature", "properties": { "pincode": "793007", "state": "Meghalaya", "district": "East Khasi Hills", "officename": "Happy Valley", "officetype": "S.O" }, "geometry": { "type": "Polygon", "coordinates": [ [ [ 91.914393651046282, 25.555746296754364 ], [ 91.92151070585453, 25.573832643361925 ], [ 91.941521133993206, 25.583066328148675 ], [ 91.942032264577449, 25.547745088764884 ], [ 91.922760962248788, 25.548156808290173 ], [ 91.914393651046282, 25.555746296754364 ] ] ] } },
{ "type": "Feature", "properties": { "pincode": "793001", "state": "Meghalaya", "district": "East Khasi Hills", "officename": "Shillong G.P.O.", "officetype": "H.O" }, "geometry": { "type": "Polygon", "coordinates": [ [ [ 91.933401612094826, 25.601389292681688 ], [ 91.894507397698419, 25.585993073721511 ], [ 91.894299827874875, 25.608927187040194 ], [ 91.901440319015649, 25.608907964930779 ], [ 91.902741742337639, 25.634056025665018 ], [ 91.920430477085006, 25.673225213173055 ], [ 91.930379993442102, 25.654458521343713 ], [ 91.907370498050227, 25.632503663613363 ], [ 91.922716902663126, 25.602031231456181 ], [ 91.933401612094826, 25.601389292681688 ] ] ] } },
{ "type": "Feature", "properties": { "pincode": "793002", "state": "Meghalaya", "district": "East Khasi Hills", "officename": "Iewduh", "officetype": "S.O" }, "geometry": { "type": "Polygon", "coordinates": [ [ [ 91.871038083440908, 25.573346011209594 ], [ 91.874595057715851, 25.58955271628497 ], [ 91.885984071207986, 25.591829981368676 ], [ 91.884421893055958, 25.577299593701412 ], [ 91.871038083440908, 25.573346011209594 ] ] ] } },
{ "type": "Feature", "properties": { "pincode": "793008", "state": "Meghalaya", "district": "East Khasi Hills", "officename": "Phudmawri", "officetype": "S.O" }, "geometry": { "type": "Polygon", "coordinates": [ [ [ 91.923589943820843, 25.671803452467486 ], [ 91.967921967424957, 25.700960076646311 ], [ 91.961974046564933, 25.687271112671681 ], [ 91.981075173780368, 25.663092917703921 ], [ 91.930379993442102, 25.654458521343713 ], [ 91.923589943820843, 25.671803452467486 ] ] ] } },
{ "type": "Feature", "properties": { "pincode": "793005", "state": "Meghalaya", "district": "East Khasi Hills", "officename": "Upper Shillong", "officetype": "S.O" }, "geometry": { "type": "Polygon", "coordinates": [ [ [ 91.808925358618581, 25.60148118990503 ], [ 91.86173996762551, 25.665533639965588 ], [ 91.866713065655574, 25.649208904267596 ], [ 91.886709996769071, 25.649430486427832 ], [ 91.87999253952421, 25.622758753813514 ], [ 91.885984071207986, 25.591829981368676 ], [ 91.874595057715851, 25.58955271628497 ], [ 91.871038083440908, 25.573346011209594 ], [ 91.81565890383547, 25.592503129316015 ], [ 91.808925358618581, 25.60148118990503 ] ] ] } },
{ "type": "Feature", "properties": { "pincode": "793006", "state": "Meghalaya", "district": "East Khasi Hills", "officename": "Rynjah", "officetype": "S.O" }, "geometry": { "type": "Polygon", "coordinates": [ [ [ 91.942483067739545, 25.550531780217568 ], [ 91.933401612094826, 25.601389292681688 ], [ 91.95296560328012, 25.608192565934189 ], [ 91.98303135391393, 25.59002581094245 ], [ 91.968758356712726, 25.567318771044484 ], [ 91.942483067739545, 25.550531780217568 ] ] ] } },
{ "type": "Feature", "properties": { "pincode": "793018", "state": "Meghalaya", "district": "East Khasi Hills", "officename": "Neigrihms", "officetype": "S.O" }, "geometry": { "type": "Polygon", "coordinates": [ [ [ 92.06997784440199, 25.656446113897232 ], [ 92.090212121892023, 25.639503317324397 ], [ 92.107778815939639, 25.641875679419229 ], [ 92.144416164574409, 25.671415243918432 ], [ 92.156134889313762, 25.669686055367322 ], [ 92.155728925449637, 25.646647289740713 ], [ 92.136879961840862, 25.643190441485729 ], [ 92.139839108188426, 25.621249561917807 ], [ 92.127713431229893, 25.610810882716237 ], [ 92.084885103764577, 25.635006177393166 ], [ 92.06997784440199, 25.656446113897232 ] ] ] } },
{ "type": "Feature", "properties": { "pincode": "793103", "state": "Meghalaya", "district": "Ribhoi", "officename": "Umiam", "officetype": "S.O" }, "geometry": { "type": "Polygon", "coordinates": [ [ [ 92.165039000449667, 25.824091000099656 ], [ 92.154860999635616, 25.81110200005736 ], [ 92.152717999736126, 25.781986000054019 ], [ 92.167183000395255, 25.732769000289295 ], [ 92.151214999672675, 25.712850999973739 ], [ 92.165947000054075, 25.683164999765097 ], [ 92.162276999883829, 25.670173999630435 ], [ 92.145006179192023, 25.671687558633892 ], [ 92.127301004837477, 25.661165876504072 ], [ 92.124307194121855, 25.65074052345642 ], [ 92.091559406141869, 25.639415450862543 ], [ 92.066316412972128, 25.658327000091049 ], [ 91.976740869595631, 25.665534779406642 ], [ 91.961974046564933, 25.687271112671681 ], [ 91.969102805150328, 25.700129117464826 ], [ 91.955433887963579, 25.715510038058028 ], [ 91.988997683896173, 25.745156767570791 ], [ 92.165039000449667, 25.824091000099656 ] ] ] } },
{ "type": "Feature", "properties": { "pincode": "793104", "state": "Meghalaya", "district": "Ribhoi", "officename": "Sumer", "officetype": "S.O" }, "geometry": { "type": "Polygon", "coordinates": [ [ [ 91.823929692601325, 25.646607386821472 ], [ 91.795957578079765, 25.658233895977617 ], [ 91.788594408505276, 25.682643944262736 ], [ 91.767638241611735, 25.69027801122138 ], [ 91.793279519334533, 25.710524477222918 ], [ 91.790302830811129, 25.724813797119111 ], [ 91.902217743354242, 25.73626098775452 ], [ 91.932340089223771, 25.730571210992764 ], [ 91.955433887963579, 25.715510038058028 ], [ 91.914884093626142, 25.679632291896837 ], [ 91.903515165592523, 25.691737328514876 ], [ 91.89303109670783, 25.691371781082921 ], [ 91.849881792211079, 25.66421218064778 ], [ 91.846562220969929, 25.670763326266638 ], [ 91.832292492804413, 25.666180678795399 ], [ 91.823929692601325, 25.646607386821472 ] ] ] } },
{ "type": "Feature", "properties": { "pincode": "793107", "state": "Meghalaya", "district": "East Khasi Hills", "officename": "Bholaganj Bazar", "officetype": "S.O" }, "geometry": { "type": "Polygon", "coordinates": [ [ [ 91.705731681871782, 25.155193665055776 ], [ 91.702058791280251, 25.187518251866038 ], [ 91.750430143236713, 25.177490119473475 ], [ 91.744911193596636, 25.146854401009875 ], [ 91.705731681871782, 25.155193665055776 ] ] ] } },
{ "type": "Feature", "properties": { "pincode": "793105", "state": "Meghalaya", "district": "Ribhoi", "officename": "Umsning", "officetype": "S.O" }, "geometry": { "type": "Polygon", "coordinates": [ [ [ 91.902217743354242, 25.73626098775452 ], [ 91.775550271028294, 25.722821730438625 ], [ 91.753691093968882, 25.73570698918644 ], [ 91.757115916466489, 25.753903645736727 ], [ 91.771639631164248, 25.768649504670975 ], [ 91.772592770440042, 25.784188002674284 ], [ 91.75880666889276, 25.787281427695859 ], [ 91.757964963712141, 25.796603112943387 ], [ 91.797481446911434, 25.796729669139097 ], [ 91.811836531530901, 25.845410553354384 ], [ 91.845435379439436, 25.851734146214028 ], [ 91.84938233122972, 25.825316273327473 ], [ 91.879524324588033, 25.831267769891838 ], [ 91.910518689985622, 25.850779091382037 ], [ 91.913553774187392, 25.863629147067513 ], [ 92.000772605471411, 25.898105818728709 ], [ 92.028509825168271, 25.918211169410085 ], [ 92.036702523103088, 25.937868924811141 ], [ 92.108396006270709, 25.962422151461226 ], [ 92.124176283408815, 25.984825841939141 ], [ 92.120725895883481, 26.016301891419232 ], [ 92.133704238060204, 26.022067944180321 ], [ 92.13521600021835, 26.044310000406313 ], [ 92.171196000195437, 26.075982999615803 ], [ 92.180420000182892, 26.077888000231212 ], [ 92.182517999806009, 26.06687699967398 ], [ 92.214049999707811, 26.069304000079626 ], [ 92.243179000310704, 26.060841000112134 ], [ 92.303535000240174, 26.074717999736038 ], [ 92.223633000062989, 25.996905999712226 ], [ 92.167518999702224, 25.962798999774122 ], [ 92.158249000291278, 25.943164999964893 ], [ 92.161812000023872, 25.913549000286253 ], [ 92.18275499994354, 25.906921000403997 ], [ 92.199028000341968, 25.916353000090851 ], [ 92.20243800021359, 25.906552999621283 ], [ 92.227287000394824, 25.905326999741305 ], [ 92.181693999578499, 25.868491999905928 ], [ 92.182746999574476, 25.849668999724656 ], [ 92.165039000449667, 25.824091000099656 ], [ 91.988997683896173, 25.745156767570791 ], [ 91.955433887963579, 25.715510038058028 ], [ 91.932340089223771, 25.730571210992764 ], [ 91.902217743354242, 25.73626098775452 ] ] ] } },
{ "type": "Feature", "properties": { "pincode": "793106", "state": "Meghalaya", "district": "East Khasi Hills, South West Khasi Hills", "officename": "Balat", "officetype": "S.O" }, "geometry": { "type": "Polygon", "coordinates": [ [ [ 91.399922967670932, 25.162620687394792 ], [ 91.346138000068777, 25.16649818454357 ], [ 91.261489868262913, 25.20238494910609 ], [ 91.143844604245203, 25.189571380714654 ], [ 91.083816528610043, 25.196407318243246 ], [ 90.988250732385438, 25.180397034095904 ], [ 90.967378815779909, 25.166663494324894 ], [ 90.970327558769952, 25.182450037039587 ], [ 90.962273833970357, 25.200973152888878 ], [ 90.9448670699594, 25.209858405241278 ], [ 90.956415932549362, 25.231230513977152 ], [ 90.952409535571803, 25.24897784585113 ], [ 90.919955997671195, 25.26375083463347 ], [ 90.907307966589542, 25.288868826535179 ], [ 90.880866911878456, 25.288549013226543 ], [ 90.903905858268786, 25.317452432383959 ], [ 90.924656325928822, 25.316221726351614 ], [ 90.933825838691632, 25.333787318729776 ], [ 90.957219903975499, 25.336467807443398 ], [ 91.013127590865622, 25.308255642284166 ], [ 91.068587141083867, 25.339552087259108 ], [ 91.096091032575089, 25.345181183165153 ], [ 91.11850849706957, 25.324796045301355 ], [ 91.13653991848264, 25.333401696631029 ], [ 91.143352726347359, 25.324639109107579 ], [ 91.155714469047723, 25.324442779910385 ], [ 91.156752823583986, 25.308823842945969 ], [ 91.175842253317455, 25.285786153807919 ], [ 91.258386563289378, 25.29881214836206 ], [ 91.288228532920414, 25.290258109124579 ], [ 91.284936526799413, 25.272723586524478 ], [ 91.304272238572992, 25.269194582064415 ], [ 91.326598161975767, 25.288767454054778 ], [ 91.347497503407112, 25.281120110404913 ], [ 91.390424165442937, 25.288120407131203 ], [ 91.457781658197007, 25.256385013857368 ], [ 91.469302648998223, 25.263472156315004 ], [ 91.518810873523194, 25.181201257332191 ], [ 91.562294006363402, 25.14874076857177 ], [ 91.518775940257513, 25.145380020072025 ], [ 91.492149352710555, 25.133705139080973 ], [ 91.399922967670932, 25.162620687394792 ] ] ] } },
{ "type": "Feature", "properties": { "pincode": "793109", "state": "Meghalaya", "district": "Jaintia Hills", "officename": "Dawki", "officetype": "S.O" }, "geometry": { "type": "Polygon", "coordinates": [ [ [ 92.217546206792179, 25.168532175819223 ], [ 92.215918945602937, 25.160506526055485 ], [ 92.202312763323391, 25.16212914944083 ], [ 92.210118515357294, 25.152402758480605 ], [ 92.200988413584525, 25.146172240056956 ], [ 92.203874823664364, 25.136479849765351 ], [ 92.182701110767766, 25.132995605463009 ], [ 92.184028625221003, 25.119710921821707 ], [ 92.176208495725746, 25.120016097764676 ], [ 92.160026549885345, 25.132318496901235 ], [ 92.15667724615804, 25.145792007595219 ], [ 92.138740539544358, 25.136943817203473 ], [ 92.133979797529719, 25.156354903855856 ], [ 92.12239074693548, 25.166221618732777 ], [ 92.055343628206003, 25.185052871992639 ], [ 92.01953125016712, 25.184999465752867 ], [ 92.028513481811785, 25.212663708163689 ], [ 92.013912125044556, 25.214347158994315 ], [ 92.002504985716712, 25.231610008994835 ], [ 92.033871415933277, 25.236604605318348 ], [ 92.09755367716059, 25.228800406413825 ], [ 92.133140822690734, 25.207885154176665 ], [ 92.17715650347003, 25.196334939905626 ], [ 92.217546206792179, 25.168532175819223 ] ] ] } },
{ "type": "Feature", "properties": { "pincode": "793119", "state": "Meghalaya", "district": "West Khasi Hills", "officename": "Nongstoin", "officetype": "S.O" }, "geometry": { "type": "Polygon", "coordinates": [ [ [ 90.880866911878456, 25.288549013226543 ], [ 90.862105911858464, 25.292053843010592 ], [ 90.850705514747688, 25.304935662750779 ], [ 90.842413734006755, 25.355987072645235 ], [ 90.810078596350252, 25.374183349682028 ], [ 90.787309743350079, 25.369467572870178 ], [ 90.756875472125444, 25.384870064601785 ], [ 90.755726950638291, 25.432934972571047 ], [ 90.77555588569561, 25.429581333212127 ], [ 90.782376882786991, 25.440988596646605 ], [ 90.771965006979428, 25.446584410442426 ], [ 90.791846966064782, 25.459819397547221 ], [ 90.784703550328686, 25.508582097585816 ], [ 90.773764423589284, 25.523970079655498 ], [ 90.795401413244747, 25.57357105755824 ], [ 90.803277759361208, 25.562295477354496 ], [ 90.812321836483591, 25.578708035447562 ], [ 90.826202492751008, 25.56972579211174 ], [ 90.833743483474962, 25.583962919853036 ], [ 90.845153458365587, 25.578356712592324 ], [ 90.862261895670088, 25.583322568381959 ], [ 90.913049664810217, 25.637427461708114 ], [ 90.91761716949685, 25.653998930906027 ], [ 90.950346174236699, 25.68824270064033 ], [ 90.952028292271962, 25.70399849103768 ], [ 90.97592316841974, 25.735187808770434 ], [ 90.97475910394968, 25.743199646746234 ], [ 90.943720331827876, 25.74866784314645 ], [ 90.940004660486807, 25.758562400134792 ], [ 90.963956576135331, 25.7741964187299 ], [ 90.963026542241209, 25.785364142341336 ], [ 90.974484284622179, 25.78960985341206 ], [ 90.996574631514193, 25.82243684378534 ], [ 91.023848999831614, 25.822081000038338 ], [ 91.052139000414627, 25.848245999753146 ], [ 91.081543000209479, 25.852037000107487 ], [ 91.075890000323284, 25.837750999609 ], [ 91.052901999627579, 25.828341000037256 ], [ 91.066231000060782, 25.819799000023977 ], [ 91.084328000037203, 25.828748999966365 ], [ 91.123717999885912, 25.830721000074334 ], [ 91.155791999601092, 25.849426000209746 ], [ 91.181915000077311, 25.842094000237978 ], [ 91.199363999848742, 25.858334000014224 ], [ 91.205498000332511, 25.839851000223632 ], [ 91.192726000404775, 25.820099000368714 ], [ 91.182739000304821, 25.775659999709319 ], [ 91.191963000292276, 25.762804000404401 ], [ 91.194724999958964, 25.728915999773676 ], [ 91.218574999936379, 25.723222999841596 ], [ 91.258063999853846, 25.747103000303412 ], [ 91.278304999776083, 25.746198999984017 ], [ 91.336287999991328, 25.838046999769347 ], [ 91.351273000348669, 25.839535000040257 ], [ 91.350157977708591, 25.816122213569486 ], [ 91.374637370018775, 25.791996839382762 ], [ 91.388523696511527, 25.80034805721715 ], [ 91.397375777370428, 25.793150487005505 ], [ 91.413903634844928, 25.796924188900277 ], [ 91.419488779084077, 25.785341792389943 ], [ 91.457828125267781, 25.7880869252715 ], [ 91.446835446598584, 25.773816447071511 ], [ 91.456841108530455, 25.754899941679014 ], [ 91.455301943130166, 25.729557237076904 ], [ 91.475970359344728, 25.712536372155853 ], [ 91.489851190080401, 25.677543225239731 ], [ 91.474480225881905, 25.660701684235448 ], [ 91.478206275399543, 25.635848314248392 ], [ 91.460966717839881, 25.625620891191318 ], [ 91.464704280478315, 25.548711719670337 ], [ 91.457986707220812, 25.514452095787647 ], [ 91.439849259335915, 25.483551258983596 ], [ 91.442466286490003, 25.461043972001733 ], [ 91.415857411090769, 25.488612024725171 ], [ 91.389546634869362, 25.477069939426315 ], [ 91.385851595774625, 25.462614809725778 ], [ 91.348506958229564, 25.483070432854277 ], [ 91.329857356332127, 25.430401395308252 ], [ 91.306964053348509, 25.404122191585941 ], [ 91.287967761902678, 25.397692945473239 ], [ 91.275509251251094, 25.404704228317485 ], [ 91.245972502529071, 25.457181695878603 ], [ 91.235050156239936, 25.442302880273758 ], [ 91.22446052583274, 25.454046269819742 ], [ 91.200606967237889, 25.441197913852648 ], [ 91.201883569271388, 25.452193157388422 ], [ 91.19017656449688, 25.45795588355719 ], [ 91.141978539777824, 25.430361618294171 ], [ 91.148148498754267, 25.410251718841835 ], [ 91.168422793377317, 25.395246923506932 ], [ 91.128245064758062, 25.362649504870888 ], [ 91.126948872792354, 25.338284372326086 ], [ 91.134577217364722, 25.33314934956303 ], [ 91.128813838288181, 25.327805101324373 ], [ 91.11850849706957, 25.324796045301355 ], [ 91.094540738964099, 25.345146368610187 ], [ 91.068587141083867, 25.339552087259108 ], [ 91.013127590865622, 25.308255642284166 ], [ 90.958468824876434, 25.33606118167819 ], [ 90.936096800427094, 25.334248093574672 ], [ 90.92112279248289, 25.313875934726639 ], [ 90.903905858268786, 25.317452432383959 ], [ 90.880866911878456, 25.288549013226543 ] ] ] } },
{ "type": "Feature", "properties": { "pincode": "793120", "state": "Meghalaya", "district": "West Khasi Hills", "officename": "Mairang", "officetype": "S.O" }, "geometry": { "type": "Polygon", "coordinates": [ [ [ 91.442466286490003, 25.461043972001733 ], [ 91.439849259335915, 25.483551258983596 ], [ 91.457986707220812, 25.514452095787647 ], [ 91.464704280478315, 25.548711719670337 ], [ 91.460966717839881, 25.625620891191318 ], [ 91.478206275399543, 25.635848314248392 ], [ 91.474480225881905, 25.660701684235448 ], [ 91.489851190080401, 25.677543225239731 ], [ 91.475970359344728, 25.712536372155853 ], [ 91.455301943130166, 25.729557237076904 ], [ 91.456841108530455, 25.754899941679014 ], [ 91.448869309271345, 25.759835843749329 ], [ 91.448120963611586, 25.777812434396537 ], [ 91.509060478758158, 25.791342373951579 ], [ 91.546331720832313, 25.790297922910895 ], [ 91.578702153281881, 25.801789923166439 ], [ 91.590236187849882, 25.79117686991674 ], [ 91.596331914986081, 25.799609594207482 ], [ 91.625274255002921, 25.802237112852481 ], [ 91.634683023402886, 25.789000732697673 ], [ 91.663814249827965, 25.801035793966832 ], [ 91.720409596126103, 25.773109461232707 ], [ 91.736155840219965, 25.809307368740235 ], [ 91.748231781971242, 25.81111465261921 ], [ 91.748049518170717, 25.802287833716605 ], [ 91.759175408018734, 25.800736628192908 ], [ 91.75880666889276, 25.787281427695859 ], [ 91.772592770440042, 25.784188002674284 ], [ 91.77016218713527, 25.761269296540831 ], [ 91.757115916466489, 25.753903645736727 ], [ 91.754313065095971, 25.734307554150291 ], [ 91.775550271028294, 25.722821730438625 ], [ 91.791229628944279, 25.724518907621587 ], [ 91.793729306262605, 25.711485385742037 ], [ 91.767675567073923, 25.69121116306485 ], [ 91.774202213361548, 25.677446705501211 ], [ 91.765090841769052, 25.662110641293168 ], [ 91.723372723772286, 25.67061685098713 ], [ 91.724684892194205, 25.630130694476065 ], [ 91.696278378144768, 25.615297212796293 ], [ 91.702142836522683, 25.596295918422072 ], [ 91.719274365719514, 25.584991162412393 ], [ 91.703340307209544, 25.561117109167299 ], [ 91.711073697093582, 25.549042240307301 ], [ 91.633699429485091, 25.49735221643175 ], [ 91.570435096702511, 25.488623625080379 ], [ 91.54362295833289, 25.406283707626983 ], [ 91.475927648742072, 25.419595555290812 ], [ 91.469748353004206, 25.424651343284893 ], [ 91.482816015846481, 25.442064435825046 ], [ 91.442466286490003, 25.461043972001733 ] ] ] } },
{ "type": "Feature", "properties": { "pincode": "793111", "state": "Meghalaya", "district": "East Khasi Hills", "officename": "Cherrabazar", "officetype": "S.O" }, "geometry": { "type": "Polygon", "coordinates": [ [ [ 91.667686024590466, 25.340798295804746 ], [ 91.667734128427469, 25.356761161398538 ], [ 91.676301526194663, 25.349020771191704 ], [ 91.70111071518744, 25.34931388992419 ], [ 91.701714572169806, 25.378485456338922 ], [ 91.71112081167621, 25.400259158233723 ], [ 91.766272819835024, 25.417362574623212 ], [ 91.808572077939232, 25.450755956222508 ], [ 91.82563940723287, 25.414943168992181 ], [ 91.823095454491806, 25.38978630209624 ], [ 91.808412393417427, 25.369333135016234 ], [ 91.829487091855867, 25.352316213622487 ], [ 91.82394494060668, 25.339226738623267 ], [ 91.840400571729106, 25.296768947129294 ], [ 91.829289971255321, 25.269528763841436 ], [ 91.788829236779975, 25.249562552669772 ], [ 91.746018547717938, 25.274086209611028 ], [ 91.755902616812534, 25.294274948130521 ], [ 91.716920827334548, 25.288028928991992 ], [ 91.698313256152005, 25.258522637609701 ], [ 91.634026692777638, 25.228897839863578 ], [ 91.63690597123383, 25.246000656405215 ], [ 91.628960336850184, 25.255232155839451 ], [ 91.648429506216814, 25.274028103514183 ], [ 91.650217156996177, 25.292027898468803 ], [ 91.642329942572928, 25.305055037859688 ], [ 91.667686024590466, 25.340798295804746 ] ] ] } },
{ "type": "Feature", "properties": { "pincode": "793121", "state": "Meghalaya", "district": "East Khasi Hills", "officename": "Mawphlang", "officetype": "S.O" }, "geometry": { "type": "Polygon", "coordinates": [ [ [ 91.654980268724501, 25.510000625228713 ], [ 91.675442373267003, 25.502344525779336 ], [ 91.719200603325305, 25.46353362367779 ], [ 91.730150697296949, 25.467558442368215 ], [ 91.752176636542572, 25.501559128950703 ], [ 91.797359466466332, 25.519442838516227 ], [ 91.818616029406371, 25.538959794259142 ], [ 91.830418701362021, 25.533315038458397 ], [ 91.843750855717644, 25.507772380391145 ], [ 91.836540681507245, 25.495559891875587 ], [ 91.822296526463731, 25.494735850279369 ], [ 91.81593962991019, 25.486318848835992 ], [ 91.801197453699558, 25.461352114808278 ], [ 91.808572077939232, 25.450755956222508 ], [ 91.796233952335172, 25.437048183826732 ], [ 91.785102055016011, 25.436720990681295 ], [ 91.764946904376188, 25.416771355813466 ], [ 91.71112081167621, 25.400259158233723 ], [ 91.700110057533266, 25.348245851464924 ], [ 91.676301526194663, 25.349020771191704 ], [ 91.667734128427469, 25.356761161398538 ], [ 91.667686024590466, 25.340798295804746 ], [ 91.624382557409149, 25.341842121816512 ], [ 91.560022283801516, 25.323860991391712 ], [ 91.54991323670663, 25.343737400760574 ], [ 91.527130195102529, 25.357729074737165 ], [ 91.569423824350224, 25.487359534415134 ], [ 91.632398792170648, 25.496876983186439 ], [ 91.654980268724501, 25.510000625228713 ] ] ] } },
{ "type": "Feature", "properties": { "pincode": "793112", "state": "Meghalaya", "district": "East Khasi Hills", "officename": "Shella", "officetype": "S.O" }, "geometry": { "type": "Polygon", "coordinates": [ [ [ 91.705731681871782, 25.155193665055776 ], [ 91.682701110867697, 25.126592635741645 ], [ 91.661355060887445, 25.126777947344522 ], [ 91.640577887859365, 25.142786745811804 ], [ 91.632741050759023, 25.156801905583563 ], [ 91.648817731852944, 25.179342130235284 ], [ 91.631206562732814, 25.208428189109782 ], [ 91.640207518262514, 25.215336765779284 ], [ 91.634026692777638, 25.228897839863578 ], [ 91.670061657519568, 25.213023213950237 ], [ 91.702058791280251, 25.187518251866038 ], [ 91.705731681871782, 25.155193665055776 ] ] ] } },
{ "type": "Feature", "properties": { "pincode": "793123", "state": "Meghalaya", "district": "Ribhoi", "officename": "Umsaw", "officetype": "S.O" }, "geometry": { "type": "Polygon", "coordinates": [ [ [ 91.635307000018145, 25.92470400028941 ], [ 91.653938000338599, 25.906577999875026 ], [ 91.671745000431542, 25.904284000206587 ], [ 91.650670483655972, 25.847128949141677 ], [ 91.587829959085525, 25.838182541990932 ], [ 91.590470892018118, 25.8554546406192 ], [ 91.618316177849351, 25.888569718018232 ], [ 91.616669011066165, 25.907663500470221 ], [ 91.635307000018145, 25.92470400028941 ] ] ] } },
{ "type": "Feature", "properties": { "pincode": "793113", "state": "Meghalaya", "district": "East Khasi Hills", "officename": "Mawsynram", "officetype": "S.O" }, "geometry": { "type": "Polygon", "coordinates": [ [ [ 91.569186221666939, 25.321637106467335 ], [ 91.624382557409149, 25.341842121816512 ], [ 91.667686024590466, 25.340798295804746 ], [ 91.642329942572928, 25.305055037859688 ], [ 91.650217156996177, 25.292027898468803 ], [ 91.648429506216814, 25.274028103514183 ], [ 91.628960336850184, 25.255232155839451 ], [ 91.63690597123383, 25.246000656405215 ], [ 91.63343238479689, 25.22345001670493 ], [ 91.640207518262514, 25.215336765779284 ], [ 91.631206562732814, 25.208428189109782 ], [ 91.648817731852944, 25.179342130235284 ], [ 91.632641787188845, 25.155312949333336 ], [ 91.663995684453312, 25.126021711033218 ], [ 91.632392883624789, 25.122652053849379 ], [ 91.619079589851424, 25.138401031882211 ], [ 91.601448059180768, 25.137750625990577 ], [ 91.599098205318001, 25.166383743115318 ], [ 91.584495544533752, 25.165573120303236 ], [ 91.562294006363402, 25.14874076857177 ], [ 91.54216649099078, 25.161030497159629 ], [ 91.518810873523194, 25.181201257332191 ], [ 91.469302648998223, 25.263472156315004 ], [ 91.501023699883945, 25.262475342363246 ], [ 91.508417798043126, 25.254396604719602 ], [ 91.524720074971526, 25.275967209119528 ], [ 91.565901742871347, 25.271193828932212 ], [ 91.572975295673473, 25.292032570446793 ], [ 91.569186221666939, 25.321637106467335 ] ] ] } },
{ "type": "Feature", "properties": { "pincode": "793114", "state": "Meghalaya", "district": "South West Khasi Hills, West Khasi Hills", "officename": "Mawkyrwat", "officetype": "S.O" }, "geometry": { "type": "Polygon", "coordinates": [ [ [ 91.482816015846481, 25.442064435825046 ], [ 91.469748353004206, 25.424651343284893 ], [ 91.475927648742072, 25.419595555290812 ], [ 91.54362295833289, 25.406283707626983 ], [ 91.527314520148991, 25.356178722669995 ], [ 91.569186221666939, 25.321637106467335 ], [ 91.572975295673473, 25.292032570446793 ], [ 91.565901742871347, 25.271193828932212 ], [ 91.524720074971526, 25.275967209119528 ], [ 91.508417798043126, 25.254396604719602 ], [ 91.481562333934619, 25.266321238234696 ], [ 91.457781658197007, 25.256385013857368 ], [ 91.387979188488885, 25.288398919974213 ], [ 91.347497503407112, 25.281120110404913 ], [ 91.326598161975767, 25.288767454054778 ], [ 91.304272238572992, 25.269194582064415 ], [ 91.284936526799413, 25.272723586524478 ], [ 91.288228532920414, 25.290258109124579 ], [ 91.258386563289378, 25.29881214836206 ], [ 91.175842253317455, 25.285786153807919 ], [ 91.156752823583986, 25.308823842945969 ], [ 91.155714469047723, 25.324442779910385 ], [ 91.127253772643485, 25.337088226340654 ], [ 91.128245064758062, 25.362649504870888 ], [ 91.168285616188427, 25.39420437633089 ], [ 91.148148498754267, 25.410251718841835 ], [ 91.141978539777824, 25.430361618294171 ], [ 91.19017656449688, 25.45795588355719 ], [ 91.201883569271388, 25.452193157388422 ], [ 91.200606967237889, 25.441197913852648 ], [ 91.22446052583274, 25.454046269819742 ], [ 91.235050156239936, 25.442302880273758 ], [ 91.245972502529071, 25.457181695878603 ], [ 91.284569986515748, 25.397746877816246 ], [ 91.306964053348509, 25.404122191585941 ], [ 91.327422623555321, 25.427136640443734 ], [ 91.348506958229564, 25.483070432854277 ], [ 91.385851595774625, 25.462614809725778 ], [ 91.389546634869362, 25.477069939426315 ], [ 91.415857411090769, 25.488612024725171 ], [ 91.46608926250957, 25.444610597301391 ], [ 91.482816015846481, 25.442064435825046 ] ] ] } },
{ "type": "Feature", "properties": { "pincode": "793115", "state": "Meghalaya", "district": "East Khasi Hills", "officename": "Sohiong", "officetype": "S.O" }, "geometry": { "type": "Polygon", "coordinates": [ [ [ 91.654980268724501, 25.510000625228713 ], [ 91.711073697093582, 25.549042240307301 ], [ 91.703340307209544, 25.561117109167299 ], [ 91.719274365719514, 25.584991162412393 ], [ 91.702142836522683, 25.596295918422072 ], [ 91.696278378144768, 25.615297212796293 ], [ 91.724684892194205, 25.630130694476065 ], [ 91.724210713853495, 25.67180767838164 ], [ 91.765090841769052, 25.662110641293168 ], [ 91.772285338098015, 25.686433425662131 ], [ 91.786736624095965, 25.684428924955057 ], [ 91.795957578079765, 25.658233895977617 ], [ 91.84087153049677, 25.639441840568622 ], [ 91.808678386798192, 25.603377217084926 ], [ 91.81565890383547, 25.592503129316015 ], [ 91.848114426539667, 25.578315085672784 ], [ 91.834858338641538, 25.57221448960712 ], [ 91.818616029406371, 25.538959794259142 ], [ 91.799293078113124, 25.520795974654618 ], [ 91.752176636542572, 25.501559128950703 ], [ 91.728924185702795, 25.466588374254229 ], [ 91.706861602680931, 25.469662931499272 ], [ 91.684581638232089, 25.495592653278436 ], [ 91.654980268724501, 25.510000625228713 ] ] ] } },
{ "type": "Feature", "properties": { "pincode": "793122", "state": "Meghalaya", "district": "Ribhoi", "officename": "Ucc", "officetype": "S.O" }, "geometry": { "type": "Polygon", "coordinates": [ [ [ 91.823929692601325, 25.646607386821472 ], [ 91.832292492804413, 25.666180678795399 ], [ 91.846562220969929, 25.670763326266638 ], [ 91.849881792211079, 25.66421218064778 ], [ 91.89303109670783, 25.691371781082921 ], [ 91.903515165592523, 25.691737328514876 ], [ 91.914884093626142, 25.679632291896837 ], [ 91.955433887963579, 25.715510038058028 ], [ 91.967921967424957, 25.700960076646311 ], [ 91.958194383963757, 25.688769723144389 ], [ 91.886709996769071, 25.649430486427832 ], [ 91.866713065655574, 25.649208904267596 ], [ 91.86173996762551, 25.665533639965588 ], [ 91.84087153049677, 25.639441840568622 ], [ 91.823929692601325, 25.646607386821472 ] ] ] } },
{ "type": "Feature", "properties": { "pincode": "793150", "state": "Meghalaya", "district": "Jaintia Hills", "officename": "Jowai", "officetype": "S.O" }, "geometry": { "type": "Polygon", "coordinates": [ [ [ 92.108872206287344, 25.459235408387485 ], [ 92.168210759119404, 25.484240386085105 ], [ 92.260867745849907, 25.546962039166885 ], [ 92.30193105577365, 25.551820238013704 ], [ 92.310663686879707, 25.545071043693838 ], [ 92.357165348302374, 25.593573730843104 ], [ 92.379750403258583, 25.594854514724204 ], [ 92.417575178052118, 25.612700779217562 ], [ 92.421677954474205, 25.628063870751078 ], [ 92.444897213136073, 25.64701525724854 ], [ 92.456301280379876, 25.635444729091091 ], [ 92.462210914402192, 25.649317313043582 ], [ 92.470207902772529, 25.640383178041304 ], [ 92.490484493364875, 25.645003610528192 ], [ 92.511649999947622, 25.615036000211376 ], [ 92.558678000389591, 25.609756000439234 ], [ 92.561957999662127, 25.572016000238364 ], [ 92.588417000344464, 25.550701000251138 ], [ 92.629783999632025, 25.567141000257095 ], [ 92.649261000294985, 25.589977000238378 ], [ 92.661385000017901, 25.582673999805365 ], [ 92.645545999848139, 25.535057000080428 ], [ 92.576468999744748, 25.48814599963822 ], [ 92.568686999705335, 25.478496999836921 ], [ 92.56997699983873, 25.462504999806072 ], [ 92.547364398648085, 25.456526496600645 ], [ 92.537759715638458, 25.470280432096274 ], [ 92.474185857791269, 25.466122475072211 ], [ 92.460436487254242, 25.472261697919123 ], [ 92.41330678068357, 25.453270446274075 ], [ 92.31390847769427, 25.457240486359524 ], [ 92.311870795600782, 25.444174947715624 ], [ 92.266356357759946, 25.426440161384448 ], [ 92.247820410383838, 25.377829033982778 ], [ 92.22946215915141, 25.366313396845783 ], [ 92.203906376378256, 25.361794087727048 ], [ 92.197393754118423, 25.370381481919935 ], [ 92.179638665592108, 25.360511838850528 ], [ 92.168330828505134, 25.34555496209191 ], [ 92.185466311121445, 25.314043256291427 ], [ 92.184087933711169, 25.303444421322979 ], [ 92.193974188158279, 25.299994585981494 ], [ 92.190886883023381, 25.273152781675719 ], [ 92.200457865737974, 25.233728515858445 ], [ 92.218477220047816, 25.230100225345268 ], [ 92.231601603131594, 25.211593925019827 ], [ 92.233947565627716, 25.196106461743909 ], [ 92.217546206792179, 25.168532175819223 ], [ 92.17715650347003, 25.196334939905626 ], [ 92.133140822690734, 25.207885154176665 ], [ 92.09755367716059, 25.228800406413825 ], [ 92.000466913317496, 25.236029184898939 ], [ 91.993115470902353, 25.259673917317514 ], [ 91.997027567668169, 25.278892046331066 ], [ 92.027365034968568, 25.316198826914388 ], [ 92.039967536072936, 25.31583760881864 ], [ 92.05016191623946, 25.326513612813073 ], [ 92.058871288179546, 25.316840992318077 ], [ 92.07427962370582, 25.325270936804372 ], [ 92.106423182384049, 25.306980893753291 ], [ 92.115182802144773, 25.310855341301135 ], [ 92.121512303550105, 25.332112227097582 ], [ 92.109057496306605, 25.371488951154276 ], [ 92.115840827991917, 25.394134677973227 ], [ 92.104849505500283, 25.407707793080249 ], [ 92.116406685020536, 25.41958160770514 ], [ 92.108872206287344, 25.459235408387485 ] ] ] } },
{ "type": "Feature", "properties": { "pincode": "793160", "state": "Meghalaya", "district": "East Jaintia Hills", "officename": "Ladrymbai", "officetype": "S.O" }, "geometry": { "type": "Polygon", "coordinates": [ [ [ 92.481027923300076, 25.467452876349171 ], [ 92.465380192741691, 25.448121082022453 ], [ 92.460483086525358, 25.416183435717073 ], [ 92.436742769663283, 25.417993234999926 ], [ 92.428406613674326, 25.393888731380002 ], [ 92.361236843605582, 25.367860444803796 ], [ 92.355359488949318, 25.36450195630033 ], [ 92.358717977452784, 25.348549136133784 ], [ 92.340246290234234, 25.344351025279764 ], [ 92.352840621897315, 25.31832273960282 ], [ 92.354519866598821, 25.293134075377282 ], [ 92.315057626008695, 25.247794480131233 ], [ 92.294067073536723, 25.177266221558853 ], [ 92.282312363325104, 25.162992645194436 ], [ 92.211311340146267, 25.120758056439286 ], [ 92.19002532980528, 25.132221221731982 ], [ 92.204452284645299, 25.13721661035828 ], [ 92.200988413584525, 25.146172240056956 ], [ 92.210118515357294, 25.152402758480605 ], [ 92.202312763323391, 25.16212914944083 ], [ 92.218453388912906, 25.162591068223321 ], [ 92.233926589840337, 25.197973342795592 ], [ 92.219269901384905, 25.229451667560511 ], [ 92.200457865737974, 25.233728515858445 ], [ 92.190886883023381, 25.273152781675719 ], [ 92.193974188158279, 25.299994585981494 ], [ 92.184087933711169, 25.303444421322979 ], [ 92.168931097192512, 25.34858631860385 ], [ 92.197393754118423, 25.370381481919935 ], [ 92.203906376378256, 25.361794087727048 ], [ 92.247820410383838, 25.377829033982778 ], [ 92.266356357759946, 25.426440161384448 ], [ 92.311870795600782, 25.444174947715624 ], [ 92.31390847769427, 25.457240486359524 ], [ 92.371817032929926, 25.450397785929056 ], [ 92.43329373651693, 25.457842797407125 ], [ 92.460436487254242, 25.472261697919123 ], [ 92.481027923300076, 25.467452876349171 ] ] ] } },
{ "type": "Feature", "properties": { "pincode": "793210", "state": "Meghalaya", "district": "East Jaintia Hills", "officename": "Lumshnong", "officetype": "S.O" }, "geometry": { "type": "Polygon", "coordinates": [ [ [ 92.340858459650178, 25.072902679714957 ], [ 92.327606201065464, 25.079542160342498 ], [ 92.303367614823685, 25.070598602243933 ], [ 92.270195006894141, 25.077774048233834 ], [ 92.218757629561026, 25.100652694966016 ], [ 92.211311340146267, 25.120758056439286 ], [ 92.282312363325104, 25.162992645194436 ], [ 92.294067073536723, 25.177266221558853 ], [ 92.315057626008695, 25.247794480131233 ], [ 92.354519866598821, 25.293134075377282 ], [ 92.365447160957785, 25.286310070053787 ], [ 92.393143421931484, 25.294819510112347 ], [ 92.436565817258725, 25.248804789309588 ], [ 92.422180521713926, 25.222577340671819 ], [ 92.435529396264712, 25.201285748238661 ], [ 92.425492548542366, 25.193917753801543 ], [ 92.431977209980403, 25.188975126600837 ], [ 92.42637738700688, 25.174459708149129 ], [ 92.439599406787295, 25.152562229863179 ], [ 92.39002102974689, 25.133444886972086 ], [ 92.385283492039662, 25.12033313936297 ], [ 92.355788688597215, 25.102250210179079 ], [ 92.340858459650178, 25.072902679714957 ] ] ] } },
{ "type": "Feature", "properties": { "pincode": "794001", "state": "Meghalaya", "district": "West Garo Hills", "officename": "Tura", "officetype": "H.O" }, "geometry": { "type": "Polygon", "coordinates": [ [ [ 90.228634026938892, 25.490489566340329 ], [ 90.238507148586223, 25.504354144528293 ], [ 90.25614547543347, 25.495098804965949 ], [ 90.245055759016168, 25.484394059538261 ], [ 90.228634026938892, 25.490489566340329 ] ] ] } },
{ "type": "Feature", "properties": { "pincode": "794002", "state": "Meghalaya", "district": "West Garo Hills", "officename": "Lower Chandmari", "officetype": "S.O" }, "geometry": { "type": "Polygon", "coordinates": [ [ [ 90.254004082622487, 25.530008473212604 ], [ 90.220555361241054, 25.554832052257382 ], [ 90.195942150709811, 25.559039438719196 ], [ 90.185090101726985, 25.532490141606786 ], [ 90.172977357019477, 25.537546589703425 ], [ 90.170342052943568, 25.522775886997692 ], [ 90.160540147709753, 25.522221979261133 ], [ 90.153502699090382, 25.509722187029467 ], [ 90.134984296588073, 25.520284164182954 ], [ 90.130296003957483, 25.533391116606822 ], [ 90.137550366356493, 25.55250164623402 ], [ 90.118722479259077, 25.590025135551684 ], [ 90.129420113747358, 25.601637709712634 ], [ 90.132825603518768, 25.624933201206318 ], [ 90.138740852008937, 25.632452374377522 ], [ 90.150588441503487, 25.623174628206584 ], [ 90.175730417424916, 25.621101037083235 ], [ 90.189439330161122, 25.637311155985174 ], [ 90.271103354036597, 25.662990797887176 ], [ 90.268195436670112, 25.719625999440382 ], [ 90.302700039475326, 25.700022756445094 ], [ 90.347762478955303, 25.724941040396743 ], [ 90.352701802046624, 25.752282935209337 ], [ 90.333313686777274, 25.784289637756672 ], [ 90.349751349445285, 25.784357179540393 ], [ 90.365228100896161, 25.771544964628447 ], [ 90.403657635591628, 25.774776665810521 ], [ 90.414793705765021, 25.75029293247303 ], [ 90.408997406105584, 25.725898258997631 ], [ 90.429843726207139, 25.690546460650637 ], [ 90.430547847704986, 25.67465275382159 ], [ 90.417870352135196, 25.600523277927039 ], [ 90.407396991478095, 25.579635286839107 ], [ 90.416214101299886, 25.539806930445593 ], [ 90.405553053030985, 25.515274640912082 ], [ 90.359881211348863, 25.469594949047803 ], [ 90.335713200303985, 25.490285467000774 ], [ 90.325633888393384, 25.515735729620246 ], [ 90.294640004133043, 25.512207969822043 ], [ 90.272465517569685, 25.492805294528921 ], [ 90.249757472229589, 25.486122157211753 ], [ 90.25614547543347, 25.495098804965949 ], [ 90.246129242870325, 25.504755867189431 ], [ 90.254004082622487, 25.530008473212604 ] ] ] } },
{ "type": "Feature", "properties": { "pincode": "794103", "state": "Meghalaya", "district": "South Garo Hills, West Garo Hills", "officename": "Barengapara", "officetype": "S.O" }, "geometry": { "type": "Polygon", "coordinates": [ [ [ 90.31838226353068, 25.187364578412712 ], [ 90.107772826854728, 25.226512908843802 ], [ 90.008483886821978, 25.274656296151306 ], [ 90.011280486105704, 25.314892701936799 ], [ 90.172754720853789, 25.378942264274201 ], [ 90.214899353122803, 25.357415150189127 ], [ 90.215202551456628, 25.342861607677207 ], [ 90.199436214709749, 25.337404029572383 ], [ 90.198223419575186, 25.325276078228569 ], [ 90.212170563620532, 25.327095270930101 ], [ 90.221266527128648, 25.346196794746277 ], [ 90.241277647745392, 25.354989559920398 ], [ 90.30124362968985, 25.348399876553231 ], [ 90.324734432348293, 25.331781646206025 ], [ 90.317190198668925, 25.308220166727494 ], [ 90.34331536381319, 25.318021698742484 ], [ 90.369957841481323, 25.308538783038387 ], [ 90.376957136362762, 25.321747130425763 ], [ 90.405292992477825, 25.327956182032324 ], [ 90.35245960382781, 25.289347167837718 ], [ 90.372328570407376, 25.289460059734097 ], [ 90.392197536986941, 25.307409864074032 ], [ 90.389488132371639, 25.292395248142327 ], [ 90.412969638737991, 25.293862841896782 ], [ 90.42916961958241, 25.284097696451624 ], [ 90.442716642659093, 25.250455923002505 ], [ 90.417880434434664, 25.265583431730136 ], [ 90.41110692244672, 25.262196676635426 ], [ 90.443845560724071, 25.238940954061832 ], [ 90.458069934280218, 25.244585547085535 ], [ 90.454683179185565, 25.25564894844041 ], [ 90.462811392132153, 25.268744403931237 ], [ 90.454457395392637, 25.280485156664838 ], [ 90.477261550380263, 25.270324889582071 ], [ 90.467552849984145, 25.263551378493503 ], [ 90.479067819824138, 25.257906785469913 ], [ 90.468455985155742, 25.242327710055861 ], [ 90.513662907916853, 25.275520764071985 ], [ 90.487709016857821, 25.250940295158728 ], [ 90.491779000400697, 25.222994156654977 ], [ 90.47550434255146, 25.226821068737479 ], [ 90.463167154041003, 25.211331268123558 ], [ 90.465388377871477, 25.199590514490808 ], [ 90.488235248857677, 25.198828952394422 ], [ 90.503739936848774, 25.17058684250884 ], [ 90.470375061060338, 25.153120040657541 ], [ 90.443176269968944, 25.145576476972906 ], [ 90.360404968414684, 25.159149170298065 ], [ 90.31838226353068, 25.187364578412712 ] ] ] } },
{ "type": "Feature", "properties": { "pincode": "794104", "state": "Meghalaya", "district": "West Garo Hills", "officename": "Fulbari (West Garo Hills)", "officetype": "S.O" }, "geometry": { "type": "Polygon", "coordinates": [ [ [ 90.192228681808388, 25.637136154210339 ], [ 90.175730417424916, 25.621101037083235 ], [ 90.145770057442292, 25.625383053785015 ], [ 90.117620756692588, 25.6800621552444 ], [ 90.073136732374394, 25.708017506402825 ], [ 90.074708216711031, 25.716569259563869 ], [ 90.086358673014388, 25.71824850786254 ], [ 90.07987819792055, 25.732307585127046 ], [ 89.955142620435652, 25.724278829104719 ], [ 89.896759000127759, 25.735097999772847 ], [ 89.899558999748194, 25.744219000406588 ], [ 89.925979999577407, 25.73926899966483 ], [ 89.937606999763375, 25.744637999943848 ], [ 89.959366000440696, 25.774531999851888 ], [ 89.948760999720434, 25.824531999752139 ], [ 89.972129999999481, 25.826192999907164 ], [ 90.00574499973203, 25.842272000352523 ], [ 90.004416999644889, 25.84862500014367 ], [ 90.012466000305722, 25.846856999550994 ], [ 90.026054000092245, 25.865539999571467 ], [ 90.008941999673652, 25.878696000120499 ], [ 90.025443999840832, 25.893201999972291 ], [ 90.046257000060677, 25.890742999889653 ], [ 90.067474000025072, 25.915535000140267 ], [ 90.096085000122685, 25.928720000227884 ], [ 90.092133000437684, 25.936171000291608 ], [ 90.109505000255524, 25.941883000200392 ], [ 90.122817999950882, 25.96120800014927 ], [ 90.136988993347416, 25.95796814931083 ], [ 90.157282199813778, 25.920977644103175 ], [ 90.197991831557772, 25.902293012712448 ], [ 90.223351291429026, 25.837475146960514 ], [ 90.263224080627026, 25.829761301143321 ], [ 90.284980208869626, 25.799449558950073 ], [ 90.328467571221495, 25.787892544005729 ], [ 90.352701802046624, 25.752282935209337 ], [ 90.346602406575983, 25.723239699352689 ], [ 90.302700039475326, 25.700022756445094 ], [ 90.288593915077172, 25.702970584824754 ], [ 90.281568368985234, 25.716897987851837 ], [ 90.243077433976509, 25.724235197596329 ], [ 90.21940556811262, 25.747329699605984 ], [ 90.183031727132686, 25.743288161619375 ], [ 90.176969419703084, 25.711821902159102 ], [ 90.192228681808388, 25.637136154210339 ] ] ] } },
{ "type": "Feature", "properties": { "pincode": "794105", "state": "Meghalaya", "district": "West Garo Hills", "officename": "Garobadha", "officetype": "S.O" }, "geometry": { "type": "Polygon", "coordinates": [ [ [ 89.896759000127759, 25.735097999772847 ], [ 89.955142620435652, 25.724278829104719 ], [ 90.07987819792055, 25.732307585127046 ], [ 90.086358673014388, 25.71824850786254 ], [ 90.074708216711031, 25.716569259563869 ], [ 90.073136732374394, 25.708017506402825 ], [ 90.117620756692588, 25.6800621552444 ], [ 90.138740852008937, 25.632452374377522 ], [ 90.118722479259077, 25.590025135551684 ], [ 90.137550366356493, 25.55250164623402 ], [ 90.132945989465895, 25.535825444688669 ], [ 90.119938904057278, 25.53369370160317 ], [ 90.100361721616252, 25.544308425793247 ], [ 90.097339880830873, 25.534137878560387 ], [ 90.082346763192561, 25.5541533626876 ], [ 90.061033462924115, 25.566102046772244 ], [ 90.026259755983119, 25.572159819819888 ], [ 90.022127088794207, 25.566618289102905 ], [ 89.995571691580437, 25.580647919865783 ], [ 90.022300999691481, 25.608495999890522 ], [ 90.008430000344276, 25.623923999992712 ], [ 89.987228000172081, 25.626814000166121 ], [ 89.984374999906493, 25.637671999963004 ], [ 89.950920000357883, 25.6589390004346 ], [ 89.941054999588573, 25.686736999912682 ], [ 89.925194000203021, 25.694525000228623 ], [ 89.896759000127759, 25.735097999772847 ] ] ] } },
{ "type": "Feature", "properties": { "pincode": "794107", "state": "Meghalaya", "district": "East Garo Hills, North Garo Hills", "officename": "Nangwalbibra", "officetype": "S.O" }, "geometry": { "type": "Polygon", "coordinates": [ [ [ 91.004653999582615, 25.825276999933692 ], [ 90.918229358698056, 25.729114645624577 ], [ 90.849106311507114, 25.731491369431296 ], [ 90.888520312462504, 25.754070244246464 ], [ 90.920453565579692, 25.785604079664722 ], [ 90.923150089205421, 25.846388807997187 ], [ 90.951947686036817, 25.836913293713565 ], [ 90.95475292690611, 25.829514367094475 ], [ 90.978532543242409, 25.833593306086186 ], [ 91.004653999582615, 25.825276999933692 ] ] ] } },
{ "type": "Feature", "properties": { "pincode": "794106", "state": "Meghalaya", "district": "South West Garo Hills", "officename": "Mahendraganj (West Garo Hills)", "officetype": "S.O" }, "geometry": { "type": "Polygon", "coordinates": [ [ [ 89.828430175712185, 25.437641143723908 ], [ 89.881946613845287, 25.411659579626075 ], [ 89.893663058803327, 25.386337028831008 ], [ 89.907253290706876, 25.383257821191535 ], [ 89.930760041043186, 25.348790238978495 ], [ 89.937283768131465, 25.325172854943332 ], [ 89.947948729350514, 25.320319740863511 ], [ 89.945444639058962, 25.301942180287426 ], [ 89.92234039289491, 25.29794883696934 ], [ 89.902534484978673, 25.305952072030721 ], [ 89.867248534992029, 25.281459808623424 ], [ 89.834480285636687, 25.296781540335985 ], [ 89.815673828484591, 25.371641158712691 ], [ 89.828430175712185, 25.437641143723908 ] ] ] } },
{ "type": "Feature", "properties": { "pincode": "794109", "state": "Meghalaya", "district": "West Garo Hills", "officename": "Tikrikilla", "officetype": "S.O" }, "geometry": { "type": "Polygon", "coordinates": [ [ [ 90.148855369679609, 25.929549254294727 ], [ 90.136988993347416, 25.95796814931083 ], [ 90.151542999909623, 25.964424000067595 ], [ 90.180214000076205, 25.957004999681089 ], [ 90.186583999752031, 25.944373999960305 ], [ 90.212509000090336, 25.961488999617814 ], [ 90.216811999774166, 25.953803999554964 ], [ 90.290587999836532, 25.963792999747113 ], [ 90.328299999645367, 25.974250999983781 ], [ 90.343307000118045, 25.996700000105022 ], [ 90.36896499983493, 26.010144999592114 ], [ 90.400429000198301, 26.013953999877231 ], [ 90.414963000442299, 26.005676000347307 ], [ 90.433954984135369, 25.977883605444106 ], [ 90.417838320082637, 25.941020718531377 ], [ 90.421440906173075, 25.885424491147432 ], [ 90.410048227044115, 25.818065681785868 ], [ 90.389599549379682, 25.805124418657044 ], [ 90.368388823085922, 25.813559032423598 ], [ 90.341698770381981, 25.78212193078258 ], [ 90.284980208869626, 25.799449558950073 ], [ 90.263224080627026, 25.829761301143321 ], [ 90.225429339592438, 25.835780665944924 ], [ 90.197991831557772, 25.902293012712448 ], [ 90.148855369679609, 25.929549254294727 ] ] ] } },
{ "type": "Feature", "properties": { "pincode": "794112", "state": "Meghalaya", "district": "East Garo Hills", "officename": "Mendipathar", "officetype": "S.O" }, "geometry": { "type": "Polygon", "coordinates": [ [ [ 90.414987810938896, 25.544634094587934 ], [ 90.466965884967806, 25.575925238958689 ], [ 90.510346613805382, 25.585302287370723 ], [ 90.548934847365331, 25.546609735151264 ], [ 90.585361600857311, 25.537552766247188 ], [ 90.579570710619976, 25.525659203409646 ], [ 90.595469365519023, 25.516889204573317 ], [ 90.59058971604253, 25.50920371887662 ], [ 90.60639338814434, 25.483720157959112 ], [ 90.625157485429725, 25.477608138704682 ], [ 90.665059515184566, 25.484267251532572 ], [ 90.669516807954494, 25.47468987104088 ], [ 90.695029088721583, 25.468087702385731 ], [ 90.683276200536397, 25.445336239576022 ], [ 90.649759578541818, 25.413307048581487 ], [ 90.634663098223541, 25.421284974022456 ], [ 90.630191211255408, 25.397419764710435 ], [ 90.610367431112138, 25.40713705902823 ], [ 90.596620311578192, 25.38885274555787 ], [ 90.584330620761534, 25.411481740489933 ], [ 90.57143428236634, 25.418162619609234 ], [ 90.536520467345724, 25.412965373653094 ], [ 90.432176071168783, 25.449297504975959 ], [ 90.35815791695444, 25.451570871498575 ], [ 90.360677699516373, 25.471134226863228 ], [ 90.405553053030985, 25.515274640912082 ], [ 90.414987810938896, 25.544634094587934 ] ] ] } },
{ "type": "Feature", "properties": { "pincode": "794114", "state": "Meghalaya", "district": "South Garo Hills", "officename": "Rongra", "officetype": "S.O" }, "geometry": { "type": "Polygon", "coordinates": [ [ [ 90.967378815779909, 25.166663494324894 ], [ 90.957336425535743, 25.159521102916642 ], [ 90.838874817219221, 25.153318405020514 ], [ 90.770790100283079, 25.180435180639108 ], [ 90.724990844452066, 25.156776427790021 ], [ 90.676170349482163, 25.160556793661158 ], [ 90.642541079307534, 25.185983828590849 ], [ 90.630128392711299, 25.212680393285552 ], [ 90.645794560270929, 25.243580732764713 ], [ 90.663517900031195, 25.225624678136512 ], [ 90.664000031975888, 25.252225475825128 ], [ 90.676081753670246, 25.249141160935949 ], [ 90.657140412600029, 25.29304080039276 ], [ 90.675909929200031, 25.313367207131137 ], [ 90.679431451300616, 25.333211656392905 ], [ 90.740043227413082, 25.357369114792846 ], [ 90.759998736652449, 25.387672379976379 ], [ 90.770676271292928, 25.373489627944025 ], [ 90.806624804890987, 25.37521839291469 ], [ 90.842413734006755, 25.355987072645235 ], [ 90.84810877539968, 25.310797871924308 ], [ 90.860906256718465, 25.293209874736078 ], [ 90.907307966589542, 25.288868826535179 ], [ 90.919955997671195, 25.26375083463347 ], [ 90.952409535571803, 25.24897784585113 ], [ 90.956415932549362, 25.231230513977152 ], [ 90.9448670699594, 25.209858405241278 ], [ 90.962273833970357, 25.200973152888878 ], [ 90.970327558769952, 25.182450037039587 ], [ 90.967378815779909, 25.166663494324894 ] ] ] } },
{ "type": "Feature", "properties": { "pincode": "794115", "state": "Meghalaya", "district": "South West Garo Hills", "officename": "Ampati", "officetype": "S.O" }, "geometry": { "type": "Polygon", "coordinates": [ [ [ 89.828430175712185, 25.437641143723908 ], [ 89.845006273720685, 25.477939568556224 ], [ 89.863457000440292, 25.475739000354622 ], [ 89.879387000309919, 25.491512000178716 ], [ 89.869796999631888, 25.524355000283151 ], [ 89.877753999647382, 25.549467000002096 ], [ 89.890311999599135, 25.558045999923081 ], [ 89.970313999891346, 25.571840000216014 ], [ 89.98304699981918, 25.590858000396508 ], [ 90.021704429915644, 25.566712213398091 ], [ 90.026259755983119, 25.572159819819888 ], [ 90.061033462924115, 25.566102046772244 ], [ 90.082346763192561, 25.5541533626876 ], [ 90.097339880830873, 25.534137878560387 ], [ 90.100361721616252, 25.544308425793247 ], [ 90.107135392784244, 25.539012083541024 ], [ 90.09719159161881, 25.526073756698736 ], [ 90.114381006578185, 25.518609931403319 ], [ 90.096060708534935, 25.510015223923574 ], [ 90.101262768561924, 25.492147278574123 ], [ 90.109631300144486, 25.493504338454613 ], [ 90.116416595049998, 25.508205811349114 ], [ 90.140843659407381, 25.511598459701247 ], [ 90.108191615051226, 25.448840490196517 ], [ 90.077321034138492, 25.445489792519879 ], [ 90.056962525200447, 25.420751181422133 ], [ 90.089375053116328, 25.391070215618015 ], [ 90.068757534932388, 25.364995119329478 ], [ 90.033283276801967, 25.356505553388558 ], [ 90.031160884867006, 25.342255210110011 ], [ 90.050408951412123, 25.32717472153621 ], [ 90.011280486105704, 25.314892701936799 ], [ 90.008483886821978, 25.274656296151306 ], [ 89.945444639058962, 25.301942180287426 ], [ 89.947948729350514, 25.320319740863511 ], [ 89.937283768131465, 25.325172854943332 ], [ 89.930760041043186, 25.348790238978495 ], [ 89.907253290706876, 25.383257821191535 ], [ 89.893663058803327, 25.386337028831008 ], [ 89.881946613845287, 25.411659579626075 ], [ 89.828430175712185, 25.437641143723908 ] ] ] } },
{ "type": "Feature", "properties": { "pincode": "793151", "state": "Meghalaya", "district": "Jaintia Hills", "officename": "Thadlaskein", "officetype": "S.O" }, "geometry": { "type": "Polygon", "coordinates": [ [ [ 92.279190131219707, 25.551346528219824 ], [ 92.260867745849907, 25.546962039166885 ], [ 92.168210759119404, 25.484240386085105 ], [ 92.128296980621258, 25.465708989278539 ], [ 92.108872206287344, 25.459235408387485 ], [ 92.097189552455973, 25.468404933740885 ], [ 92.111087389371619, 25.484085619955636 ], [ 92.098973687785588, 25.510795682574724 ], [ 92.117722768191129, 25.553007068821159 ], [ 92.108779756880267, 25.569801684100639 ], [ 92.126150928422589, 25.590529993364669 ], [ 92.124843409495838, 25.608803873799843 ], [ 92.139839108188426, 25.621249561917807 ], [ 92.136597830125766, 25.642795456545173 ], [ 92.155728925449637, 25.646647289740713 ], [ 92.155271478995587, 25.669175858279345 ], [ 92.172515999913514, 25.665185999834137 ], [ 92.230567999713628, 25.714453000105891 ], [ 92.23838000023693, 25.70661200004389 ], [ 92.272018000130686, 25.709114000310933 ], [ 92.309753000101125, 25.724281000068231 ], [ 92.334976000442111, 25.723326000094858 ], [ 92.386536000336207, 25.751597999847945 ], [ 92.388367000236883, 25.741141999703643 ], [ 92.412124999569187, 25.74113800041863 ], [ 92.418343000329344, 25.72767300000902 ], [ 92.434509000290234, 25.729419999633308 ], [ 92.44333599995656, 25.718814999812423 ], [ 92.428534999990291, 25.708384999967791 ], [ 92.435616000078426, 25.685485999779132 ], [ 92.466690000443293, 25.680375999752641 ], [ 92.490484493364875, 25.645003610528192 ], [ 92.470207902772529, 25.640383178041304 ], [ 92.462210914402192, 25.649317313043582 ], [ 92.456301280379876, 25.635444729091091 ], [ 92.443825186183574, 25.646683439789001 ], [ 92.441028601289077, 25.637791039624858 ], [ 92.421677954474205, 25.628063870751078 ], [ 92.417575178052118, 25.612700779217562 ], [ 92.379750403258583, 25.594854514724204 ], [ 92.357165348302374, 25.593573730843104 ], [ 92.310663686879707, 25.545071043693838 ], [ 92.279190131219707, 25.551346528219824 ] ] ] } },
{ "type": "Feature", "properties": { "pincode": "794110", "state": "Meghalaya", "district": "East Garo Hills, North Garo Hills", "officename": "Rongjeng", "officetype": "S.O" }, "geometry": { "type": "Polygon", "coordinates": [ [ [ 90.942807883277226, 25.7492761418805 ], [ 90.97475910394968, 25.743199646746234 ], [ 90.975473973245357, 25.733331135923322 ], [ 90.952028292271962, 25.70399849103768 ], [ 90.950346174236699, 25.68824270064033 ], [ 90.91761716949685, 25.653998930906027 ], [ 90.913049664810217, 25.637427461708114 ], [ 90.877872586750527, 25.602142208696023 ], [ 90.877982497394498, 25.593206078997412 ], [ 90.867674481592132, 25.595264134332467 ], [ 90.862261895670088, 25.583322568381959 ], [ 90.845153458365587, 25.578356712592324 ], [ 90.833743483474962, 25.583962919853036 ], [ 90.826202492751008, 25.56972579211174 ], [ 90.812321836483591, 25.578708035447562 ], [ 90.804364611637652, 25.56250680994151 ], [ 90.795401413244747, 25.57357105755824 ], [ 90.787392382052872, 25.558246757382051 ], [ 90.727116312967723, 25.580844755381179 ], [ 90.728775288748636, 25.596216108986425 ], [ 90.757610432275783, 25.627613637759225 ], [ 90.756321206458665, 25.639053081634586 ], [ 90.729072293451622, 25.680078721655775 ], [ 90.688957167539343, 25.705932450722173 ], [ 90.708304699102712, 25.74761438629514 ], [ 90.712386346852611, 25.796556358089504 ], [ 90.72123179880856, 25.810196369267089 ], [ 90.723637593200351, 25.796037425886539 ], [ 90.790348342102391, 25.769198001186908 ], [ 90.791223637860583, 25.79907588974072 ], [ 90.773348244326144, 25.817746632900821 ], [ 90.757057784489234, 25.871965641201427 ], [ 90.762603472772071, 25.87949193340603 ], [ 90.799324341445299, 25.885123869371057 ], [ 90.774012117565178, 25.908098005218847 ], [ 90.781471000186627, 25.907897999593104 ], [ 90.795120000088104, 25.935347000064098 ], [ 90.813323999603028, 25.951750000162349 ], [ 90.839591999571269, 25.946830999950748 ], [ 90.840134000284024, 25.937774999616579 ], [ 90.846626000189872, 25.944376000052443 ], [ 90.876228000122239, 25.942477999759888 ], [ 90.88633000012959, 25.951295999910599 ], [ 90.922386000014001, 25.912833999689383 ], [ 90.919174000280123, 25.94267799998994 ], [ 90.935356000079423, 25.939177999565175 ], [ 90.94605299964644, 25.947073000318937 ], [ 90.963875000431131, 25.927192999957128 ], [ 90.970634000059192, 25.886668999974461 ], [ 91.032341000237068, 25.887486999925272 ], [ 91.02959400036292, 25.866071999823134 ], [ 91.016197000391287, 25.856648999651725 ], [ 91.004653999582615, 25.825276999933692 ], [ 90.978532543242409, 25.833593306086186 ], [ 90.95475292690611, 25.829514367094475 ], [ 90.951947686036817, 25.836913293713565 ], [ 90.923150089205421, 25.846388807997187 ], [ 90.918592764844334, 25.782812878111997 ], [ 90.888520312462504, 25.754070244246464 ], [ 90.848314070837773, 25.734660333907527 ], [ 90.909910825823999, 25.726143740641191 ], [ 90.942807883277226, 25.7492761418805 ] ] ] } },
{ "type": "Feature", "properties": { "pincode": "794108", "state": "Meghalaya", "district": "North Garo Hills", "officename": "Resubelpara", "officetype": "S.O" }, "geometry": { "type": "Polygon", "coordinates": [ [ [ 90.791223637860583, 25.79907588974072 ], [ 90.790348342102391, 25.769198001186908 ], [ 90.723637593200351, 25.796037425886539 ], [ 90.72123179880856, 25.810196369267089 ], [ 90.716204269311675, 25.803470506059227 ], [ 90.714092118856286, 25.809751373027609 ], [ 90.720409801371375, 25.835256089596896 ], [ 90.691235568466823, 25.836306389828223 ], [ 90.631347568535602, 25.75222839672324 ], [ 90.578031261034027, 25.739114048274814 ], [ 90.555165702135469, 25.747777492737271 ], [ 90.594176978584869, 25.786946225188331 ], [ 90.603747820105923, 25.811760163500935 ], [ 90.590981645986176, 25.820949709561603 ], [ 90.545935951882825, 25.799099152504027 ], [ 90.470881788563872, 25.80648519993224 ], [ 90.426089430782724, 25.743471648497859 ], [ 90.410482237165638, 25.734648010497324 ], [ 90.414793705765021, 25.75029293247303 ], [ 90.403657635591628, 25.774776665810521 ], [ 90.365228100896161, 25.771544964628447 ], [ 90.344311536548275, 25.787036695187453 ], [ 90.368388823085922, 25.813559032423598 ], [ 90.389599549379682, 25.805124418657044 ], [ 90.410048227044115, 25.818065681785868 ], [ 90.421440906173075, 25.885424491147432 ], [ 90.417838320082637, 25.941020718531377 ], [ 90.433954984135369, 25.977883605444106 ], [ 90.428645353500315, 25.989982040139068 ], [ 90.461379999687438, 25.999372000117887 ], [ 90.481154999703563, 26.01503600031117 ], [ 90.509528999663644, 25.995780999993258 ], [ 90.53819300040675, 25.957775000116271 ], [ 90.537459999879275, 25.936050000107514 ], [ 90.516219999753275, 25.896019000376612 ], [ 90.575019999873234, 25.938769999635895 ], [ 90.586135999876547, 25.959517000409221 ], [ 90.632614000136073, 25.937135999826637 ], [ 90.610092000245743, 25.912000999946429 ], [ 90.617775000216227, 25.899231000110717 ], [ 90.628356999875678, 25.898607000113088 ], [ 90.630912999935106, 25.916699999905177 ], [ 90.679207000302938, 25.936156999645789 ], [ 90.689605999617186, 25.950473999775397 ], [ 90.721268000118243, 25.954354999783334 ], [ 90.72890499976603, 25.948403999644995 ], [ 90.750937999589098, 25.956946999704371 ], [ 90.743774000169935, 25.940536000136376 ], [ 90.747597000201324, 25.932421000029308 ], [ 90.756104000399489, 25.933592000070917 ], [ 90.743988000146089, 25.914850000027627 ], [ 90.762398000167821, 25.921272000302679 ], [ 90.761154000356896, 25.910704000389273 ], [ 90.774012117565178, 25.908098005218847 ], [ 90.778097070323668, 25.898640281323935 ], [ 90.791790217944424, 25.898681774244722 ], [ 90.799324341445299, 25.885123869371057 ], [ 90.762603472772071, 25.87949193340603 ], [ 90.757057784489234, 25.871965641201427 ], [ 90.773348244326144, 25.817746632900821 ], [ 90.791223637860583, 25.79907588974072 ] ] ] } },
{ "type": "Feature", "properties": { "pincode": "793108", "state": "Meghalaya", "district": "East Khasi Hills", "officename": "Cherrapunjee", "officetype": "S.O" }, "geometry": { "type": "Polygon", "coordinates": [ [ [ 91.634782655695176, 25.229181362829763 ], [ 91.698313256152005, 25.258522637609701 ], [ 91.710275266390511, 25.285636527304064 ], [ 91.749593636137547, 25.29364404943351 ], [ 91.757585011839012, 25.289648361582692 ], [ 91.746018547717938, 25.274086209611028 ], [ 91.788829236779975, 25.249562552669772 ], [ 91.783434829753674, 25.213596268253241 ], [ 91.769364576614009, 25.2007648537151 ], [ 91.765926499008799, 25.184327609231843 ], [ 91.750430143236713, 25.177490119473475 ], [ 91.702058791280251, 25.187518251866038 ], [ 91.634782655695176, 25.229181362829763 ] ] ] } },
{ "type": "Feature", "properties": { "pincode": "794003", "state": "Meghalaya", "district": "West Garo Hills", "officename": "Dadenggre", "officetype": "S.O" }, "geometry": { "type": "Polygon", "coordinates": [ [ [ 90.192228681808388, 25.637136154210339 ], [ 90.176969419703084, 25.711821902159102 ], [ 90.183031727132686, 25.743288161619375 ], [ 90.21940556811262, 25.747329699605984 ], [ 90.243077433976509, 25.724235197596329 ], [ 90.267885835163213, 25.719098833044882 ], [ 90.274576262384699, 25.668351954279217 ], [ 90.222573937237541, 25.642620183174984 ], [ 90.192228681808388, 25.637136154210339 ] ] ] } },
{ "type": "Feature", "properties": { "pincode": "794005", "state": "Meghalaya", "district": "South Garo Hills, West Garo Hills", "officename": "Dobasipara", "officetype": "S.O" }, "geometry": { "type": "Polygon", "coordinates": [ [ [ 90.183740731049966, 25.49929455330124 ], [ 90.180164452827398, 25.456799951656592 ], [ 90.194679935130978, 25.44459853109754 ], [ 90.213402804795578, 25.44270520727963 ], [ 90.227497548273391, 25.458903643988037 ], [ 90.221814852773434, 25.485361983668838 ], [ 90.245055759016168, 25.484394059538261 ], [ 90.272465517569685, 25.492805294528921 ], [ 90.294640004133043, 25.512207969822043 ], [ 90.325633888393384, 25.515735729620246 ], [ 90.335713200303985, 25.490285467000774 ], [ 90.359881211348863, 25.469594949047803 ], [ 90.35815791695444, 25.451570871498575 ], [ 90.432176071168783, 25.449297504975959 ], [ 90.536520467345724, 25.412965373653094 ], [ 90.57143428236634, 25.418162619609234 ], [ 90.584330620761534, 25.411481740489933 ], [ 90.590405595142329, 25.397355967703788 ], [ 90.565892313679512, 25.364141819189626 ], [ 90.517976176059733, 25.33765108323098 ], [ 90.522286529499922, 25.311493045167936 ], [ 90.513662907916853, 25.275520764071985 ], [ 90.468455985155742, 25.242327710055861 ], [ 90.479067819824138, 25.257906785469913 ], [ 90.467552849984145, 25.263551378493503 ], [ 90.477261550380263, 25.270324889582071 ], [ 90.454457395392637, 25.280485156664838 ], [ 90.462585608339282, 25.265583431730136 ], [ 90.454683179185565, 25.25564894844041 ], [ 90.458069934280218, 25.244585547085535 ], [ 90.447683884303899, 25.238715170269074 ], [ 90.41110692244672, 25.262196676635426 ], [ 90.417880434434664, 25.265583431730136 ], [ 90.442716642659093, 25.250455923002505 ], [ 90.426008647381252, 25.288161802925003 ], [ 90.389488132371639, 25.292395248142327 ], [ 90.392197536986941, 25.307409864074032 ], [ 90.372328570407376, 25.289460059734097 ], [ 90.35245960382781, 25.289347167837718 ], [ 90.405292992477825, 25.327956182032324 ], [ 90.376957136362762, 25.321747130425763 ], [ 90.369957841481323, 25.308538783038387 ], [ 90.34331536381319, 25.318021698742484 ], [ 90.317190198668925, 25.308220166727494 ], [ 90.324734432348293, 25.331781646206025 ], [ 90.30124362968985, 25.348399876553231 ], [ 90.241277647745392, 25.354989559920398 ], [ 90.221266527128648, 25.346196794746277 ], [ 90.212170563620532, 25.327095270930101 ], [ 90.198223419575186, 25.325276078228569 ], [ 90.199436214709749, 25.337404029572383 ], [ 90.215202551456628, 25.342861607677207 ], [ 90.214899353122803, 25.357415150189127 ], [ 90.166690745181825, 25.379245462608196 ], [ 90.050408951412123, 25.32717472153621 ], [ 90.031160884867006, 25.342255210110011 ], [ 90.033283276801967, 25.356505553388558 ], [ 90.068757534932388, 25.364995119329478 ], [ 90.089375053116328, 25.391070215618015 ], [ 90.056962525200447, 25.420751181422133 ], [ 90.067832684730831, 25.438083289112683 ], [ 90.108191615051226, 25.448840490196517 ], [ 90.117773654030941, 25.475862569901778 ], [ 90.130439539353347, 25.481743159419295 ], [ 90.140617482610764, 25.504813163896586 ], [ 90.137677187851978, 25.512729341885802 ], [ 90.118678360318029, 25.509110517636429 ], [ 90.109631300144486, 25.493504338454613 ], [ 90.098322473803194, 25.493730514351796 ], [ 90.098774826497163, 25.514312577663475 ], [ 90.114381006578185, 25.518609931403319 ], [ 90.09719159161881, 25.528787874660793 ], [ 90.107135392784244, 25.539012083541024 ], [ 90.129588509102632, 25.534388391910909 ], [ 90.150123808566889, 25.509581400861123 ], [ 90.160540147709753, 25.522221979261133 ], [ 90.168409733622468, 25.520907272952343 ], [ 90.183740731049966, 25.49929455330124 ] ] ] } },
{ "type": "Feature", "properties": { "pincode": "794101", "state": "Meghalaya", "district": "West Garo Hills", "officename": "Araimile", "officetype": "S.O" }, "geometry": { "type": "Polygon", "coordinates": [ [ [ 90.183740731049966, 25.49929455330124 ], [ 90.168409733622468, 25.520907272952343 ], [ 90.172977357019477, 25.537546589703425 ], [ 90.185090101726985, 25.532490141606786 ], [ 90.195942150709811, 25.559039438719196 ], [ 90.220555361241054, 25.554832052257382 ], [ 90.254004082622487, 25.530008473212604 ], [ 90.246129242870325, 25.504755867189431 ], [ 90.221814852773434, 25.485361983668838 ], [ 90.227497548273391, 25.458903643988037 ], [ 90.221186469480131, 25.445860746676146 ], [ 90.194679935130978, 25.44459853109754 ], [ 90.180164452827398, 25.456799951656592 ], [ 90.183740731049966, 25.49929455330124 ] ] ] } },
{ "type": "Feature", "properties": { "pincode": "794102", "state": "Meghalaya", "district": "South Garo Hills", "officename": "Baghmara", "officetype": "S.O" }, "geometry": { "type": "Polygon", "coordinates": [ [ [ 90.47550434255146, 25.226821068737479 ], [ 90.491779000400697, 25.222994156654977 ], [ 90.487709016857821, 25.250940295158728 ], [ 90.514430699617321, 25.272626779901998 ], [ 90.522286529499922, 25.311493045167936 ], [ 90.517976176059733, 25.33765108323098 ], [ 90.565892313679512, 25.364141819189626 ], [ 90.590405595142329, 25.397355967703788 ], [ 90.596620311578192, 25.38885274555787 ], [ 90.610367431112138, 25.40713705902823 ], [ 90.630191211255408, 25.397419764710435 ], [ 90.63557940396646, 25.421544647867393 ], [ 90.642973352838112, 25.411392581702387 ], [ 90.649759578541818, 25.413307048581487 ], [ 90.685141449318508, 25.447593586474909 ], [ 90.698072386431591, 25.472035231540872 ], [ 90.718555466761416, 25.481743492168619 ], [ 90.777957503635832, 25.561367301459768 ], [ 90.787392382052872, 25.558246757382051 ], [ 90.773598661449114, 25.521116448065811 ], [ 90.784703550328686, 25.508582097585816 ], [ 90.791510534183999, 25.457782058995008 ], [ 90.771965006979428, 25.446584410442426 ], [ 90.782376882786991, 25.440988596646605 ], [ 90.77555588569561, 25.429581333212127 ], [ 90.755726950638291, 25.432934972571047 ], [ 90.757506056059697, 25.387454152287489 ], [ 90.741325390854286, 25.358709448182537 ], [ 90.68059165767886, 25.33416750622564 ], [ 90.675909929200031, 25.313367207131137 ], [ 90.658399144205248, 25.29827966877167 ], [ 90.658152198465302, 25.280116207097421 ], [ 90.676346391772597, 25.250042627865014 ], [ 90.664000031975888, 25.252225475825128 ], [ 90.665013656954841, 25.226276486970221 ], [ 90.646618485854503, 25.244215061476098 ], [ 90.632442777312406, 25.223534869538696 ], [ 90.632508955723779, 25.198284547793719 ], [ 90.644567019852275, 25.18389128695344 ], [ 90.619178771783083, 25.166818618384639 ], [ 90.589393615922802, 25.173686980969421 ], [ 90.503739936848774, 25.17058684250884 ], [ 90.488235248857677, 25.198828952394422 ], [ 90.462659446276632, 25.203842571177631 ], [ 90.47550434255146, 25.226821068737479 ] ] ] } },
{ "type": "Feature", "properties": { "pincode": "781131", "state": "Meghalaya", "district": "Ribhoi", "officename": "Rani (Kamrup)", "officetype": "S.O" }, "geometry": { "type": "Polygon", "coordinates": [ [ [ 91.45805823802948, 25.777178406715507 ], [ 91.456969022750968, 25.788477420806942 ], [ 91.419488787651119, 25.785341739654541 ], [ 91.411563038826046, 25.797688484191895 ], [ 91.397375822067318, 25.793150544166735 ], [ 91.385998964309749, 25.800251007080192 ], [ 91.374637365341243, 25.791996836662406 ], [ 91.35015797615057, 25.816122174262944 ], [ 91.351273059845084, 25.83953499794012 ], [ 91.421524047851676, 25.853847980499438 ], [ 91.446990966796875, 25.840129971504211 ], [ 91.471305966377429, 25.858118057250977 ], [ 91.510429024696464, 25.863845944404545 ], [ 91.527945995330811, 25.871922969818229 ], [ 91.532302975654716, 25.888707995414677 ], [ 91.528357982635555, 25.889145016670284 ], [ 91.519806027412415, 25.873705029487667 ], [ 91.51034498214733, 25.866489052772636 ], [ 91.477355957031307, 25.87031197547924 ], [ 91.48598504066473, 25.890128970146179 ], [ 91.505859017372245, 25.891211986541634 ], [ 91.511154055595398, 25.908807992935294 ], [ 91.533928036689815, 25.922749996185303 ], [ 91.538512945175171, 25.933029055595341 ], [ 91.505965948104972, 25.913375973701534 ], [ 91.52242302894598, 25.939936041832027 ], [ 91.521155953407231, 25.957193017006034 ], [ 91.553902029991264, 25.973906993866137 ], [ 91.578544974327031, 26.032104015350342 ], [ 91.590819954872131, 26.029137015342712 ], [ 91.599724054336434, 26.016026973724365 ], [ 91.622925043106079, 26.025984048843441 ], [ 91.634788990020922, 26.02134895324707 ], [ 91.627303957939148, 25.984830975532589 ], [ 91.640494942665157, 25.963780999183768 ], [ 91.632637023925838, 25.943572998046932 ], [ 91.613479971885681, 25.94354796409624 ], [ 91.635306954383907, 25.924703955650273 ], [ 91.616669058799687, 25.90766346454626 ], [ 91.61804735660553, 25.887962818145809 ], [ 91.590470910072327, 25.855454683303833 ], [ 91.573621511459407, 25.797339677810783 ], [ 91.483511328697148, 25.787560701370239 ], [ 91.45805823802948, 25.777178406715507 ] ], [ [ 91.508428812026978, 25.8711354732514 ], [ 91.514339566230774, 25.871271371841374 ], [ 91.510862350463867, 25.874044299125615 ], [ 91.508428812026978, 25.8711354732514 ] ] ] } },
{ "type": "Feature", "properties": { "pincode": "793004", "state": "Meghalaya", "district": "East Khasi Hills", "officename": "Laban", "officetype": "S.O" }, "geometry": { "type": "Polygon", "coordinates": [ [ [ 91.89103226982354, 25.562546699370841 ], [ 91.876708566147386, 25.561534790298424 ], [ 91.874025934349447, 25.569806239166837 ], [ 91.886753131851606, 25.588955788578971 ], [ 91.880898447305697, 25.617713670449632 ], [ 91.894297941097193, 25.608975772913823 ], [ 91.89103226982354, 25.562546699370841 ] ] ] } },
{ "type": "Feature", "properties": { "pincode": "793009", "state": "Meghalaya", "district": "East Khasi Hills", "officename": "Nonglyer", "officetype": "S.O" }, "geometry": { "type": "Polygon", "coordinates": [ [ [ 91.846248121054032, 25.581229141811605 ], [ 91.867319354404742, 25.578748345759607 ], [ 91.876708566147386, 25.561534790298424 ], [ 91.87760277734634, 25.506764388765703 ], [ 91.865416005844224, 25.482650594249549 ], [ 91.836540681507245, 25.495559891875587 ], [ 91.843651021077903, 25.510218318720547 ], [ 91.816174588586534, 25.543934778167511 ], [ 91.846248121054032, 25.581229141811605 ] ] ] } },
{ "type": "Feature", "properties": { "pincode": "793010", "state": "Meghalaya", "district": "East Khasi Hills", "officename": "Laitkor Peak", "officetype": "S.O" }, "geometry": { "type": "Polygon", "coordinates": [ [ [ 91.915484215724121, 25.56053947821448 ], [ 91.922760962248788, 25.548156808290173 ], [ 91.942032264577449, 25.547745088764884 ], [ 91.916804341347529, 25.499848476326179 ], [ 91.906346951750606, 25.498613631614035 ], [ 91.907401375373126, 25.484307932365311 ], [ 91.876882846666149, 25.475031787886678 ], [ 91.865416005844224, 25.482650594249549 ], [ 91.87760277734634, 25.506764388765703 ], [ 91.876708566147386, 25.561534790298424 ], [ 91.915484215724121, 25.56053947821448 ] ] ] } },
{ "type": "Feature", "properties": { "pincode": "793011", "state": "Meghalaya", "district": "East Khasi Hills", "officename": "Assam Rifles", "officetype": "S.O" }, "geometry": { "type": "Polygon", "coordinates": [ [ [ 91.922716902663126, 25.602031231456181 ], [ 91.922425019599075, 25.613633588419532 ], [ 91.936926008428713, 25.619014460648941 ], [ 91.942723452025689, 25.60645333285521 ], [ 91.922716902663126, 25.602031231456181 ] ] ] } },
{ "type": "Feature", "properties": { "pincode": "793012", "state": "Meghalaya", "district": "East Khasi Hills", "officename": "Mawpat", "officetype": "S.O" }, "geometry": { "type": "Polygon", "coordinates": [ [ [ 92.127713431229893, 25.610810882716237 ], [ 92.115777081347346, 25.573576250243832 ], [ 92.100209057701989, 25.584584480889077 ], [ 92.042437119377553, 25.595289823466828 ], [ 92.013003119998075, 25.609268229745169 ], [ 92.015289136384581, 25.625632389922885 ], [ 92.038173093613636, 25.655854394164976 ], [ 92.066316412972128, 25.658327000091049 ], [ 92.084885103764577, 25.635006177393166 ], [ 92.127713431229893, 25.610810882716237 ] ] ] } },
{ "type": "Feature", "properties": { "pincode": "793014", "state": "Meghalaya", "district": "East Khasi Hills", "officename": "Nongthymmai", "officetype": "S.O" }, "geometry": { "type": "Polygon", "coordinates": [ [ [ 91.929988558125558, 25.582151949652939 ], [ 91.919552813411713, 25.59644303132103 ], [ 91.933401612094826, 25.601389292681688 ], [ 91.941521133993206, 25.583066328148675 ], [ 91.929988558125558, 25.582151949652939 ] ] ] } },
{ "type": "Feature", "properties": { "pincode": "793015", "state": "Meghalaya", "district": "East Khasi Hills", "officename": "Smit", "officetype": "S.O" }, "geometry": { "type": "Polygon", "coordinates": [ [ [ 91.916804341347529, 25.499848476326179 ], [ 91.934815431786888, 25.539713452214187 ], [ 92.105275255348829, 25.525264748169775 ], [ 92.098973687785588, 25.510795682574724 ], [ 92.110480088885083, 25.47915973723218 ], [ 92.097189552455973, 25.468404933740885 ], [ 92.108872206287344, 25.459235408387485 ], [ 92.116434925531621, 25.42300201902799 ], [ 92.104786177939843, 25.408372726620144 ], [ 92.115840827991917, 25.394134677973227 ], [ 92.109057496306605, 25.371488951154276 ], [ 92.121512303550105, 25.332112227097582 ], [ 92.113414032631681, 25.308454868197828 ], [ 92.07427962370582, 25.325270936804372 ], [ 92.058670611659522, 25.316881128161526 ], [ 92.05016191623946, 25.326513612813073 ], [ 92.007554542308412, 25.297694769497923 ], [ 92.003897724400531, 25.321200817463819 ], [ 91.990338354531502, 25.32809071611382 ], [ 91.975771394134654, 25.324514680708091 ], [ 91.942859904361171, 25.354156710364123 ], [ 91.911253861476609, 25.394031204676423 ], [ 91.920986125909167, 25.417769249851119 ], [ 91.910067511806403, 25.434973976667834 ], [ 91.906346951750606, 25.498613631614035 ], [ 91.916804341347529, 25.499848476326179 ] ] ] } },
{ "type": "Feature", "properties": { "pincode": "793016", "state": "Meghalaya", "district": "East Khasi Hills", "officename": "Mawiong", "officetype": "S.O" }, "geometry": { "type": "Polygon", "coordinates": [ [ [ 91.944188728227402, 25.656311560929851 ], [ 91.992002506810422, 25.665901058886845 ], [ 92.038173093613636, 25.655854394164976 ], [ 92.015289136384581, 25.625632389922885 ], [ 92.013003119998075, 25.609268229745169 ], [ 91.98303135391393, 25.59002581094245 ], [ 91.962628009275249, 25.604907347895789 ], [ 91.942723452025689, 25.60645333285521 ], [ 91.936926008428713, 25.619014460648941 ], [ 91.944188728227402, 25.656311560929851 ] ] ] } },
{ "type": "Feature", "properties": { "pincode": "793017", "state": "Meghalaya", "district": "East Khasi Hills", "officename": "Mawlai", "officetype": "S.O" }, "geometry": { "type": "Polygon", "coordinates": [ [ [ 91.917106330093191, 25.667923097273331 ], [ 91.901440319015649, 25.608907964930779 ], [ 91.894299827874875, 25.608927187040194 ], [ 91.880898447305697, 25.617713670449632 ], [ 91.886709996769071, 25.649430486427832 ], [ 91.917106330093191, 25.667923097273331 ] ] ] } },
{ "type": "Feature", "properties": { "pincode": "793019", "state": "Meghalaya", "district": "East Khasi Hills", "officename": "Nongmynsong", "officetype": "S.O" }, "geometry": { "type": "Polygon", "coordinates": [ [ [ 91.920379923494863, 25.598281054027495 ], [ 91.930042885271007, 25.581530048672789 ], [ 91.919809892712465, 25.560065596650077 ], [ 91.899790234831528, 25.562651472187781 ], [ 91.903529996312272, 25.573899876678126 ], [ 91.894507397698419, 25.585993073721511 ], [ 91.920379923494863, 25.598281054027495 ] ] ] } },
{ "type": "Feature", "properties": { "pincode": "793021", "state": "Meghalaya", "district": "East Khasi Hills", "officename": "Madanriting", "officetype": "S.O" }, "geometry": { "type": "Polygon", "coordinates": [ [ [ 92.013003119998075, 25.609268229745169 ], [ 92.042437119377553, 25.595289823466828 ], [ 92.100209057701989, 25.584584480889077 ], [ 92.115777081347346, 25.573576250243832 ], [ 92.108325413986677, 25.566336780618087 ], [ 92.117722768191129, 25.553007068821159 ], [ 92.105275255348829, 25.525264748169775 ], [ 91.934815431786888, 25.539713452214187 ], [ 91.975327179405838, 25.573968690103129 ], [ 91.980030780296318, 25.587674010947012 ], [ 92.013003119998075, 25.609268229745169 ] ] ] } },
{ "type": "Feature", "properties": { "pincode": "793101", "state": "Meghalaya", "district": "Ribhoi", "officename": "Byrnihat", "officetype": "S.O" }, "geometry": { "type": "Polygon", "coordinates": [ [ [ 91.782080568563515, 26.086381996232319 ], [ 91.79290000003499, 26.08581899994698 ], [ 91.821853999762368, 26.117519000401671 ], [ 91.878249999637774, 26.096438999560235 ], [ 91.871757999732097, 26.055570999901875 ], [ 91.885597000301459, 26.028693999728489 ], [ 91.831765520662373, 26.006983061519122 ], [ 91.825827416801872, 25.987585256054842 ], [ 91.801283255318026, 25.98718938258412 ], [ 91.773512472023015, 25.975381310199339 ], [ 91.767340711704549, 25.959489028795758 ], [ 91.752837076170181, 25.951928622607909 ], [ 91.724068000438024, 25.963923000346426 ], [ 91.728965999681179, 26.045760999870367 ], [ 91.733825999870135, 26.058063999753927 ], [ 91.782080568563515, 26.086381996232319 ] ] ] } },
{ "type": "Feature", "properties": { "pincode": "793102", "state": "Meghalaya", "district": "Ribhoi", "officename": "Nongpoh", "officetype": "S.O" }, "geometry": { "type": "Polygon", "coordinates": [ [ [ 91.575253247839214, 25.800454862502136 ], [ 91.573488418256147, 25.813853516326787 ], [ 91.587829959085525, 25.838182541990932 ], [ 91.649886627366072, 25.845766741541979 ], [ 91.671745000431542, 25.904284000206587 ], [ 91.72261800012069, 25.952917000019625 ], [ 91.724068000438024, 25.963923000346426 ], [ 91.752837076170181, 25.951928622607909 ], [ 91.762866186125677, 25.955940266230527 ], [ 91.773512472023015, 25.975381310199339 ], [ 91.801283255318026, 25.98718938258412 ], [ 91.825827416801872, 25.987585256054842 ], [ 91.831765520662373, 26.006983061519122 ], [ 91.885597000301459, 26.028693999728489 ], [ 91.919280999618536, 26.020112999715195 ], [ 91.921852000369654, 25.998780999843405 ], [ 91.928108000184238, 25.998383000375156 ], [ 91.936233999899287, 26.013303999580103 ], [ 91.980422999821769, 26.024442999744622 ], [ 91.993316999979641, 26.039608000309101 ], [ 92.055030999580993, 26.031338000248695 ], [ 92.095490000163466, 26.046983999611996 ], [ 92.13521600021835, 26.044310000406313 ], [ 92.133704238060204, 26.022067944180321 ], [ 92.120725895883481, 26.016301891419232 ], [ 92.124176283408815, 25.984825841939141 ], [ 92.108396006270709, 25.962422151461226 ], [ 92.036702523103088, 25.937868924811141 ], [ 92.028509825168271, 25.918211169410085 ], [ 92.000772605471411, 25.898105818728709 ], [ 91.913553774187392, 25.863629147067513 ], [ 91.910518689985622, 25.850779091382037 ], [ 91.879524324588033, 25.831267769891838 ], [ 91.850283356591774, 25.824978389041576 ], [ 91.845435379439436, 25.851734146214028 ], [ 91.814579294698774, 25.846781934938519 ], [ 91.797481446911434, 25.796729669139097 ], [ 91.76667246416298, 25.794180759334665 ], [ 91.748049518170717, 25.802287833716605 ], [ 91.748231781971242, 25.81111465261921 ], [ 91.737593452376018, 25.810211011129411 ], [ 91.720409596126103, 25.773109461232707 ], [ 91.663814249827965, 25.801035793966832 ], [ 91.634683023402886, 25.789000732697673 ], [ 91.627181413091819, 25.802084540169631 ], [ 91.596331914986081, 25.799609594207482 ], [ 91.590236187849882, 25.79117686991674 ], [ 91.575253247839214, 25.800454862502136 ] ] ] } },
{ "type": "Feature", "properties": { "pincode": "793110", "state": "Meghalaya", "district": "East Khasi Hills", "officename": "Pynursla", "officetype": "S.O" }, "geometry": { "type": "Polygon", "coordinates": [ [ [ 91.82563940723287, 25.414943168992181 ], [ 91.801197453699558, 25.461352114808278 ], [ 91.822296526463731, 25.494735850279369 ], [ 91.85605768401507, 25.489485323089298 ], [ 91.876882846666149, 25.475031787886678 ], [ 91.907401375373126, 25.484307932365311 ], [ 91.910141365931338, 25.43456778077848 ], [ 91.920986125909167, 25.417769249851119 ], [ 91.914171051752817, 25.412657944009084 ], [ 91.913757351920367, 25.389660029186928 ], [ 91.974609166979576, 25.325187548966426 ], [ 91.990338354531502, 25.32809071611382 ], [ 92.008429580860593, 25.316584252961036 ], [ 92.009620514375229, 25.294386356145594 ], [ 91.993115470902353, 25.259673917317514 ], [ 92.01110694353082, 25.217196951378241 ], [ 92.028513481811785, 25.212663708163689 ], [ 92.01953125016712, 25.184999465752867 ], [ 91.978942871316519, 25.164638519651987 ], [ 91.949790954189325, 25.180082320842587 ], [ 91.752716064294987, 25.165393829661525 ], [ 91.75191914984913, 25.180835388842183 ], [ 91.765926499008799, 25.184327609231843 ], [ 91.769364576614009, 25.2007648537151 ], [ 91.784221745537195, 25.215170100719547 ], [ 91.78951704367671, 25.250594263014989 ], [ 91.829289971255321, 25.269528763841436 ], [ 91.840232460559662, 25.294541476607833 ], [ 91.82394494060668, 25.339226738623267 ], [ 91.830234695574916, 25.350588990989252 ], [ 91.808412393417427, 25.369333135016234 ], [ 91.823095454491806, 25.38978630209624 ], [ 91.82563940723287, 25.414943168992181 ] ] ] } },
{ "type": "Feature", "properties": { "pincode": "793022", "state": "Meghalaya", "district": "East Khasi Hills", "officename": "Nehu", "officetype": "S.O" }, "geometry": { "type": "Polygon", "coordinates": [ [ [ 91.930379993442102, 25.654458521343713 ], [ 91.944188728227402, 25.656311560929851 ], [ 91.944849181344694, 25.6360202960999 ], [ 91.936926008428713, 25.619014460648941 ], [ 91.915705449846712, 25.613701111317425 ], [ 91.907370498050227, 25.632503663613363 ], [ 91.930379993442102, 25.654458521343713 ] ] ] } },
{ "type": "Feature", "properties": { "pincode": "794111", "state": "Meghalaya", "district": "East Garo Hills", "officename": "Williamnagar", "officetype": "S.O" }, "geometry": { "type": "Polygon", "coordinates": [ [ [ 90.410482237165638, 25.734648010497324 ], [ 90.426089430782724, 25.743471648497859 ], [ 90.470881788563872, 25.80648519993224 ], [ 90.545935951882825, 25.799099152504027 ], [ 90.589528227345966, 25.821119274934517 ], [ 90.60329861593857, 25.805837643992163 ], [ 90.555155038874091, 25.745184654648142 ], [ 90.578031261034027, 25.739114048274814 ], [ 90.622844563126137, 25.74821599407295 ], [ 90.655140794312388, 25.781169464199479 ], [ 90.687644299444969, 25.834151628594782 ], [ 90.720409801371375, 25.835256089596896 ], [ 90.708304699102712, 25.74761438629514 ], [ 90.688931201413936, 25.704634148047546 ], [ 90.729072293451622, 25.680078721655775 ], [ 90.756321206458665, 25.639053081634586 ], [ 90.757610432275783, 25.627613637759225 ], [ 90.728775288748636, 25.596216108986425 ], [ 90.727116312967723, 25.580844755381179 ], [ 90.777957503635832, 25.561367301459768 ], [ 90.718555466761416, 25.481743492168619 ], [ 90.695029088721583, 25.468087702385731 ], [ 90.669516807954494, 25.47468987104088 ], [ 90.665059515184566, 25.484267251532572 ], [ 90.625157485429725, 25.477608138704682 ], [ 90.60639338814434, 25.483720157959112 ], [ 90.59058971604253, 25.50920371887662 ], [ 90.595469365519023, 25.516889204573317 ], [ 90.579570710619976, 25.525659203409646 ], [ 90.585361600857311, 25.537552766247188 ], [ 90.548934847365331, 25.546609735151264 ], [ 90.510346613805382, 25.585302287370723 ], [ 90.466965884967806, 25.575925238958689 ], [ 90.414987810938896, 25.544634094587934 ], [ 90.407396991478095, 25.579635286839107 ], [ 90.417870352135196, 25.600523277927039 ], [ 90.430547847704986, 25.67465275382159 ], [ 90.410482237165638, 25.734648010497324 ] ] ] } }
]
}
