{
"type": "FeatureCollection",
"name": "nagaland",
"crs": { "type": "name", "properties": { "name": "urn:ogc:def:crs:OGC:1.3:CRS84" } },
"features": [
{ "type": "Feature", "properties": { "pincode": "797003", "state": "Nagaland", "district": "Kohima", "officename": "Kohima Village", "officetype": "S.O" }, "geometry": { "type": "Polygon", "coordinates": [ [ [ 94.103107095616167, 25.691728403643026 ], [ 94.124330416915313, 25.714006303248425 ], [ 94.127334005060447, 25.751337327755664 ], [ 94.156851734919712, 25.751456311659638 ], [ 94.180231225790635, 25.763054565915638 ], [ 94.186995082657063, 25.744933372377375 ], [ 94.236626707656569, 25.723212290714685 ], [ 94.232217944102899, 25.700565754506044 ], [ 94.217396560103339, 25.683490261166753 ], [ 94.224830920011073, 25.664583161783526 ], [ 94.220466602751685, 25.637602901452794 ], [ 94.214715662198216, 25.637587764963371 ], [ 94.219139400363133, 25.607041500265098 ], [ 94.204455343739198, 25.588891399818351 ], [ 94.204694570598122, 25.561215673064964 ], [ 94.193962000146371, 25.547124999918992 ], [ 94.167015000342019, 25.541771000331494 ], [ 94.159263999933785, 25.550027999792405 ], [ 94.175619710980982, 25.579992140524951 ], [ 94.16631470366076, 25.598845919104008 ], [ 94.192222021529176, 25.623243833736069 ], [ 94.190516033688084, 25.643836690710884 ], [ 94.162666265635835, 25.639600994490479 ], [ 94.138711123219821, 25.66327547648217 ], [ 94.139042467635875, 25.680224885769974 ], [ 94.123675515312982, 25.678851803567909 ], [ 94.118249096018985, 25.68836922985605 ], [ 94.103107095616167, 25.691728403643026 ] ] ] } },
{ "type": "Feature", "properties": { "pincode": "797099", "state": "Nagaland", "district": "Wokha", "officename": "Bhandari", "officetype": "S.O" }, "geometry": { "type": "Polygon", "coordinates": [ [ [ 94.084739999551459, 26.284155000153305 ], [ 94.10835300029089, 26.321938999685074 ], [ 94.195371852928815, 26.294034836138906 ], [ 94.181735760097411, 26.273665723294471 ], [ 94.180128887438286, 26.249483193594699 ], [ 94.102548327043735, 26.270567568738443 ], [ 94.084739999551459, 26.284155000153305 ] ] ] } },
{ "type": "Feature", "properties": { "pincode": "797100", "state": "Nagaland", "district": "Wokha", "officename": "Doyang Hydel Project", "officetype": "S.O" }, "geometry": { "type": "Polygon", "coordinates": [ [ [ 94.084739999551459, 26.284155000153305 ], [ 94.102548327043735, 26.270567568738443 ], [ 94.180128887438286, 26.249483193594699 ], [ 94.181735760097411, 26.273665723294471 ], [ 94.195371852928815, 26.294034836138906 ], [ 94.135265261083021, 26.315436506489618 ], [ 94.119674999901463, 26.329230999611127 ], [ 94.175780999893334, 26.339652999986015 ], [ 94.180275000291147, 26.349548000340008 ], [ 94.164779999797247, 26.355587000040146 ], [ 94.175918999961993, 26.367207999949358 ], [ 94.174408000429025, 26.41640499969111 ], [ 94.186988999642779, 26.456033999769431 ], [ 94.277244999757045, 26.554299999645423 ], [ 94.290283000260274, 26.559550999878809 ], [ 94.285399999910226, 26.535712999555415 ], [ 94.294281000268143, 26.476077999600193 ], [ 94.317101000410958, 26.455093000441707 ], [ 94.296753842715702, 26.426737502234118 ], [ 94.319696947456237, 26.416215159102535 ], [ 94.315636098327445, 26.404350531951593 ], [ 94.358756341232265, 26.356342839750425 ], [ 94.350280999868289, 26.332700999551491 ], [ 94.367882000354143, 26.333234999895524 ], [ 94.355544999802021, 26.314923999942778 ], [ 94.359924000292381, 26.268294999914474 ], [ 94.338043000284415, 26.241856000154314 ], [ 94.360352000244688, 26.24136399994876 ], [ 94.387749000116287, 26.226304999775834 ], [ 94.381981000323094, 26.206077999600097 ], [ 94.334902528129192, 26.174777820640088 ], [ 94.328131416431916, 26.198396599523562 ], [ 94.318924222974488, 26.195547835963907 ], [ 94.318852747556377, 26.206752892232373 ], [ 94.29599680510853, 26.217269762089984 ], [ 94.297062700483366, 26.231813898592634 ], [ 94.281157596545995, 26.229060412807996 ], [ 94.274331444540735, 26.23581738626342 ], [ 94.2529380083825, 26.223976039862407 ], [ 94.255504189666681, 26.218965607376958 ], [ 94.22836238231821, 26.192315441404617 ], [ 94.205321277555015, 26.187430230520818 ], [ 94.198639820171763, 26.175041186201838 ], [ 94.205997047026187, 26.160383029153479 ], [ 94.195873122446812, 26.165384373989696 ], [ 94.174576359811283, 26.149435307593421 ], [ 94.179962150433084, 26.144208786006743 ], [ 94.16434961664163, 26.134616660230733 ], [ 94.168831692928279, 26.127722053629896 ], [ 94.156803726410942, 26.123154533654883 ], [ 94.158803994009247, 26.117277259937737 ], [ 94.127981316384762, 26.099046707040031 ], [ 94.119848492613926, 26.080890658477131 ], [ 94.105019882561692, 26.077215127476336 ], [ 94.092113849474629, 26.056316186243123 ], [ 94.097132014331123, 26.04521762499337 ], [ 94.090031328083398, 26.046523807527933 ], [ 94.069919233386031, 26.023291369301376 ], [ 94.057081499311835, 26.030548391894911 ], [ 94.041754238567307, 26.024798088960836 ], [ 94.017455159428096, 25.998826343660994 ], [ 94.015388952638091, 25.976920610497928 ], [ 93.972412580576304, 25.98015060656536 ], [ 93.958570616740701, 25.967077378718045 ], [ 93.954895000304077, 26.002896999896734 ], [ 93.965927000031172, 26.037968000223145 ], [ 93.991172999634387, 26.068185999784077 ], [ 93.986510999583118, 26.083863999723974 ], [ 94.002273999845329, 26.106941000027177 ], [ 93.991370999771902, 26.113700999701507 ], [ 93.998459000182834, 26.126560000044094 ], [ 93.990898000442428, 26.129471000286571 ], [ 94.005370999672039, 26.137439999956143 ], [ 93.999831999647199, 26.153840999962426 ], [ 94.004997000411322, 26.168880000111983 ], [ 94.035933999854308, 26.198763000412214 ], [ 94.049400000309788, 26.245796000185408 ], [ 94.070709000020486, 26.255587000239871 ], [ 94.077102999903673, 26.280767000396793 ], [ 94.084739999551459, 26.284155000153305 ] ] ] } },
{ "type": "Feature", "properties": { "pincode": "797001", "state": "Nagaland", "district": "Kohima", "officename": "Kohima", "officetype": "H.O" }, "geometry": { "type": "Polygon", "coordinates": [ [ [ 94.084054657696527, 25.657787262072475 ], [ 94.079464693341095, 25.683904763194278 ], [ 94.096655781039544, 25.687618346309819 ], [ 94.10137023674713, 25.673304000978874 ], [ 94.109145458596061, 25.687827932413313 ], [ 94.118249096018985, 25.68836922985605 ], [ 94.123675515312982, 25.678851803567909 ], [ 94.139074577929534, 25.680151785276678 ], [ 94.135699107527842, 25.660176447785034 ], [ 94.11653469771818, 25.658808753421397 ], [ 94.105135167554067, 25.668431912103074 ], [ 94.097530747645919, 25.657347668959801 ], [ 94.084054657696527, 25.657787262072475 ] ] ] } },
{ "type": "Feature", "properties": { "pincode": "797004", "state": "Nagaland", "district": "Kohima", "officename": "New Sectt Complex", "officetype": "S.O" }, "geometry": { "type": "Polygon", "coordinates": [ [ [ 94.086129711117394, 25.684254639939809 ], [ 94.069410325026638, 25.680477724767229 ], [ 94.045837437647663, 25.688675153135819 ], [ 94.055081433161774, 25.703201282513248 ], [ 94.043216008312186, 25.744517550144735 ], [ 94.063120731037031, 25.765514436541935 ], [ 94.088313925147645, 25.774462749356587 ], [ 94.119576020517115, 25.763945289543472 ], [ 94.127334005060447, 25.751337327755664 ], [ 94.124330416915313, 25.714006303248425 ], [ 94.086129711117394, 25.684254639939809 ] ] ] } },
{ "type": "Feature", "properties": { "pincode": "797114", "state": "Nagaland", "district": "Phek", "officename": "Meluri", "officetype": "S.O" }, "geometry": { "type": "Polygon", "coordinates": [ [ [ 94.631439000009948, 25.459236000141289 ], [ 94.556037999654052, 25.506574999636598 ], [ 94.563347000363933, 25.561775000116313 ], [ 94.554436000421219, 25.57968300037021 ], [ 94.593941000177097, 25.637683999617082 ], [ 94.574867000112022, 25.638583999751916 ], [ 94.584144999892033, 25.668729999590028 ], [ 94.59575700028546, 25.680777000258331 ], [ 94.571876999823758, 25.691585999594281 ], [ 94.586503958490994, 25.757712964381938 ], [ 94.613448999571631, 25.779244999557079 ], [ 94.631507999594703, 25.767335999856527 ], [ 94.663055000188194, 25.775250999733942 ], [ 94.715477000263434, 25.757642999824611 ], [ 94.724854000112202, 25.720949000196299 ], [ 94.72598300001556, 25.747448000025372 ], [ 94.75473000008941, 25.779821000039192 ], [ 94.788475000421101, 25.776417000444326 ], [ 94.833701999647701, 25.752426000259788 ], [ 94.861243999910698, 25.716566000420698 ], [ 94.85032700009117, 25.649982000169189 ], [ 94.854836000281296, 25.610573000343777 ], [ 94.871414000356026, 25.606295000014313 ], [ 94.883779050762712, 25.587378861545403 ], [ 94.878036499085169, 25.581796646398175 ], [ 94.891632080156626, 25.56707000687544 ], [ 94.849441528503917, 25.560691833261615 ], [ 94.807716369714683, 25.504467010344342 ], [ 94.778396606718218, 25.482660293437846 ], [ 94.76853942915136, 25.47967338591809 ], [ 94.749053955076079, 25.495040893122848 ], [ 94.668182000099421, 25.448831999697234 ], [ 94.631439000009948, 25.459236000141289 ] ] ] } },
{ "type": "Feature", "properties": { "pincode": "797006", "state": "Nagaland", "district": "Kohima", "officename": "Kohima PWD", "officetype": "S.O" }, "geometry": { "type": "Polygon", "coordinates": [ [ [ 94.083754346186311, 25.657780192501946 ], [ 94.098808806581246, 25.656489641983569 ], [ 94.105135167554067, 25.668431912103074 ], [ 94.11653469771818, 25.658808753421397 ], [ 94.142394483718533, 25.664438363739578 ], [ 94.162666265635835, 25.639600994490479 ], [ 94.190516033688084, 25.643836690710884 ], [ 94.192222021529176, 25.623243833736069 ], [ 94.16631470366076, 25.598845919104008 ], [ 94.17446409923889, 25.575858571316076 ], [ 94.137847999785379, 25.518507000397733 ], [ 94.091292999572318, 25.527642999924581 ], [ 94.095374999856404, 25.536636000051431 ], [ 94.085167000356819, 25.554680000281905 ], [ 94.068656999820689, 25.553969999915694 ], [ 94.045295999910536, 25.576007999969136 ], [ 94.07047005554864, 25.605740811689031 ], [ 94.070866259070726, 25.629117322206753 ], [ 94.083754346186311, 25.657780192501946 ] ] ] } },
{ "type": "Feature", "properties": { "pincode": "797118", "state": "Nagaland", "district": "Dimapur", "officename": "Aoyimkum", "officetype": "B.O" }, "geometry": { "type": "Polygon", "coordinates": [ [ [ 93.693306009564822, 25.879978900106209 ], [ 93.703312332498228, 25.88415664221526 ], [ 93.704321908729241, 25.893582656014814 ], [ 93.713877221656617, 25.883086457973775 ], [ 93.732791727856124, 25.879376413690636 ], [ 93.716936707163484, 25.875761177736308 ], [ 93.704604143866334, 25.853623529202594 ], [ 93.693306009564822, 25.879978900106209 ] ] ] } },
{ "type": "Feature", "properties": { "pincode": "797101", "state": "Nagaland", "district": "Peren", "officename": "Peren", "officetype": "S.O" }, "geometry": { "type": "Polygon", "coordinates": [ [ [ 93.5459057835252, 25.366610928551722 ], [ 93.543741579410437, 25.383490495590081 ], [ 93.532750596862684, 25.392981050135518 ], [ 93.52957904593643, 25.428915467075171 ], [ 93.519095031910297, 25.438925999735204 ], [ 93.524774336966232, 25.471902770396582 ], [ 93.578043255591808, 25.504789307580722 ], [ 93.656099960244944, 25.531058278816488 ], [ 93.646373417299515, 25.489052625078727 ], [ 93.683811628404101, 25.470203147956965 ], [ 93.682040790450287, 25.434244190317202 ], [ 93.707144700767401, 25.407136854882026 ], [ 93.706413604104512, 25.387025564178487 ], [ 93.690340697465274, 25.368571541443487 ], [ 93.686500999721375, 25.32688500044253 ], [ 93.671478000309605, 25.324408000428889 ], [ 93.672318000375526, 25.307201000126213 ], [ 93.607338000348591, 25.197829999854719 ], [ 93.592361000359915, 25.19971999977821 ], [ 93.589637999793922, 25.215764999555176 ], [ 93.554153000161023, 25.246435000175268 ], [ 93.504639000189798, 25.240137000222433 ], [ 93.510315000237199, 25.271614000285922 ], [ 93.476303000183464, 25.275111999719172 ], [ 93.4736249998939, 25.305372000317732 ], [ 93.456344999822136, 25.321391999841126 ], [ 93.461593999963156, 25.33272399991273 ], [ 93.451561000439881, 25.340344999722106 ], [ 93.465941999923416, 25.357861999931401 ], [ 93.465416914559057, 25.345915207121266 ], [ 93.480151719026651, 25.338110687158519 ], [ 93.514161227958425, 25.33678610899193 ], [ 93.531537582293709, 25.360709318280499 ], [ 93.5459057835252, 25.366610928551722 ] ] ] } },
{ "type": "Feature", "properties": { "pincode": "797120", "state": "Nagaland", "district": "Kohima", "officename": "P.R Hill", "officetype": "S.O" }, "geometry": { "type": "Polygon", "coordinates": [ [ [ 94.101295341207049, 25.658115546995134 ], [ 94.094965695910275, 25.661331725878483 ], [ 94.102201932473292, 25.661297912268992 ], [ 94.101295341207049, 25.658115546995134 ] ] ] } },
{ "type": "Feature", "properties": { "pincode": "797102", "state": "Nagaland", "district": "Phek", "officename": "Chizami", "officetype": "S.O" }, "geometry": { "type": "Polygon", "coordinates": [ [ [ 94.362517566832423, 25.602637780109433 ], [ 94.306534297319956, 25.611853122323907 ], [ 94.295277955413383, 25.628660973824935 ], [ 94.315728691625964, 25.658332396922617 ], [ 94.334621486392678, 25.649171042809428 ], [ 94.359662498125829, 25.671515723372011 ], [ 94.357790270604539, 25.685405112056344 ], [ 94.37682418608739, 25.695390792850731 ], [ 94.427900131286151, 25.654160555265605 ], [ 94.421024718016497, 25.635154321814525 ], [ 94.405600751373584, 25.624011879944362 ], [ 94.428004162162495, 25.603406061040971 ], [ 94.419097999673056, 25.536816000258341 ], [ 94.361559814933628, 25.526910036269328 ], [ 94.338455691976776, 25.535995927370323 ], [ 94.290354957715181, 25.529034145909122 ], [ 94.298101640478535, 25.558006878514732 ], [ 94.315938071784672, 25.578906740653622 ], [ 94.362517566832423, 25.602637780109433 ] ] ] } },
{ "type": "Feature", "properties": { "pincode": "797103", "state": "Nagaland", "district": "Dimapur", "officename": "Chumukedima", "officetype": "S.O" }, "geometry": { "type": "Polygon", "coordinates": [ [ [ 93.781043999681003, 25.84042899989862 ], [ 93.791237000287424, 25.811778999801106 ], [ 93.807471999833069, 25.812059000122872 ], [ 93.818725999904984, 25.821923999992691 ], [ 93.824202999768772, 25.84279300009689 ], [ 93.842258648917721, 25.812012559132484 ], [ 93.824199485218173, 25.799703492422395 ], [ 93.804265778243121, 25.797674636275474 ], [ 93.76807966804239, 25.754652038161169 ], [ 93.742865445084306, 25.751804806146936 ], [ 93.706124746360047, 25.783799009017059 ], [ 93.682578999621228, 25.836676000397233 ], [ 93.703643999770918, 25.849437999863994 ], [ 93.705528000317088, 25.844560999790531 ], [ 93.713940793832592, 25.861710543307026 ], [ 93.714150383533365, 25.843614712449096 ], [ 93.772722747257035, 25.835642107397348 ], [ 93.781043999681003, 25.84042899989862 ] ] ] } },
{ "type": "Feature", "properties": { "pincode": "797105", "state": "Nagaland", "district": "Kohima", "officename": "Chiechama", "officetype": "S.O" }, "geometry": { "type": "Polygon", "coordinates": [ [ [ 94.043216008312186, 25.744517550144735 ], [ 94.052025192408678, 25.697479587912824 ], [ 94.043473490509371, 25.7061453013647 ], [ 94.044424841033788, 25.725926629910191 ], [ 94.001343612517815, 25.780848629260959 ], [ 94.011078440018025, 25.828611253506665 ], [ 94.031681526781085, 25.84789697466573 ], [ 93.984954809117198, 25.867448733272511 ], [ 94.003548092770359, 25.889310671250485 ], [ 94.012594055771103, 25.881980263978164 ], [ 94.039681967648733, 25.901258459610403 ], [ 94.077253159705606, 25.899121273827916 ], [ 94.085721441391627, 25.91689335774231 ], [ 94.102503931111642, 25.900609840671734 ], [ 94.128870120859631, 25.899533852205593 ], [ 94.135135597729743, 25.883137496298446 ], [ 94.172426697734124, 25.87820979244799 ], [ 94.187968986379701, 25.863253179190963 ], [ 94.209258475298498, 25.871421469525387 ], [ 94.217211494015373, 25.857753631524986 ], [ 94.233421667775815, 25.852336642522175 ], [ 94.232415095280601, 25.83972752870261 ], [ 94.255121323090748, 25.812486116940875 ], [ 94.272314699563879, 25.825177345158409 ], [ 94.29559293216812, 25.797193852414409 ], [ 94.285400707676729, 25.773617143816182 ], [ 94.294228639040568, 25.747097677216232 ], [ 94.232217944102899, 25.700565754506044 ], [ 94.236626707656569, 25.723212290714685 ], [ 94.186995082657063, 25.744933372377375 ], [ 94.180231225790635, 25.763054565915638 ], [ 94.141536036758623, 25.749028810331481 ], [ 94.088313925147645, 25.774462749356587 ], [ 94.063120731037031, 25.765514436541935 ], [ 94.043216008312186, 25.744517550144735 ] ] ] } },
{ "type": "Feature", "properties": { "pincode": "797106", "state": "Nagaland", "district": "Dimapur", "officename": "Medziphema", "officetype": "S.O" }, "geometry": { "type": "Polygon", "coordinates": [ [ [ 93.842258648917721, 25.812012559132484 ], [ 93.824202999768772, 25.84279300009689 ], [ 93.832680000381856, 25.851946000407622 ], [ 93.851616000378328, 25.858627000036165 ], [ 93.882567999613627, 25.841496999686967 ], [ 93.915771000131713, 25.88320700040282 ], [ 93.934471000036694, 25.88694199997343 ], [ 93.940048000015167, 25.896469000444085 ], [ 93.97922499993399, 25.915118999842036 ], [ 93.982529000313264, 25.921717000139438 ], [ 93.958570616740701, 25.967077378718045 ], [ 93.96194930311799, 25.973268342260212 ], [ 93.972412580576304, 25.98015060656536 ], [ 94.000811404522779, 25.974060722324566 ], [ 94.034613824768428, 25.979999457509052 ], [ 94.044157951028751, 25.942257584020524 ], [ 94.021520161626256, 25.941582566382465 ], [ 94.001890144015022, 25.931090568175364 ], [ 94.008469718103242, 25.913599777807633 ], [ 93.996789817096328, 25.892023843125912 ], [ 94.003066845758326, 25.886852509335938 ], [ 93.984954809117198, 25.867448733272511 ], [ 94.032140894187023, 25.846411489798527 ], [ 94.011078440018025, 25.828611253506665 ], [ 94.001343612517815, 25.780848629260959 ], [ 93.982167810096485, 25.776551217065048 ], [ 93.972428998599526, 25.757803860659806 ], [ 93.985031845943013, 25.736428568323845 ], [ 93.953568008357024, 25.706492437875681 ], [ 93.931235783404873, 25.696098305692317 ], [ 93.901023240030725, 25.657041798740181 ], [ 93.878650857650996, 25.680288628817266 ], [ 93.816685017299847, 25.680374678648548 ], [ 93.775927820412676, 25.666658881602132 ], [ 93.745253721582117, 25.688428704721105 ], [ 93.743738049171782, 25.716994082211158 ], [ 93.754175089808712, 25.728040453104541 ], [ 93.744050861258245, 25.730547752177074 ], [ 93.740737700384614, 25.750185865485435 ], [ 93.76807966804239, 25.754652038161169 ], [ 93.804265778243121, 25.797674636275474 ], [ 93.824199485218173, 25.799703492422395 ], [ 93.842258648917721, 25.812012559132484 ] ] ] } },
{ "type": "Feature", "properties": { "pincode": "797107", "state": "Nagaland", "district": "Phek", "officename": "Pfutsero", "officetype": "S.O" }, "geometry": { "type": "Polygon", "coordinates": [ [ [ 94.189789000162421, 25.525467000302001 ], [ 94.204694570598122, 25.561215673064964 ], [ 94.204455343739198, 25.588891399818351 ], [ 94.219139400363133, 25.607041500265098 ], [ 94.214715662198216, 25.637587764963371 ], [ 94.220850939719071, 25.639058157408158 ], [ 94.24065869664156, 25.617358368993678 ], [ 94.251404807286121, 25.621916986579834 ], [ 94.28840711969292, 25.604979128184311 ], [ 94.322494063850002, 25.613091071495887 ], [ 94.362517566832423, 25.602637780109433 ], [ 94.315938071784672, 25.578906740653622 ], [ 94.298101640478535, 25.558006878514732 ], [ 94.290354957715181, 25.529034145909122 ], [ 94.338455691976776, 25.535995927370323 ], [ 94.357925458493298, 25.526910036269328 ], [ 94.387383000325428, 25.530809000235422 ], [ 94.312407999829418, 25.488835999981461 ], [ 94.301528999963466, 25.48903700025744 ], [ 94.28567500000139, 25.506159000237801 ], [ 94.273093999888374, 25.497472999879164 ], [ 94.228103999899815, 25.49058299960592 ], [ 94.213843999700998, 25.494850000327403 ], [ 94.189789000162421, 25.525467000302001 ] ] ] } },
{ "type": "Feature", "properties": { "pincode": "797108", "state": "Nagaland", "district": "Phek", "officename": "Phek", "officetype": "S.O" }, "geometry": { "type": "Polygon", "coordinates": [ [ [ 94.431133694064783, 25.767961774216531 ], [ 94.437318462177529, 25.777173664832901 ], [ 94.434684563741826, 25.806866254374313 ], [ 94.468673999805389, 25.83061999991321 ], [ 94.492538000428624, 25.83094599965824 ], [ 94.517158999987942, 25.815253999972299 ], [ 94.530433999729325, 25.82091900041172 ], [ 94.546348999806639, 25.809019000226783 ], [ 94.530035155797975, 25.750646716772678 ], [ 94.547171941532042, 25.749827845378888 ], [ 94.558470385200167, 25.729666993936689 ], [ 94.586431368812725, 25.751496245155579 ], [ 94.586482823523625, 25.744769415176506 ], [ 94.57767918284793, 25.705589148020863 ], [ 94.550613000389831, 25.656414000006123 ], [ 94.523033000173029, 25.6374210000792 ], [ 94.504203999714832, 25.611011999904008 ], [ 94.472916000273244, 25.615740000300718 ], [ 94.446686000258921, 25.592182000299147 ], [ 94.428885999589397, 25.586902999673725 ], [ 94.428004162162495, 25.603406061040971 ], [ 94.405600751373584, 25.624011879944362 ], [ 94.421024718016497, 25.635154321814525 ], [ 94.426935798148747, 25.657318149613047 ], [ 94.387379704310092, 25.680592873062722 ], [ 94.37682418608739, 25.695390792850731 ], [ 94.362246174821166, 25.686816528759834 ], [ 94.35203947124478, 25.712943665218063 ], [ 94.364511755013552, 25.740224518546825 ], [ 94.395690759321212, 25.747067656946911 ], [ 94.409200945267514, 25.762454286436196 ], [ 94.431133694064783, 25.767961774216531 ] ] ] } },
{ "type": "Feature", "properties": { "pincode": "797109", "state": "Nagaland", "district": "Kohima", "officename": "Tseminyu", "officetype": "S.O" }, "geometry": { "type": "Polygon", "coordinates": [ [ [ 94.047208273343301, 25.975894005603891 ], [ 94.09070377186174, 25.991306227100779 ], [ 94.107055999834699, 25.985336000356313 ], [ 94.136391000044796, 25.989431000340574 ], [ 94.168922000150246, 25.973720999824309 ], [ 94.194007999569692, 25.986945999958039 ], [ 94.219200000279898, 26.024423999767748 ], [ 94.242652999936183, 26.003692999732209 ], [ 94.277167999803396, 26.011222999841664 ], [ 94.290225534480953, 26.003184439410518 ], [ 94.284988865843729, 25.980282632437707 ], [ 94.296736230392924, 25.93763308839641 ], [ 94.278376400850391, 25.924684763790992 ], [ 94.237218446274312, 25.916637671491458 ], [ 94.211468282235614, 25.871060183980433 ], [ 94.187968986379701, 25.863253179190963 ], [ 94.172426697734124, 25.87820979244799 ], [ 94.135135597729743, 25.883137496298446 ], [ 94.128870120859631, 25.899533852205593 ], [ 94.102503931111642, 25.900609840671734 ], [ 94.085721441391627, 25.91689335774231 ], [ 94.077253159705606, 25.899121273827916 ], [ 94.039681967648733, 25.901258459610403 ], [ 94.006149181239948, 25.882232119117077 ], [ 93.996789817096328, 25.892023843125912 ], [ 94.008469718103242, 25.913599777807633 ], [ 94.001890144015022, 25.931090568175364 ], [ 94.021520161626256, 25.941582566382465 ], [ 94.044157951028751, 25.942257584020524 ], [ 94.034613824768428, 25.979999457509052 ], [ 94.047208273343301, 25.975894005603891 ] ] ] } },
{ "type": "Feature", "properties": { "pincode": "797111", "state": "Nagaland", "district": "Wokha", "officename": "Wokha", "officetype": "S.O" }, "geometry": { "type": "Polygon", "coordinates": [ [ [ 94.092852661421375, 26.055570192310711 ], [ 94.105019882561692, 26.077215127476336 ], [ 94.129351162826026, 26.091654458786365 ], [ 94.127981316384762, 26.099046707040031 ], [ 94.168831692928279, 26.127722053629896 ], [ 94.16434961664163, 26.134616660230733 ], [ 94.179962150433084, 26.144208786006743 ], [ 94.174576359811283, 26.149435307593421 ], [ 94.195873122446812, 26.165384373989696 ], [ 94.205997047026187, 26.160383029153479 ], [ 94.198639820171763, 26.175041186201838 ], [ 94.205321277555015, 26.187430230520818 ], [ 94.227157547982642, 26.191452079649878 ], [ 94.255504189666681, 26.218965607376958 ], [ 94.2529380083825, 26.223976039862407 ], [ 94.274331444540735, 26.23581738626342 ], [ 94.281157596545995, 26.229060412807996 ], [ 94.297062700483366, 26.231813898592634 ], [ 94.29599680510853, 26.217269762089984 ], [ 94.318852747556377, 26.206752892232373 ], [ 94.318924222974488, 26.195547835963907 ], [ 94.328131416431916, 26.198396599523562 ], [ 94.330809744973806, 26.177837030954322 ], [ 94.351593000116964, 26.170941999873492 ], [ 94.353783000385249, 26.154449000121417 ], [ 94.389731999832009, 26.114642999974478 ], [ 94.382888999927502, 26.099467999848343 ], [ 94.38812300027638, 26.073745999877985 ], [ 94.359238000133644, 26.009554000217122 ], [ 94.339661000255035, 25.996533999644328 ], [ 94.316956000019388, 26.017885000392539 ], [ 94.306182999645841, 26.008404000244582 ], [ 94.242652999936183, 26.003692999732209 ], [ 94.219200000279898, 26.024423999767748 ], [ 94.194007999569692, 25.986945999958039 ], [ 94.168922000150246, 25.973720999824309 ], [ 94.136391000044796, 25.989431000340574 ], [ 94.107055999834699, 25.985336000356313 ], [ 94.10048173354528, 25.991646133962035 ], [ 94.077168008297008, 25.979671942406185 ], [ 94.015388952638091, 25.976920610497928 ], [ 94.014006713539061, 25.991973363080319 ], [ 94.032230668110969, 26.016327876430523 ], [ 94.049847911252243, 26.029742746830436 ], [ 94.070717675780202, 26.02365501466727 ], [ 94.090031328083398, 26.046523807527933 ], [ 94.097132014331123, 26.04521762499337 ], [ 94.092852661421375, 26.055570192310711 ] ] ] } },
{ "type": "Feature", "properties": { "pincode": "797112", "state": "Nagaland", "district": "Dimapur", "officename": "Dimapur", "officetype": "S.O" }, "geometry": { "type": "Polygon", "coordinates": [ [ [ 93.708496660592516, 25.78141656372361 ], [ 93.741285999049751, 25.755143566222841 ], [ 93.744050861258245, 25.730547752177074 ], [ 93.754175089808712, 25.728040453104541 ], [ 93.743738049171782, 25.716994082211158 ], [ 93.748022102837922, 25.709764407101943 ], [ 93.736623160830391, 25.686688064202826 ], [ 93.684181387361207, 25.668436785529366 ], [ 93.677953214369495, 25.694090233777331 ], [ 93.634859505062195, 25.672410127025898 ], [ 93.605506464451935, 25.673351634470521 ], [ 93.580983109682847, 25.693475459025365 ], [ 93.559727944289421, 25.692005100754841 ], [ 93.544448999621693, 25.702060999715457 ], [ 93.546775999912484, 25.730640000136077 ], [ 93.5655440002555, 25.737469000294311 ], [ 93.573326000294685, 25.756934999550708 ], [ 93.583846999839182, 25.753859999839335 ], [ 93.588303000283361, 25.764256999960764 ], [ 93.605621000308986, 25.763535999986573 ], [ 93.608131000045773, 25.772942000273133 ], [ 93.62239100024459, 25.775872999639375 ], [ 93.629073999965328, 25.800450999913835 ], [ 93.648566999567493, 25.820004999631237 ], [ 93.690175976740079, 25.829175409018092 ], [ 93.708496660592516, 25.78141656372361 ] ] ] } },
{ "type": "Feature", "properties": { "pincode": "797113", "state": "Nagaland", "district": "Dimapur", "officename": "New Nepaligaon", "officetype": "S.O" }, "geometry": { "type": "Polygon", "coordinates": [ [ [ 93.68229166712689, 25.903628460984748 ], [ 93.706884288579204, 25.919199791437336 ], [ 93.732418606333624, 25.923174063732063 ], [ 93.727716919200532, 25.906655231853563 ], [ 93.708369170900653, 25.914672667210027 ], [ 93.69806039157379, 25.880230506133103 ], [ 93.68229166712689, 25.903628460984748 ] ] ] } },
{ "type": "Feature", "properties": { "pincode": "797115", "state": "Nagaland", "district": "Dimapur", "officename": "Artc", "officetype": "S.O" }, "geometry": { "type": "Polygon", "coordinates": [ [ [ 93.728465933056441, 25.883628982092034 ], [ 93.749518281543487, 25.899966178796149 ], [ 93.745983936009907, 25.907122609520968 ], [ 93.76498170953829, 25.888470098316361 ], [ 93.772976827318871, 25.892461522481426 ], [ 93.772179844524317, 25.901525571747811 ], [ 93.798355000283095, 25.90548900001744 ], [ 93.77871424746462, 25.836423105641927 ], [ 93.714150383533365, 25.843614712449096 ], [ 93.716494761424144, 25.87522544170082 ], [ 93.729796809175582, 25.874163265022673 ], [ 93.728465933056441, 25.883628982092034 ] ] ] } },
{ "type": "Feature", "properties": { "pincode": "797121", "state": "Nagaland", "district": "Kohima", "officename": "High School Junction", "officetype": "S.O" }, "geometry": { "type": "Polygon", "coordinates": [ [ [ 94.094836171052577, 25.683633384673044 ], [ 94.103107095616167, 25.691728403643026 ], [ 94.110614502057729, 25.687887744523778 ], [ 94.10137023674713, 25.673304000978874 ], [ 94.094836171052577, 25.683633384673044 ] ] ] } },
{ "type": "Feature", "properties": { "pincode": "798601", "state": "Nagaland", "district": "Mokokchung", "officename": "Mokokchung", "officetype": "S.O" }, "geometry": { "type": "Polygon", "coordinates": [ [ [ 94.633830896278937, 26.709354205432305 ], [ 94.654668021712041, 26.656644450181318 ], [ 94.645336550941181, 26.647037597107555 ], [ 94.646313937738114, 26.627562073131287 ], [ 94.639657894296533, 26.629860860790131 ], [ 94.616848489066513, 26.60807673035697 ], [ 94.612594455669694, 26.61175467244027 ], [ 94.612074761740928, 26.60387778403242 ], [ 94.59893213141288, 26.59932124567905 ], [ 94.595545291781946, 26.580287893171828 ], [ 94.56548407463049, 26.562966085416576 ], [ 94.569658866963266, 26.552034844832349 ], [ 94.556223608033179, 26.537517034183963 ], [ 94.556696868166114, 26.520195432373498 ], [ 94.547530035382977, 26.508269211554932 ], [ 94.552495014333601, 26.497817577619344 ], [ 94.54452172669653, 26.50307265717754 ], [ 94.529099334766613, 26.488457797089723 ], [ 94.532533610038229, 26.483700782765027 ], [ 94.515893417347456, 26.478131245360771 ], [ 94.508001718004891, 26.460470814076814 ], [ 94.498660954539616, 26.459958751795 ], [ 94.502337299426983, 26.440030725837403 ], [ 94.492017341527173, 26.442019061230837 ], [ 94.485971339705713, 26.431155052164058 ], [ 94.480112656773827, 26.443826006065478 ], [ 94.468643894999786, 26.442920997605995 ], [ 94.449335161988188, 26.461506523707271 ], [ 94.45336756915799, 26.492625626871245 ], [ 94.444757602881168, 26.514405018776699 ], [ 94.473654663831667, 26.567298608044496 ], [ 94.497769480876912, 26.570017682170374 ], [ 94.495551918186663, 26.580546334945382 ], [ 94.504088041130444, 26.576960554486163 ], [ 94.515519574568884, 26.600223647903135 ], [ 94.533610646214413, 26.607876775992565 ], [ 94.535786008217826, 26.616523824015246 ], [ 94.528335610699855, 26.617869003851581 ], [ 94.535304171250687, 26.619751694085323 ], [ 94.528888971648939, 26.622612036416513 ], [ 94.537271466105381, 26.624927658484637 ], [ 94.543226867526073, 26.652651838012048 ], [ 94.559218913422342, 26.66090118783967 ], [ 94.571907000307988, 26.691247999995312 ], [ 94.58321400012602, 26.700596000305325 ], [ 94.592812000273568, 26.697719999878132 ], [ 94.598740000250871, 26.714938999835056 ], [ 94.605086999765319, 26.712203999614985 ], [ 94.593757999831951, 26.721156999695836 ], [ 94.600380000336827, 26.732754000297064 ], [ 94.610497000136547, 26.735115000357098 ], [ 94.633830896278937, 26.709354205432305 ] ] ] } },
{ "type": "Feature", "properties": { "pincode": "797116", "state": "Nagaland", "district": "Dimapur", "officename": "Dimapur Bazar", "officetype": "S.O" }, "geometry": { "type": "Polygon", "coordinates": [ [ [ 93.744616169700635, 25.908424986124317 ], [ 93.749542000263091, 25.937967000376943 ], [ 93.770400999906371, 25.949390000148469 ], [ 93.773162999572889, 25.961904999915987 ], [ 93.778946000057942, 25.959122000180287 ], [ 93.789527999717563, 25.948430999990762 ], [ 93.798355000283095, 25.90548900001744 ], [ 93.772179844524317, 25.901525571747811 ], [ 93.772976827318871, 25.892461522481426 ], [ 93.76498170953829, 25.888470098316361 ], [ 93.744616169700635, 25.908424986124317 ] ] ] } },
{ "type": "Feature", "properties": { "pincode": "798607", "state": "Nagaland", "district": "Mokokchung", "officename": "Alichen", "officetype": "S.O" }, "geometry": { "type": "Polygon", "coordinates": [ [ [ 94.379444278131132, 26.35211952359731 ], [ 94.435374434582627, 26.305344782136046 ], [ 94.478851893600165, 26.287664251903834 ], [ 94.455565999671137, 26.243504999756055 ], [ 94.447624000347389, 26.207643999870868 ], [ 94.437134000433844, 26.203706999978181 ], [ 94.410483999936787, 26.211640999832468 ], [ 94.370208999745728, 26.192303000183415 ], [ 94.387749000116287, 26.226304999775834 ], [ 94.360352000244688, 26.24136399994876 ], [ 94.338043000284415, 26.241856000154314 ], [ 94.36089300001197, 26.271995999715841 ], [ 94.355544999802021, 26.314923999942778 ], [ 94.379444278131132, 26.35211952359731 ] ] ] } },
{ "type": "Feature", "properties": { "pincode": "798612", "state": "Nagaland", "district": "Tuensang", "officename": "Tuensang", "officetype": "S.O" }, "geometry": { "type": "Polygon", "coordinates": [ [ [ 94.674126082652833, 26.021228418057035 ], [ 94.705437000417362, 26.051853000215942 ], [ 94.690102000107402, 26.097795000039412 ], [ 94.689384000271446, 26.129104999596166 ], [ 94.704475000121192, 26.172053999892285 ], [ 94.691914071077633, 26.19797171662151 ], [ 94.71843933021097, 26.19614988261111 ], [ 94.755165386173758, 26.212781327596247 ], [ 94.756585200746542, 26.289458565760242 ], [ 94.852150018508667, 26.309233087337077 ], [ 94.902917087054107, 26.351503154347085 ], [ 94.899153914421731, 26.341836518840239 ], [ 94.906223815976432, 26.343992456386786 ], [ 94.910882088337871, 26.320456854900044 ], [ 94.941782202986417, 26.293099650028978 ], [ 94.927815537357219, 26.254522308158187 ], [ 94.89308383325249, 26.217411366641386 ], [ 94.903055793989836, 26.20164725481709 ], [ 94.927479967926331, 26.197695085160149 ], [ 94.920924449803636, 26.15669953285726 ], [ 94.902983128768426, 26.140843816988649 ], [ 94.929560651103145, 26.100808855744333 ], [ 94.937005646393459, 26.055978135582563 ], [ 94.924626303960906, 26.049811026557677 ], [ 94.915168891231531, 26.031632690995878 ], [ 94.902034138065176, 26.029398647329742 ], [ 94.897677034267929, 26.011641137828349 ], [ 94.885495403290406, 26.004925517898471 ], [ 94.838911406236605, 26.035132695017978 ], [ 94.78500922909268, 26.015641793534087 ], [ 94.748938424568735, 26.029525216115928 ], [ 94.740809024516977, 26.021085383583738 ], [ 94.72688228608871, 26.027120310254304 ], [ 94.69500352379373, 26.017688798899087 ], [ 94.674126082652833, 26.021228418057035 ] ] ] } },
{ "type": "Feature", "properties": { "pincode": "797117", "state": "Nagaland", "district": "Dimapur", "officename": "Circular Road", "officetype": "S.O" }, "geometry": { "type": "Polygon", "coordinates": [ [ [ 93.727491442975804, 25.880856564678879 ], [ 93.704321908729241, 25.893582656014814 ], [ 93.704969302791142, 25.909168432277511 ], [ 93.712997594763181, 25.915440289837534 ], [ 93.727716919200532, 25.906655231853563 ], [ 93.739078298324785, 25.93216438387924 ], [ 93.750206000306832, 25.933189000372238 ], [ 93.742442930097241, 25.915609738298826 ], [ 93.749518281543487, 25.899966178796149 ], [ 93.727491442975804, 25.880856564678879 ] ] ] } },
{ "type": "Feature", "properties": { "pincode": "798602", "state": "Nagaland", "district": "Mon", "officename": "Tizit", "officetype": "S.O" }, "geometry": { "type": "Polygon", "coordinates": [ [ [ 95.127205769630677, 26.78758076953693 ], [ 95.115563317293322, 26.785379230966782 ], [ 95.093197063793582, 26.798951915298801 ], [ 95.085142776917735, 26.847877283809623 ], [ 95.077406318546934, 26.853461803019911 ], [ 95.041371717131085, 26.855597220735262 ], [ 95.033660674500709, 26.868860561665713 ], [ 95.019437985374907, 26.861535252649787 ], [ 94.990840572234788, 26.865193665955076 ], [ 94.934573374162028, 26.889520295825037 ], [ 94.937532962076659, 26.915137040042453 ], [ 94.943180748592681, 26.91491549205648 ], [ 94.934052000299744, 26.933156999595951 ], [ 94.957717999885915, 26.938115999853721 ], [ 94.986023000261412, 26.912721999720588 ], [ 94.993431000140731, 26.920619999713267 ], [ 95.021675000401103, 26.919799999670317 ], [ 95.110367000336907, 26.961183999741934 ], [ 95.117278999826112, 26.977962000046375 ], [ 95.14980299960888, 26.994072000122742 ], [ 95.195868999754566, 27.037160999680452 ], [ 95.19545000021742, 26.984117999745877 ], [ 95.210181999699614, 26.976708999820517 ], [ 95.215248000395036, 26.964417000444257 ], [ 95.206955000173195, 26.956639999736126 ], [ 95.213599999940129, 26.9528199998432 ], [ 95.214584000351465, 26.930946000158031 ], [ 95.225684999663031, 26.928394000282992 ], [ 95.234047000368946, 26.914521999990313 ], [ 95.229972999554377, 26.879545000401606 ], [ 95.212890999620015, 26.87951900010188 ], [ 95.184547000143994, 26.858776000412092 ], [ 95.195610000401189, 26.843511999779025 ], [ 95.208595000259152, 26.844586999890168 ], [ 95.19902000027281, 26.833805000000837 ], [ 95.215027000096086, 26.792156000299144 ], [ 95.209334417449384, 26.791072502494103 ], [ 95.210729910756754, 26.770640607977725 ], [ 95.19011209130008, 26.758365598593684 ], [ 95.187668933674331, 26.743132986098544 ], [ 95.168263389543824, 26.743016347626508 ], [ 95.152348915569974, 26.75651856378073 ], [ 95.127260155231909, 26.742429792700818 ], [ 95.100500950958349, 26.753480984859721 ], [ 95.127205769630677, 26.78758076953693 ] ] ] } },
{ "type": "Feature", "properties": { "pincode": "798618", "state": "Nagaland", "district": "Longleng", "officename": "Tuli", "officetype": "S.O" }, "geometry": { "type": "Polygon", "coordinates": [ [ [ 94.670402999998601, 26.64803300002302 ], [ 94.718902999973466, 26.679670000270278 ], [ 94.727202999618726, 26.69669500027419 ], [ 94.785163999719032, 26.698247999945295 ], [ 94.790893999558591, 26.68708799971148 ], [ 94.783095999680768, 26.655916000223328 ], [ 94.750328580399923, 26.644486770847834 ], [ 94.724692999882166, 26.620393999783403 ], [ 94.71170800002443, 26.636417000344409 ], [ 94.670402999998601, 26.64803300002302 ] ] ] } },
{ "type": "Feature", "properties": { "pincode": "798621", "state": "Nagaland", "district": "Mon", "officename": "Mon", "officetype": "S.O" }, "geometry": { "type": "Polygon", "coordinates": [ [ [ 95.051758874172947, 26.634100635436027 ], [ 95.041063119267733, 26.619896211541118 ], [ 95.022830351339735, 26.616044390036734 ], [ 94.964830660606538, 26.625368165308714 ], [ 94.952330947515293, 26.637890988278627 ], [ 94.927727097128013, 26.627884695022772 ], [ 94.920286377214552, 26.63299381371354 ], [ 94.904943337864779, 26.620916337718995 ], [ 94.897257991563208, 26.625591803319082 ], [ 94.903826382581485, 26.637496136437619 ], [ 94.92472398292557, 26.642574431764785 ], [ 94.953147807125674, 26.69530620421807 ], [ 94.969288524446029, 26.704224588493958 ], [ 94.963455295925201, 26.714951992340616 ], [ 94.972293331172523, 26.72339939356732 ], [ 94.961722844633641, 26.7496491453918 ], [ 94.937513104146433, 26.748105843110238 ], [ 94.923410178636914, 26.770641751915434 ], [ 94.943588554268445, 26.7841544011049 ], [ 94.936254458876306, 26.817777363434629 ], [ 94.940747823453421, 26.832357037547411 ], [ 94.921907094936728, 26.858263273531406 ], [ 94.943448915635031, 26.884342670378089 ], [ 94.990840572234788, 26.865193665955076 ], [ 95.019437985374907, 26.861535252649787 ], [ 95.033660674500709, 26.868860561665713 ], [ 95.041371717131085, 26.855597220735262 ], [ 95.061930041038693, 26.858229382580021 ], [ 95.085142776917735, 26.847877283809623 ], [ 95.093197063793582, 26.798951915298801 ], [ 95.115563317293322, 26.785379230966782 ], [ 95.127205769630677, 26.78758076953693 ], [ 95.100500950958349, 26.753480984859721 ], [ 95.115635674946532, 26.745040009289141 ], [ 95.133345327025211, 26.742946580919977 ], [ 95.155255643133501, 26.756490871856272 ], [ 95.168263389543824, 26.743016347626508 ], [ 95.187668933674331, 26.743132986098544 ], [ 95.19011209130008, 26.758365598593684 ], [ 95.208558035425085, 26.76556453127813 ], [ 95.209334417449384, 26.791072502494103 ], [ 95.244758999728163, 26.781017000134625 ], [ 95.219916999869724, 26.753519000101903 ], [ 95.21592700023092, 26.728993999573504 ], [ 95.235808999785547, 26.705803000308379 ], [ 95.238190011559766, 26.678794760270023 ], [ 95.200019836846025, 26.639114380124568 ], [ 95.154747009067421, 26.621326446558328 ], [ 95.140899658292767, 26.603219985713849 ], [ 95.129673994959148, 26.601413804403592 ], [ 95.103883268798029, 26.602846075486127 ], [ 95.051758874172947, 26.634100635436027 ] ] ] } },
{ "type": "Feature", "properties": { "pincode": "798603", "state": "Nagaland", "district": "Mon", "officename": "Champang", "officetype": "S.O" }, "geometry": { "type": "Polygon", "coordinates": [ [ [ 94.899101000111102, 26.50423799958412 ], [ 94.884186000283933, 26.575173999980223 ], [ 94.89607199982305, 26.592220000053032 ], [ 94.889068999734604, 26.591514999917422 ], [ 94.890305000075784, 26.610759999774245 ], [ 94.920286377214552, 26.63299381371354 ], [ 94.927727097128013, 26.627884695022772 ], [ 94.952330947515293, 26.637890988278627 ], [ 94.964830660606538, 26.625368165308714 ], [ 95.01700160593947, 26.615762734063139 ], [ 95.041063119267733, 26.619896211541118 ], [ 95.051758874172947, 26.634100635436027 ], [ 95.103883268798029, 26.602846075486127 ], [ 95.140899658292767, 26.603219985713849 ], [ 95.150268554350475, 26.572658538660619 ], [ 95.11649322528217, 26.544956207263283 ], [ 95.108741759924442, 26.506628036055076 ], [ 95.072685242030332, 26.471570968925107 ], [ 95.072402953833432, 26.457567215254812 ], [ 95.096046447885442, 26.421012878541546 ], [ 95.098297119116864, 26.404706954862149 ], [ 95.071439669305391, 26.320104226229091 ], [ 95.020129974119072, 26.30465237520707 ], [ 95.009623080440974, 26.291795084475609 ], [ 94.959865529670481, 26.292052035173526 ], [ 94.916550323638717, 26.312301246805077 ], [ 94.906223815976432, 26.343992456386786 ], [ 94.899153914421731, 26.341836518840239 ], [ 94.913582453867264, 26.360952745672648 ], [ 94.914849344122047, 26.378404823823644 ], [ 94.92240152780829, 26.38119367454857 ], [ 94.907894791411593, 26.399792675192032 ], [ 94.91126804768237, 26.407485075775753 ], [ 94.899223025522247, 26.414431726143391 ], [ 94.897755628719437, 26.424920623487992 ], [ 94.905890219658033, 26.423046454330517 ], [ 94.901092629721177, 26.428592007715224 ], [ 94.911559999994097, 26.434011000407452 ], [ 94.903046000372683, 26.439510000386235 ], [ 94.905106000041883, 26.457840000315855 ], [ 94.893844999647115, 26.478911999889021 ], [ 94.899101000111102, 26.50423799958412 ] ] ] } },
{ "type": "Feature", "properties": { "pincode": "798604", "state": "Nagaland", "district": "Mokokchung", "officename": "Mongkholemba", "officetype": "S.O" }, "geometry": { "type": "Polygon", "coordinates": [ [ [ 94.396881000358121, 26.524930999666083 ], [ 94.412300000044979, 26.553637999694047 ], [ 94.408310000406345, 26.609596000055433 ], [ 94.454963999788845, 26.634217999661018 ], [ 94.462920999804339, 26.630640000135884 ], [ 94.45903000023452, 26.65055799955212 ], [ 94.465003999634916, 26.662728999643775 ], [ 94.49871800033543, 26.668865000219682 ], [ 94.523209000195209, 26.699511999778963 ], [ 94.563866000015878, 26.702429000298139 ], [ 94.568995982978436, 26.677919755892049 ], [ 94.559478833681339, 26.674220730102775 ], [ 94.564399552497548, 26.669217341107526 ], [ 94.559218913422342, 26.66090118783967 ], [ 94.543226867526073, 26.652651838012048 ], [ 94.537271466105381, 26.624927658484637 ], [ 94.528888971648939, 26.622612036416513 ], [ 94.535304171250687, 26.619751694085323 ], [ 94.528335610699855, 26.617869003851581 ], [ 94.535786008217826, 26.616523824015246 ], [ 94.533610646214413, 26.607876775992565 ], [ 94.515519574568884, 26.600223647903135 ], [ 94.504088041130444, 26.576960554486163 ], [ 94.495551918186663, 26.580546334945382 ], [ 94.497769480876912, 26.570017682170374 ], [ 94.473654663831667, 26.567298608044496 ], [ 94.444757602881168, 26.514405018776699 ], [ 94.45336756915799, 26.492625626871245 ], [ 94.449335161988188, 26.461506523707271 ], [ 94.483055543378669, 26.436778969773741 ], [ 94.467439986965928, 26.425338018634704 ], [ 94.457985608549222, 26.428221172269332 ], [ 94.40489394899663, 26.361986942643398 ], [ 94.3906751080699, 26.360223798389711 ], [ 94.377280442738311, 26.343129465152742 ], [ 94.352973999950223, 26.330900000134875 ], [ 94.358756341232265, 26.356342839750425 ], [ 94.315636098327445, 26.404350531951593 ], [ 94.319696947456237, 26.416215159102535 ], [ 94.296753842715702, 26.426737502234118 ], [ 94.324211000037735, 26.474660999905325 ], [ 94.352385999814203, 26.490992000280642 ], [ 94.351440000256048, 26.503871999793091 ], [ 94.377936999992585, 26.508329000283197 ], [ 94.37860900040522, 26.520481000397979 ], [ 94.396881000358121, 26.524930999666083 ] ] ] } },
{ "type": "Feature", "properties": { "pincode": "798622", "state": "Nagaland", "district": "Longleng, Mon", "officename": "Naginimora", "officetype": "S.O" }, "geometry": { "type": "Polygon", "coordinates": [ [ [ 94.752533000397761, 26.701575999632837 ], [ 94.746635000005313, 26.730003000238412 ], [ 94.760040000345839, 26.728255999714804 ], [ 94.740379000190785, 26.748359999614422 ], [ 94.74273700011247, 26.773428000002298 ], [ 94.756713999851229, 26.767017000234432 ], [ 94.773459999579472, 26.789701000400839 ], [ 94.802567000067199, 26.800758000381506 ], [ 94.805701999847486, 26.806900000334792 ], [ 94.797028000042133, 26.813249999987477 ], [ 94.813431000140611, 26.819468999894525 ], [ 94.821503000063501, 26.849192000010817 ], [ 94.851973999600375, 26.876042999884646 ], [ 94.870116999899665, 26.9097270001011 ], [ 94.886696000020322, 26.92716000003395 ], [ 94.928641999928459, 26.946748999566864 ], [ 94.943180748592681, 26.91491549205648 ], [ 94.937532962076659, 26.915137040042453 ], [ 94.933841081400828, 26.890477672706481 ], [ 94.946709581282164, 26.886434217365434 ], [ 94.921907094936728, 26.858263273531406 ], [ 94.940747823453421, 26.832357037547411 ], [ 94.936254458876306, 26.817777363434629 ], [ 94.943702532545956, 26.785473988034255 ], [ 94.923410178636914, 26.770641751915434 ], [ 94.937513104146433, 26.748105843110238 ], [ 94.961722844633641, 26.7496491453918 ], [ 94.972293331172523, 26.72339939356732 ], [ 94.963455295925201, 26.714951992340616 ], [ 94.969288524446029, 26.704224588493958 ], [ 94.953147807125674, 26.69530620421807 ], [ 94.927307561594944, 26.645604352059365 ], [ 94.903826382581485, 26.637496136437619 ], [ 94.897252077621374, 26.626719054041189 ], [ 94.903583547642711, 26.615231408303032 ], [ 94.879981999769484, 26.609505000355568 ], [ 94.795340999587609, 26.629799000024036 ], [ 94.783095999680768, 26.655916000223328 ], [ 94.791755999739735, 26.683416000348245 ], [ 94.785163999719032, 26.698247999945295 ], [ 94.752533000397761, 26.701575999632837 ] ] ] } },
{ "type": "Feature", "properties": { "pincode": "798611", "state": "Nagaland", "district": "Kiphire, Tuensang", "officename": "Kiphire", "officetype": "S.O" }, "geometry": { "type": "Polygon", "coordinates": [ [ [ 94.613807999939411, 25.838760000273851 ], [ 94.595459000032861, 25.878036000261318 ], [ 94.57618699983027, 25.895533000447642 ], [ 94.674126082652833, 26.021228418057035 ], [ 94.69500352379373, 26.017688798899087 ], [ 94.72688228608871, 26.027120310254304 ], [ 94.740809024516977, 26.021085383583738 ], [ 94.748938424568735, 26.029525216115928 ], [ 94.78500922909268, 26.015641793534087 ], [ 94.838911406236605, 26.035132695017978 ], [ 94.890742664142692, 26.004218801856325 ], [ 94.869667015120797, 25.956450900388802 ], [ 94.848979983839229, 25.933099796618535 ], [ 94.875880995011983, 25.948264614620427 ], [ 94.897822870129346, 25.942619527868942 ], [ 94.929752427932272, 25.949238122641248 ], [ 94.940064085089546, 25.941822861635842 ], [ 94.939451131464637, 25.915827350851714 ], [ 94.952311952934281, 25.90327909955073 ], [ 94.965153084647284, 25.905367454844225 ], [ 94.978466332555286, 25.880360605657643 ], [ 95.019401242673382, 25.895535487073118 ], [ 95.042312622030124, 25.74756431564083 ], [ 95.033668518387515, 25.73036384621463 ], [ 94.983474731673653, 25.713909149487677 ], [ 94.966972351093204, 25.685466765978447 ], [ 94.926422118785922, 25.647176742212935 ], [ 94.903099060373336, 25.597389221535366 ], [ 94.883779050762712, 25.587378861545403 ], [ 94.871414000356026, 25.606295000014313 ], [ 94.854836000281296, 25.610573000343777 ], [ 94.85032700009117, 25.649982000169189 ], [ 94.861243999910698, 25.716566000420698 ], [ 94.833701999647701, 25.752426000259788 ], [ 94.788475000421101, 25.776417000444326 ], [ 94.75473000008941, 25.779821000039192 ], [ 94.72598300001556, 25.747448000025372 ], [ 94.724854000112202, 25.720949000196299 ], [ 94.720215000222197, 25.750380000336918 ], [ 94.698799000073791, 25.788508999590817 ], [ 94.648102000407221, 25.815858999992884 ], [ 94.614524999729099, 25.816123999623073 ], [ 94.605597999947918, 25.828332999668191 ], [ 94.613807999939411, 25.838760000273851 ] ] ] } },
{ "type": "Feature", "properties": { "pincode": "798613", "state": "Nagaland", "district": "Mokokchung", "officename": "Chantongia", "officetype": "S.O" }, "geometry": { "type": "Polygon", "coordinates": [ [ [ 94.59893213141288, 26.59932124567905 ], [ 94.639657894296533, 26.629860860790131 ], [ 94.646313937738114, 26.627562073131287 ], [ 94.645654702302807, 26.639784981192065 ], [ 94.670402999998601, 26.64803300002302 ], [ 94.71170800002443, 26.636417000344409 ], [ 94.734481999844604, 26.604268999914325 ], [ 94.72868300042029, 26.567419000286804 ], [ 94.691429000148446, 26.523827000016183 ], [ 94.693733000277803, 26.475723000316179 ], [ 94.673763967033608, 26.491700229881815 ], [ 94.651306540264727, 26.492353062144218 ], [ 94.643329650842816, 26.479260125654378 ], [ 94.581302483023421, 26.506128504926608 ], [ 94.590612308011828, 26.513420721589114 ], [ 94.584569457414659, 26.523954574244328 ], [ 94.589024298632523, 26.530665555471046 ], [ 94.563528388224597, 26.541530498933469 ], [ 94.569658866963266, 26.552034844832349 ], [ 94.56548407463049, 26.562966085416576 ], [ 94.59452548756127, 26.579245218292215 ], [ 94.59893213141288, 26.59932124567905 ] ] ] } },
{ "type": "Feature", "properties": { "pincode": "798614", "state": "Nagaland", "district": "Mokokchung", "officename": "Chuchuyimlang", "officetype": "S.O" }, "geometry": { "type": "Polygon", "coordinates": [ [ [ 94.662448209617367, 26.494485646995145 ], [ 94.70222499978405, 26.468162999722779 ], [ 94.711304000279483, 26.439487000224972 ], [ 94.706061999561712, 26.412422000374988 ], [ 94.693649000001358, 26.407161999726611 ], [ 94.678374999806408, 26.384300000344808 ], [ 94.657398871560872, 26.375536426265228 ], [ 94.641226715740515, 26.385385007212449 ], [ 94.569267918179889, 26.376686986515324 ], [ 94.575706128734964, 26.400570327958349 ], [ 94.565469053254333, 26.440843149991508 ], [ 94.583934399353097, 26.462845147485666 ], [ 94.582503245228622, 26.477921821135283 ], [ 94.528980935421885, 26.48796072021122 ], [ 94.54452172669653, 26.50307265717754 ], [ 94.550029465387638, 26.496009237936221 ], [ 94.552495014333601, 26.497817577619344 ], [ 94.547530035382977, 26.508269211554932 ], [ 94.563528388224597, 26.541530498933469 ], [ 94.588557454263139, 26.531638661495094 ], [ 94.590612308011828, 26.513420721589114 ], [ 94.581302483023421, 26.506128504926608 ], [ 94.60258099841451, 26.491916283010084 ], [ 94.625418480478686, 26.491183965967366 ], [ 94.643329650842816, 26.479260125654378 ], [ 94.651306540264727, 26.492353062144218 ], [ 94.662448209617367, 26.494485646995145 ] ] ] } },
{ "type": "Feature", "properties": { "pincode": "798615", "state": "Nagaland", "district": "Mokokchung", "officename": "Impur", "officetype": "S.O" }, "geometry": { "type": "Polygon", "coordinates": [ [ [ 94.585700324310608, 26.466842758986331 ], [ 94.565469053254333, 26.440843149991508 ], [ 94.575706128734964, 26.400570327958349 ], [ 94.569267918179889, 26.376686986515324 ], [ 94.529530295287032, 26.363314914851514 ], [ 94.513744454043433, 26.366129827929228 ], [ 94.50605600148333, 26.381298979764324 ], [ 94.481823790535429, 26.387363640719627 ], [ 94.467155063755172, 26.410062881696831 ], [ 94.444602735128228, 26.412215141915397 ], [ 94.457985608549222, 26.428221172269332 ], [ 94.467439986965928, 26.425338018634704 ], [ 94.474383284660917, 26.434924430118372 ], [ 94.483159189345145, 26.438088642576986 ], [ 94.487252361007734, 26.431356581241403 ], [ 94.492017341527173, 26.442019061230837 ], [ 94.502337299426983, 26.440030725837403 ], [ 94.498660954539616, 26.459958751795 ], [ 94.508001718004891, 26.460470814076814 ], [ 94.515893417347456, 26.478131245360771 ], [ 94.530677573911134, 26.486621286143532 ], [ 94.581010313974787, 26.479282881200106 ], [ 94.585700324310608, 26.466842758986331 ] ] ] } },
{ "type": "Feature", "properties": { "pincode": "798623", "state": "Nagaland", "district": "Mokokchung", "officename": "Paper Nagar", "officetype": "S.O" }, "geometry": { "type": "Polygon", "coordinates": [ [ [ 94.645654702302807, 26.639784981192065 ], [ 94.654668021712041, 26.656644450181318 ], [ 94.62867000002052, 26.713569999655874 ], [ 94.686950999589101, 26.727432000386614 ], [ 94.738075000061428, 26.763633999809372 ], [ 94.740379000190785, 26.748359999614422 ], [ 94.760040000345839, 26.728255999714804 ], [ 94.746635000005313, 26.730003000238412 ], [ 94.752533000397761, 26.701575999632837 ], [ 94.727202999618726, 26.69669500027419 ], [ 94.718902999973466, 26.679670000270278 ], [ 94.69605300024574, 26.663411999664049 ], [ 94.645654702302807, 26.639784981192065 ] ] ] } },
{ "type": "Feature", "properties": { "pincode": "798616", "state": "Nagaland", "district": "Tuensang", "officename": "Longkhim", "officetype": "S.O" }, "geometry": { "type": "Polygon", "coordinates": [ [ [ 94.711304000279483, 26.439487000224972 ], [ 94.74898488894172, 26.452760660875981 ], [ 94.765750140456817, 26.44756087613365 ], [ 94.774933889487386, 26.430625522350113 ], [ 94.85128075630189, 26.374399291993882 ], [ 94.872021593122213, 26.369786631447937 ], [ 94.888012718112577, 26.377481407141318 ], [ 94.893640213225353, 26.36923080995399 ], [ 94.911471063339093, 26.369629685361929 ], [ 94.913582453867264, 26.360952745672648 ], [ 94.852150018508667, 26.309233087337077 ], [ 94.756585200746542, 26.289458565760242 ], [ 94.755165386173758, 26.212781327596247 ], [ 94.740275581752883, 26.202517460412537 ], [ 94.690623455807895, 26.194336547193814 ], [ 94.674698000212743, 26.207520000447687 ], [ 94.655998000307534, 26.203905000115753 ], [ 94.6425020002672, 26.217968000223095 ], [ 94.622528000067234, 26.198787999766409 ], [ 94.605887999831396, 26.198592999767186 ], [ 94.588553999967303, 26.213757000285341 ], [ 94.588051000153598, 26.235678000339476 ], [ 94.565392000240593, 26.255783000285419 ], [ 94.565140000310862, 26.279057999826932 ], [ 94.631492999802333, 26.333672000262766 ], [ 94.652893000111931, 26.340939999981117 ], [ 94.662246999799265, 26.376115999753665 ], [ 94.706061999561712, 26.412422000374988 ], [ 94.711304000279483, 26.439487000224972 ] ] ] } },
{ "type": "Feature", "properties": { "pincode": "798627", "state": "Nagaland", "district": "Zunheboto", "officename": "Lumami", "officetype": "S.O" }, "geometry": { "type": "Polygon", "coordinates": [ [ [ 94.443088304681737, 26.198855135955853 ], [ 94.463356000079443, 26.260531999851992 ], [ 94.477631000070573, 26.287371000071744 ], [ 94.488273999845433, 26.289927000131001 ], [ 94.514564999974937, 26.234587000389865 ], [ 94.500518999752103, 26.219560999940313 ], [ 94.514378498568931, 26.1856551558609 ], [ 94.495294365842369, 26.183999450914087 ], [ 94.480478467707201, 26.199636474143915 ], [ 94.443088304681737, 26.198855135955853 ] ] ] } },
{ "type": "Feature", "properties": { "pincode": "798617", "state": "Nagaland", "district": "Mokokchung", "officename": "Opangkong", "officetype": "S.O" }, "geometry": { "type": "Polygon", "coordinates": [ [ [ 94.488273999845433, 26.289927000131001 ], [ 94.435374434582627, 26.305344782136046 ], [ 94.386409221608403, 26.350413555541195 ], [ 94.3906751080699, 26.360223798389711 ], [ 94.40489394899663, 26.361986942643398 ], [ 94.444602735128228, 26.412215141915397 ], [ 94.467155063755172, 26.410062881696831 ], [ 94.484024507125412, 26.385486548765243 ], [ 94.50605600148333, 26.381298979764324 ], [ 94.506634058714894, 26.372563656088005 ], [ 94.520654775397702, 26.364449879058725 ], [ 94.626222549031581, 26.385294217054479 ], [ 94.660608890088326, 26.379740566174178 ], [ 94.665595999555933, 26.371485000232724 ], [ 94.652893000111931, 26.340939999981117 ], [ 94.631492999802333, 26.333672000262766 ], [ 94.565140000310862, 26.279057999826932 ], [ 94.565392000240593, 26.255783000285419 ], [ 94.588051000153598, 26.235678000339476 ], [ 94.588486000428645, 26.220772000027864 ], [ 94.576285999899028, 26.209685999609235 ], [ 94.550399999560398, 26.202455999844688 ], [ 94.535103000103391, 26.217114999557623 ], [ 94.524063000007629, 26.210761999766476 ], [ 94.501404000094624, 26.214558000351474 ], [ 94.513573000093913, 26.237917000169602 ], [ 94.488273999845433, 26.289927000131001 ] ] ] } },
{ "type": "Feature", "properties": { "pincode": "798619", "state": "Nagaland", "district": "Zunheboto", "officename": "Akuluto", "officetype": "S.O" }, "geometry": { "type": "Polygon", "coordinates": [ [ [ 94.514378498568931, 26.1856551558609 ], [ 94.528355116995101, 26.162461260778684 ], [ 94.545223955121628, 26.153606286800766 ], [ 94.545501688252386, 26.141166424491132 ], [ 94.536360868359509, 26.134934667700861 ], [ 94.545253702896218, 26.105921718312686 ], [ 94.540257551644743, 26.090655295805391 ], [ 94.508514512335125, 26.080164932565765 ], [ 94.484503986070138, 26.049412777977466 ], [ 94.468249931689115, 26.042070000530032 ], [ 94.466568242630331, 26.029257174079362 ], [ 94.447328466036026, 26.035865345709169 ], [ 94.436474582436119, 26.029982444034601 ], [ 94.415190077560226, 26.057365536790201 ], [ 94.39972539591048, 26.063619219951192 ], [ 94.385327208583988, 26.048916482609627 ], [ 94.374442999844689, 26.053287999841416 ], [ 94.390816000358313, 26.081207000402799 ], [ 94.382888999927502, 26.099467999848343 ], [ 94.389731999832009, 26.114642999974478 ], [ 94.353783000385249, 26.154449000121417 ], [ 94.351593000116964, 26.170941999873492 ], [ 94.341369999925689, 26.170745999828114 ], [ 94.337638999640262, 26.178984000211528 ], [ 94.410483999936787, 26.211640999832468 ], [ 94.443352000294624, 26.204254000022217 ], [ 94.443088304681737, 26.198855135955853 ], [ 94.480478467707201, 26.199636474143915 ], [ 94.495294365842369, 26.183999450914087 ], [ 94.514378498568931, 26.1856551558609 ] ] ] } },
{ "type": "Feature", "properties": { "pincode": "798625", "state": "Nagaland", "district": "Longleng", "officename": "Longleng", "officetype": "S.O" }, "geometry": { "type": "Polygon", "coordinates": [ [ [ 94.711304000279483, 26.439487000224972 ], [ 94.692611999843962, 26.479276999633953 ], [ 94.691429000148446, 26.523827000016183 ], [ 94.72868300042029, 26.567419000286804 ], [ 94.737061000065296, 26.5952030000185 ], [ 94.724692999882166, 26.620393999783403 ], [ 94.750328580399923, 26.644486770847834 ], [ 94.786934000403903, 26.655039000249701 ], [ 94.795340999587609, 26.629799000024036 ], [ 94.858635000105153, 26.610376000052497 ], [ 94.890305000075784, 26.610759999774245 ], [ 94.89462999987478, 26.602968000173178 ], [ 94.889068999734604, 26.591514999917422 ], [ 94.89607199982305, 26.592220000053032 ], [ 94.884186000283933, 26.575173999980223 ], [ 94.897369000279241, 26.525862000331074 ], [ 94.893844999647115, 26.478911999889021 ], [ 94.905106000041883, 26.457840000315855 ], [ 94.903046000372683, 26.439510000386235 ], [ 94.911559999994097, 26.434011000407452 ], [ 94.901092629721177, 26.428592007715224 ], [ 94.905890219658033, 26.423046454330517 ], [ 94.897755628719437, 26.424920623487992 ], [ 94.92240152780829, 26.38119367454857 ], [ 94.905714474143736, 26.368145697865828 ], [ 94.888012718112577, 26.377481407141318 ], [ 94.861395899900913, 26.369415154785656 ], [ 94.774933889487386, 26.430625522350113 ], [ 94.765750140456817, 26.44756087613365 ], [ 94.74898488894172, 26.452760660875981 ], [ 94.711304000279483, 26.439487000224972 ] ] ] } },
{ "type": "Feature", "properties": { "pincode": "797104", "state": "Nagaland", "district": "Phek", "officename": "Chozuba", "officetype": "S.O" }, "geometry": { "type": "Polygon", "coordinates": [ [ [ 94.220850939719071, 25.639058157408158 ], [ 94.22169728450217, 25.693268876657442 ], [ 94.293378073739177, 25.746338443464424 ], [ 94.314348818643168, 25.744322159839726 ], [ 94.324196204391399, 25.759179386319772 ], [ 94.316427728357041, 25.77043598813043 ], [ 94.331828045527914, 25.801559837016839 ], [ 94.409844608941739, 25.836859293921407 ], [ 94.465111000072795, 25.842131000145628 ], [ 94.4652439909176, 25.826397798919402 ], [ 94.432325964871438, 25.801831490730763 ], [ 94.437318462177529, 25.777173664832901 ], [ 94.431133694064783, 25.767961774216531 ], [ 94.357518901975823, 25.732462605764795 ], [ 94.362605645534245, 25.728374348897148 ], [ 94.35203947124478, 25.712943665218063 ], [ 94.359662498125829, 25.671515723372011 ], [ 94.333349933153045, 25.648431274883592 ], [ 94.316531708871366, 25.658553498844981 ], [ 94.301446505152114, 25.644477988268704 ], [ 94.295277955413383, 25.628660973824935 ], [ 94.306534297319956, 25.611853122323907 ], [ 94.28840711969292, 25.604979128184311 ], [ 94.251404807286121, 25.621916986579834 ], [ 94.24065869664156, 25.617358368993678 ], [ 94.220850939719071, 25.639058157408158 ] ] ] } },
{ "type": "Feature", "properties": { "pincode": "797110", "state": "Nagaland", "district": "Peren", "officename": "Zalukie", "officetype": "S.O" }, "geometry": { "type": "Polygon", "coordinates": [ [ [ 93.390434000029188, 25.481960000353865 ], [ 93.365020999919409, 25.506534999590656 ], [ 93.352371000221524, 25.533978999831049 ], [ 93.340454000152079, 25.533744999831924 ], [ 93.331833000093013, 25.543275999587934 ], [ 93.34838099968357, 25.559673000308692 ], [ 93.364227000176129, 25.557071999972834 ], [ 93.365210999688031, 25.566176999868787 ], [ 93.384804000304428, 25.574305999722299 ], [ 93.390120999984276, 25.591108000234101 ], [ 93.40688299955093, 25.592830999650971 ], [ 93.407700000354851, 25.605789000062316 ], [ 93.427605000070685, 25.627794000392839 ], [ 93.446845999743346, 25.635110999673088 ], [ 93.46198299991562, 25.629662000201222 ], [ 93.457183999841845, 25.636877000173627 ], [ 93.499953999977322, 25.652741999743682 ], [ 93.526000999646612, 25.695859999739184 ], [ 93.530608999905496, 25.688878999766075 ], [ 93.544448999621693, 25.702060999715457 ], [ 93.559727944289421, 25.692005100754841 ], [ 93.580983109682847, 25.693475459025365 ], [ 93.605506464451935, 25.673351634470521 ], [ 93.634859505062195, 25.672410127025898 ], [ 93.677953214369495, 25.694090233777331 ], [ 93.684181387361207, 25.668436785529366 ], [ 93.736623160830391, 25.686688064202826 ], [ 93.742211814223936, 25.6971441731651 ], [ 93.74670297186475, 25.685946706275558 ], [ 93.775927820412676, 25.666658881602132 ], [ 93.816685017299847, 25.680374678648548 ], [ 93.878650857650996, 25.680288628817266 ], [ 93.899595378324193, 25.661449458825473 ], [ 93.920070020315279, 25.618399227242662 ], [ 93.89141100001774, 25.563794999739514 ], [ 93.861717000339411, 25.552955999919561 ], [ 93.83600599997709, 25.558549999782713 ], [ 93.819228999718689, 25.539900000384876 ], [ 93.770195000299111, 25.535883000400133 ], [ 93.765304999626153, 25.495496999586862 ], [ 93.787956000069414, 25.502041000092106 ], [ 93.803512999825216, 25.494548999936569 ], [ 93.813323999902821, 25.480223000291289 ], [ 93.808418000290544, 25.461080999788408 ], [ 93.780463999913707, 25.420241999668633 ], [ 93.746077999700105, 25.401299000248741 ], [ 93.739182000049311, 25.380005000330527 ], [ 93.710983000065539, 25.35372199967054 ], [ 93.69219199956126, 25.357267000371905 ], [ 93.690340697465274, 25.368571541443487 ], [ 93.706413604104512, 25.387025564178487 ], [ 93.707346065268837, 25.405658180580645 ], [ 93.682040790450287, 25.434244190317202 ], [ 93.68488174159927, 25.467945958439373 ], [ 93.645098858525614, 25.492962132696277 ], [ 93.656099960244944, 25.531058278816488 ], [ 93.578043255591808, 25.504789307580722 ], [ 93.524774336966232, 25.471902770396582 ], [ 93.519095031910297, 25.438925999735204 ], [ 93.52957904593643, 25.428915467075171 ], [ 93.532750596862684, 25.392981050135518 ], [ 93.546339799941791, 25.37010199151382 ], [ 93.514161227958425, 25.33678610899193 ], [ 93.465416914559057, 25.345915207121266 ], [ 93.47792100015414, 25.375988000345956 ], [ 93.463012999750163, 25.407115999603832 ], [ 93.461646999709274, 25.43087599992748 ], [ 93.434791999651225, 25.45100800021919 ], [ 93.416977000088593, 25.449052999995956 ], [ 93.395812999870088, 25.460428000252193 ], [ 93.390434000029188, 25.481960000353865 ] ] ] } },
{ "type": "Feature", "properties": { "pincode": "797002", "state": "Nagaland", "district": "Kohima, Peren", "officename": "Kohima Science College", "officetype": "S.O" }, "geometry": { "type": "Polygon", "coordinates": [ [ [ 94.083754346186311, 25.657780192501946 ], [ 94.070866259070726, 25.629117322206753 ], [ 94.07047005554864, 25.605740811689031 ], [ 94.042923000196481, 25.572534999890536 ], [ 94.014090999799919, 25.591261000095017 ], [ 94.007019000126718, 25.586081999584792 ], [ 94.009735000370142, 25.566426999706323 ], [ 93.97982799986238, 25.566435000075217 ], [ 93.96458400015149, 25.551788000016188 ], [ 93.888322043727499, 25.565277122940927 ], [ 93.920070020315279, 25.618399227242662 ], [ 93.901023240030725, 25.657041798740181 ], [ 93.931235783404873, 25.696098305692317 ], [ 93.953568008357024, 25.706492437875681 ], [ 93.985031845943013, 25.736428568323845 ], [ 93.972428998599526, 25.757803860659806 ], [ 93.986310827582713, 25.779592904988647 ], [ 94.00273782608997, 25.780430087478521 ], [ 94.015399136560973, 25.770227945263628 ], [ 94.044424841033788, 25.725926629910191 ], [ 94.043473490509371, 25.7061453013647 ], [ 94.052025192408678, 25.697479587912824 ], [ 94.045837437647663, 25.688675153135819 ], [ 94.075543132109999, 25.683426786117366 ], [ 94.083754346186311, 25.657780192501946 ] ] ] } },
{ "type": "Feature", "properties": { "pincode": "798620", "state": "Nagaland", "district": "Zunheboto", "officename": "Zunheboto", "officetype": "S.O" }, "geometry": { "type": "Polygon", "coordinates": [ [ [ 94.295235907611186, 25.795200756010217 ], [ 94.272314699563879, 25.825177345158409 ], [ 94.255121323090748, 25.812486116940875 ], [ 94.232415095280601, 25.83972752870261 ], [ 94.233421667775815, 25.852336642522175 ], [ 94.217211494015373, 25.857753631524986 ], [ 94.210651218479029, 25.870231429037347 ], [ 94.237218446274312, 25.916637671491458 ], [ 94.278376400850391, 25.924684763790992 ], [ 94.296736230392924, 25.93763308839641 ], [ 94.286999974769174, 25.964675938843527 ], [ 94.287216000018418, 26.008778000404448 ], [ 94.306182999645841, 26.008404000244582 ], [ 94.316956000019388, 26.017885000392539 ], [ 94.339661000255035, 25.996533999644328 ], [ 94.359238000133644, 26.009554000217122 ], [ 94.374442999844689, 26.053287999841416 ], [ 94.385327208583988, 26.048916482609627 ], [ 94.398948915859876, 26.063613301512817 ], [ 94.415190077560226, 26.057365536790201 ], [ 94.436474582436119, 26.029982444034601 ], [ 94.447328466036026, 26.035865345709169 ], [ 94.466568242630331, 26.029257174079362 ], [ 94.468249931689115, 26.042070000530032 ], [ 94.484503986070138, 26.049412777977466 ], [ 94.508514512335125, 26.080164932565765 ], [ 94.540257551644743, 26.090655295805391 ], [ 94.545253702896218, 26.105921718312686 ], [ 94.536360868359509, 26.134934667700861 ], [ 94.545501688252386, 26.141166424491132 ], [ 94.545223955121628, 26.153606286800766 ], [ 94.518887994285706, 26.174982669115025 ], [ 94.505820999639582, 26.212375999552933 ], [ 94.535103000103391, 26.217114999557623 ], [ 94.550399999560398, 26.202455999844688 ], [ 94.587279999672319, 26.21852299973682 ], [ 94.613907000008169, 26.197131999842043 ], [ 94.6425020002672, 26.217968000223095 ], [ 94.655998000307534, 26.203905000115753 ], [ 94.674698000212743, 26.207520000447687 ], [ 94.693085000072813, 26.192878999766208 ], [ 94.704475000121192, 26.172053999892285 ], [ 94.689384000271446, 26.129104999596166 ], [ 94.690102000107402, 26.097795000039412 ], [ 94.705437000417362, 26.051853000215942 ], [ 94.659332000271831, 26.005091000349523 ], [ 94.575797999878034, 25.892138000368504 ], [ 94.604270999906873, 25.864682999620811 ], [ 94.612862000381085, 25.847171999688044 ], [ 94.605597999947918, 25.828332999668191 ], [ 94.612625000243668, 25.817562000286159 ], [ 94.648102000407221, 25.815858999992884 ], [ 94.683097999972858, 25.80043800021366 ], [ 94.7009510003885, 25.785922999946536 ], [ 94.715477000263434, 25.757642999824611 ], [ 94.663055000188194, 25.775250999733942 ], [ 94.631507999594703, 25.767335999856527 ], [ 94.613448999571631, 25.779244999557079 ], [ 94.558470385200167, 25.729666993936689 ], [ 94.547171941532042, 25.749827845378888 ], [ 94.528469105165129, 25.753365669490222 ], [ 94.546348999806639, 25.809019000226783 ], [ 94.530433999729325, 25.82091900041172 ], [ 94.517158999987942, 25.815253999972299 ], [ 94.496985999604192, 25.829573000193932 ], [ 94.470954999773483, 25.829642999824728 ], [ 94.459300328347467, 25.843636552485009 ], [ 94.409844608941739, 25.836859293921407 ], [ 94.363310535053301, 25.812543022442696 ], [ 94.348282221547265, 25.81203197189808 ], [ 94.325925830912524, 25.795072530672826 ], [ 94.316427728357041, 25.77043598813043 ], [ 94.324196204391399, 25.759179386319772 ], [ 94.314348818643168, 25.744322159839726 ], [ 94.298319184682725, 25.742827617900275 ], [ 94.285400707676729, 25.773617143816182 ], [ 94.295235907611186, 25.795200756010217 ] ] ] } },
{ "type": "Feature", "properties": { "pincode": "798626", "state": "Nagaland", "district": "Tuensang", "officename": "Noklak", "officetype": "S.O" }, "geometry": { "type": "Polygon", "coordinates": [ [ [ 94.924397554203836, 26.202164471113576 ], [ 94.903055793989836, 26.20164725481709 ], [ 94.89308383325249, 26.217411366641386 ], [ 94.927815537357219, 26.254522308158187 ], [ 94.939308198614526, 26.298079088279337 ], [ 95.009623080440974, 26.291795084475609 ], [ 95.038552829949253, 26.312807194596473 ], [ 95.107679529286941, 26.320189845285256 ], [ 95.127859656797852, 26.33263980608217 ], [ 95.122015050054699, 26.32014038527069 ], [ 95.130285425132286, 26.289988807837346 ], [ 95.122451196965301, 26.260702126402123 ], [ 95.130291794130983, 26.249460278868924 ], [ 95.118946938250645, 26.227444835610811 ], [ 95.146778078645582, 26.208527021704867 ], [ 95.127967634798608, 26.186116947838912 ], [ 95.131202049235299, 26.174750742952483 ], [ 95.123809586943025, 26.1605511412223 ], [ 95.13260306887662, 26.129605209712679 ], [ 95.123791060908843, 26.115863878215521 ], [ 95.129637405142262, 26.103274188852822 ], [ 95.156402847113839, 26.093068386397078 ], [ 95.174425838281934, 26.095845109764241 ], [ 95.147140502732043, 26.086164474510952 ], [ 95.178131103567637, 26.075754165322621 ], [ 95.183425903482771, 26.063573837462684 ], [ 95.15560150170802, 26.018651962018509 ], [ 95.091690063545627, 25.956127166935232 ], [ 95.052284241025006, 25.927967071623129 ], [ 95.023841857515833, 25.924570084042273 ], [ 95.019401242673382, 25.895535487073118 ], [ 94.984923132096867, 25.877864818806529 ], [ 94.975363863051939, 25.882261880381634 ], [ 94.965153084647284, 25.905367454844225 ], [ 94.952311952934281, 25.90327909955073 ], [ 94.939451131464637, 25.915827350851714 ], [ 94.940963133741775, 25.938455214436715 ], [ 94.932279806168197, 25.948534794345392 ], [ 94.897822870129346, 25.942619527868942 ], [ 94.875880995011983, 25.948264614620427 ], [ 94.848979983839229, 25.933099796618535 ], [ 94.869667015120797, 25.956450900388802 ], [ 94.891011406751147, 26.000905279455196 ], [ 94.885544895680482, 26.006487688855884 ], [ 94.897677034267929, 26.011641137828349 ], [ 94.901064144594727, 26.028281289150243 ], [ 94.915168891231531, 26.031632690995878 ], [ 94.924626303960906, 26.049811026557677 ], [ 94.937005646393459, 26.055978135582563 ], [ 94.929560651103145, 26.100808855744333 ], [ 94.903553344811144, 26.133366650250935 ], [ 94.903729835863317, 26.14352306913446 ], [ 94.920924449803636, 26.15669953285726 ], [ 94.927231087744588, 26.173262037613028 ], [ 94.924397554203836, 26.202164471113576 ] ] ] } }
]
}
