{
"type": "FeatureCollection",
"name": "nct_of_delhi",
"crs": { "type": "name", "properties": { "name": "urn:ogc:def:crs:OGC:1.3:CRS84" } },
"features": [
{ "type": "Feature", "properties": { "pincode": "110035", "state": "Nct Of Delhi", "district": "North, North West", "officename": "Sarai Rohilla", "officetype": "S.O" }, "geometry": { "type": "Polygon", "coordinates": [ [ [ 77.14016142910674, 28.673689301420325 ], [ 77.158937606985035, 28.694676487729851 ], [ 77.1696044630757, 28.672484390642239 ], [ 77.183457711604092, 28.67005005806385 ], [ 77.180821341831518, 28.664513366598726 ], [ 77.14016142910674, 28.673689301420325 ] ] ] } },
{ "type": "Feature", "properties": { "pincode": "110044", "state": "Nct Of Delhi", "district": "South East", "officename": "Jaitpur (South Delhi)", "officetype": "S.O" }, "geometry": { "type": "Polygon", "coordinates": [ [ [ 77.258249365515837, 28.499898442059532 ], [ 77.261416041217387, 28.511211910701093 ], [ 77.252026214338514, 28.512904989673586 ], [ 77.263220000302965, 28.522019999923089 ], [ 77.288080537886572, 28.518780777710845 ], [ 77.300020537218188, 28.507604655330624 ], [ 77.348488727273036, 28.520617311140029 ], [ 77.329490392567607, 28.492205884993723 ], [ 77.31369862119459, 28.483405651849353 ], [ 77.300068449499463, 28.487830295631738 ], [ 77.299162660428522, 28.495368287116833 ], [ 77.279270043477823, 28.496490629339178 ], [ 77.272854684696028, 28.488116587610477 ], [ 77.258249365515837, 28.499898442059532 ] ] ] } },
{ "type": "Feature", "properties": { "pincode": "110074", "state": "Nct Of Delhi", "district": "South", "officename": "Chattarpur", "officetype": "S.O" }, "geometry": { "type": "Polygon", "coordinates": [ [ [ 77.165793879084276, 28.42473360906888 ], [ 77.168844224781196, 28.451947368476283 ], [ 77.153849893957613, 28.468553241239192 ], [ 77.176679950319624, 28.477886801135014 ], [ 77.171390000448241, 28.490510000136624 ], [ 77.17989255080073, 28.497975236468108 ], [ 77.197099697693147, 28.501326940486081 ], [ 77.215648282342386, 28.474658719724289 ], [ 77.231297755786784, 28.464447287512485 ], [ 77.239438293942328, 28.467438998311195 ], [ 77.261765920660878, 28.43893967782401 ], [ 77.236701646164079, 28.4110705806429 ], [ 77.180437359196844, 28.398706004178905 ], [ 77.165793879084276, 28.42473360906888 ] ] ] } },
{ "type": "Feature", "properties": { "pincode": "110001", "state": "Nct Of Delhi", "district": "Central, East, New Delhi, South East", "officename": "Sansad Marg", "officetype": "H.O" }, "geometry": { "type": "Polygon", "coordinates": [ [ [ 77.19716978545739, 28.644969987874674 ], [ 77.24419413465165, 28.623427808346833 ], [ 77.250649922456091, 28.599518865003631 ], [ 77.227714178666588, 28.612985736902317 ], [ 77.212326073389647, 28.610506198102655 ], [ 77.217332387879537, 28.606650222629696 ], [ 77.211686276800208, 28.604427645319731 ], [ 77.208770192690395, 28.615719550017275 ], [ 77.191545029679446, 28.618964315650658 ], [ 77.189283512624229, 28.634004777198868 ], [ 77.19716978545739, 28.644969987874674 ] ] ] } },
{ "type": "Feature", "properties": { "pincode": "110002", "state": "Nct Of Delhi", "district": "Central, East, North", "officename": "Indraprastha", "officetype": "H.O" }, "geometry": { "type": "Polygon", "coordinates": [ [ [ 77.256640346175118, 28.613880614498896 ], [ 77.240901761607063, 28.632396043842391 ], [ 77.223175320984524, 28.635449364496651 ], [ 77.220490043380835, 28.644708520781535 ], [ 77.232469512158332, 28.642203916078017 ], [ 77.226756919596141, 28.649218017397686 ], [ 77.245186905251614, 28.650663190154091 ], [ 77.246079659548798, 28.662897383807433 ], [ 77.255011041726448, 28.660477202960578 ], [ 77.265103707670107, 28.647678119949376 ], [ 77.254532143743461, 28.628009270511484 ], [ 77.256640346175118, 28.613880614498896 ] ] ] } },
{ "type": "Feature", "properties": { "pincode": "110003", "state": "Nct Of Delhi", "district": "East, New Delhi, South East", "officename": "Lodi Road", "officetype": "H.O" }, "geometry": { "type": "Polygon", "coordinates": [ [ [ 77.200358846183974, 28.581235883429429 ], [ 77.198913792137773, 28.596066805638714 ], [ 77.212843462355977, 28.591653419569639 ], [ 77.229305820407262, 28.610241015010956 ], [ 77.250155575019846, 28.599310995705878 ], [ 77.250783252345286, 28.61341887018483 ], [ 77.256640346175118, 28.613880614498896 ], [ 77.263976809482187, 28.601622271350891 ], [ 77.240041108610399, 28.592799137869974 ], [ 77.243991217920438, 28.58773116496144 ], [ 77.225434747116026, 28.567958326016083 ], [ 77.221963187751101, 28.57924605965809 ], [ 77.200358846183974, 28.581235883429429 ] ] ] } },
{ "type": "Feature", "properties": { "pincode": "110004", "state": "Nct Of Delhi", "district": "New Delhi", "officename": "Rashtrapati Bhawan", "officetype": "S.O" }, "geometry": { "type": "Polygon", "coordinates": [ [ [ 77.191019016214625, 28.61057360139057 ], [ 77.191545029679446, 28.618964315650658 ], [ 77.20889702497783, 28.61558838569556 ], [ 77.205948077841583, 28.610987251760321 ], [ 77.191019016214625, 28.61057360139057 ] ] ] } },
{ "type": "Feature", "properties": { "pincode": "110005", "state": "Nct Of Delhi", "district": "Central, North", "officename": "Karol Bagh", "officetype": "S.O" }, "geometry": { "type": "Polygon", "coordinates": [ [ [ 77.178906669007631, 28.642706721638035 ], [ 77.165777344149035, 28.669519785409818 ], [ 77.193091931047832, 28.661069933530825 ], [ 77.203929394825821, 28.655938656443823 ], [ 77.205278082017969, 28.646438116725733 ], [ 77.178906669007631, 28.642706721638035 ] ] ] } },
{ "type": "Feature", "properties": { "pincode": "110006", "state": "Nct Of Delhi", "district": "Central, East, North, North East, Shahdara", "officename": "Delhi G.P.O.", "officetype": "H.O" }, "geometry": { "type": "Polygon", "coordinates": [ [ [ 77.204056460937011, 28.655765545943325 ], [ 77.209383475467121, 28.667715346985688 ], [ 77.217999406947229, 28.663660017895552 ], [ 77.235533807239506, 28.67148898053216 ], [ 77.246079659548798, 28.662897383807433 ], [ 77.245186905251614, 28.650663190154091 ], [ 77.226756919596141, 28.649218017397686 ], [ 77.232469512158332, 28.642203916078017 ], [ 77.204056460937011, 28.655765545943325 ] ] ] } },
{ "type": "Feature", "properties": { "pincode": "110007", "state": "Nct Of Delhi", "district": "North, North West", "officename": "Roop Nagar", "officetype": "S.O" }, "geometry": { "type": "Polygon", "coordinates": [ [ [ 77.180821341831518, 28.664513366598726 ], [ 77.189898539186345, 28.682237096664721 ], [ 77.182431155273662, 28.697046820954142 ], [ 77.192263233661379, 28.690491354092899 ], [ 77.208824094456645, 28.697324561279629 ], [ 77.220741581958578, 28.692706749416971 ], [ 77.204056460937011, 28.655765545943325 ], [ 77.180821341831518, 28.664513366598726 ] ] ] } },
{ "type": "Feature", "properties": { "pincode": "110008", "state": "Nct Of Delhi", "district": "Central, North, West", "officename": "Dada Ghosh Bhawan", "officetype": "S.O" }, "geometry": { "type": "Polygon", "coordinates": [ [ [ 77.164219850565701, 28.664287475786352 ], [ 77.163589765755091, 28.657597755432164 ], [ 77.178906669007631, 28.642706721638035 ], [ 77.165323298931298, 28.640507516808611 ], [ 77.148862592934449, 28.650951392293052 ], [ 77.164219850565701, 28.664287475786352 ] ] ] } },
{ "type": "Feature", "properties": { "pincode": "110009", "state": "Nct Of Delhi", "district": "North, North West", "officename": "Nirankari Colony", "officetype": "S.O" }, "geometry": { "type": "Polygon", "coordinates": [ [ [ 77.173616415165554, 28.707194278093596 ], [ 77.183155811891424, 28.732109298405533 ], [ 77.226642901748733, 28.714568840279924 ], [ 77.216224415924103, 28.715449778384595 ], [ 77.203459543123529, 28.690626652598098 ], [ 77.192263233661379, 28.690491354092899 ], [ 77.173616415165554, 28.707194278093596 ] ] ] } },
{ "type": "Feature", "properties": { "pincode": "110010", "state": "Nct Of Delhi", "district": "South West", "officename": "COD (South West Delhi)", "officetype": "S.O" }, "geometry": { "type": "Polygon", "coordinates": [ [ [ 77.083216926420221, 28.574197081330396 ], [ 77.124006653584331, 28.62181525467031 ], [ 77.153207838271328, 28.61629175715899 ], [ 77.150099288451429, 28.610166329012941 ], [ 77.159786194677224, 28.602385680654834 ], [ 77.170590690208371, 28.603157393399044 ], [ 77.156043564359038, 28.589948885932415 ], [ 77.156384003618939, 28.575554708683001 ], [ 77.141702096374843, 28.56758986478053 ], [ 77.149334406058131, 28.562656215511993 ], [ 77.143007256379974, 28.553156554431496 ], [ 77.132210843955477, 28.554368950266962 ], [ 77.13469590639113, 28.570897125202293 ], [ 77.122507301171083, 28.566526434447383 ], [ 77.121104529650438, 28.574087424295328 ], [ 77.103009581926756, 28.579146999334569 ], [ 77.098833859694935, 28.572743241807302 ], [ 77.083216926420221, 28.574197081330396 ] ] ] } },
{ "type": "Feature", "properties": { "pincode": "110011", "state": "Nct Of Delhi", "district": "New Delhi, South East", "officename": "South Avenue", "officetype": "S.O" }, "geometry": { "type": "Polygon", "coordinates": [ [ [ 77.191019016214625, 28.61057360139057 ], [ 77.212078614136885, 28.604381475924527 ], [ 77.218477147502426, 28.613447689859129 ], [ 77.228085758750808, 28.610911384952601 ], [ 77.20975522822124, 28.59144505654433 ], [ 77.191019016214625, 28.61057360139057 ] ] ] } },
{ "type": "Feature", "properties": { "pincode": "110012", "state": "Nct Of Delhi", "district": "Central, South West", "officename": "I.A.R.I.", "officetype": "S.O" }, "geometry": { "type": "Polygon", "coordinates": [ [ [ 77.141356070526342, 28.618149687258381 ], [ 77.151355510948122, 28.648911095870403 ], [ 77.174718841001834, 28.64149584925417 ], [ 77.180694364753208, 28.623763150249374 ], [ 77.168861926136913, 28.60239540322533 ], [ 77.141356070526342, 28.618149687258381 ] ] ] } },
{ "type": "Feature", "properties": { "pincode": "110013", "state": "Nct Of Delhi", "district": "East, South East", "officename": "Hazrat Nizamuddin", "officetype": "S.O" }, "geometry": { "type": "Polygon", "coordinates": [ [ [ 77.279851378738329, 28.58604167518331 ], [ 77.240041108610399, 28.592799137869974 ], [ 77.263976809482187, 28.601622271350891 ], [ 77.279851378738329, 28.58604167518331 ] ] ] } },
{ "type": "Feature", "properties": { "pincode": "110014", "state": "Nct Of Delhi", "district": "East, South East", "officename": "Pratap Market", "officetype": "S.O" }, "geometry": { "type": "Polygon", "coordinates": [ [ [ 77.289363868647683, 28.579601481623172 ], [ 77.238570288088454, 28.578952917543234 ], [ 77.240981977536251, 28.586065220333694 ], [ 77.279851378738329, 28.58604167518331 ], [ 77.289363868647683, 28.579601481623172 ] ] ] } },
{ "type": "Feature", "properties": { "pincode": "110015", "state": "Nct Of Delhi", "district": "West", "officename": "Ramesh Nagar", "officetype": "H.O" }, "geometry": { "type": "Polygon", "coordinates": [ [ [ 77.125057263182214, 28.650102728158515 ], [ 77.1374396057534, 28.666947379018438 ], [ 77.167171415628445, 28.668146356968975 ], [ 77.132248290826112, 28.631430869838937 ], [ 77.125057263182214, 28.650102728158515 ] ] ] } },
{ "type": "Feature", "properties": { "pincode": "110016", "state": "Nct Of Delhi", "district": "South, South East, South West", "officename": "Technology Bhawan", "officetype": "S.O" }, "geometry": { "type": "Polygon", "coordinates": [ [ [ 77.203345514483829, 28.538954734073911 ], [ 77.178214191931602, 28.544477048976717 ], [ 77.188030833456367, 28.560766170622344 ], [ 77.2128268554751, 28.55426047943763 ], [ 77.203345514483829, 28.538954734073911 ] ] ] } },
{ "type": "Feature", "properties": { "pincode": "110017", "state": "Nct Of Delhi", "district": "South, South East", "officename": "Panchsheel Enclave", "officetype": "S.O" }, "geometry": { "type": "Polygon", "coordinates": [ [ [ 77.194864182736012, 28.531778202602084 ], [ 77.208848532633624, 28.543484082324653 ], [ 77.232184684275808, 28.541022401362852 ], [ 77.22682451803712, 28.515611524552298 ], [ 77.200557026186004, 28.521063770576575 ], [ 77.204945970480196, 28.527931035089125 ], [ 77.194864182736012, 28.531778202602084 ] ] ] } },
{ "type": "Feature", "properties": { "pincode": "110018", "state": "Nct Of Delhi", "district": "West", "officename": "Khyala Phase - II", "officetype": "S.O" }, "geometry": { "type": "Polygon", "coordinates": [ [ [ 77.066998479796098, 28.625519177268245 ], [ 77.058883309717089, 28.638513776489617 ], [ 77.077688199350973, 28.654352135442878 ], [ 77.105273550534037, 28.66099246592961 ], [ 77.109912686221548, 28.633698335909457 ], [ 77.103378183456527, 28.634389499076178 ], [ 77.103974841365869, 28.624978074978173 ], [ 77.095994189180544, 28.636428070598981 ], [ 77.066998479796098, 28.625519177268245 ] ] ] } },
{ "type": "Feature", "properties": { "pincode": "110019", "state": "Nct Of Delhi", "district": "South East", "officename": "Kalkaji", "officetype": "H.O" }, "geometry": { "type": "Polygon", "coordinates": [ [ [ 77.239609327008964, 28.541904440237829 ], [ 77.261747226453451, 28.559806998694171 ], [ 77.277250563662619, 28.520829275950348 ], [ 77.253749999762761, 28.517680000331723 ], [ 77.239609327008964, 28.541904440237829 ] ] ] } },
{ "type": "Feature", "properties": { "pincode": "110020", "state": "Nct Of Delhi", "district": "South East", "officename": "Okhla Industrial Estate", "officetype": "S.O" }, "geometry": { "type": "Polygon", "coordinates": [ [ [ 77.265723094145585, 28.554968762997987 ], [ 77.288751119168978, 28.549507998595345 ], [ 77.281837327330891, 28.538137272816982 ], [ 77.286456675235627, 28.516870998997376 ], [ 77.269534935389117, 28.531835874326191 ], [ 77.265723094145585, 28.554968762997987 ] ] ] } },
{ "type": "Feature", "properties": { "pincode": "110021", "state": "Nct Of Delhi", "district": "New Delhi, South East, South West", "officename": "Chanakya Puri", "officetype": "S.O" }, "geometry": { "type": "Polygon", "coordinates": [ [ [ 77.156384003618939, 28.575554708683001 ], [ 77.156043564359038, 28.589948885932415 ], [ 77.166334114428025, 28.594406210178477 ], [ 77.189296099535454, 28.633915287460582 ], [ 77.20031837219517, 28.580901234004841 ], [ 77.156384003618939, 28.575554708683001 ] ] ] } },
{ "type": "Feature", "properties": { "pincode": "110022", "state": "Nct Of Delhi", "district": "New Delhi, South West", "officename": "R K Puram Sect-5", "officetype": "S.O" }, "geometry": { "type": "Polygon", "coordinates": [ [ [ 77.161929255730627, 28.572184619824498 ], [ 77.175977285723263, 28.578565353808187 ], [ 77.18443400032902, 28.569687639572976 ], [ 77.175530761535526, 28.567247549534841 ], [ 77.188565580237423, 28.562428078193363 ], [ 77.183912836008574, 28.550596664804289 ], [ 77.161929255730627, 28.572184619824498 ] ] ] } },
{ "type": "Feature", "properties": { "pincode": "110023", "state": "Nct Of Delhi", "district": "New Delhi, South East", "officename": "Sarojini Nagar", "officetype": "H.O" }, "geometry": { "type": "Polygon", "coordinates": [ [ [ 77.216704441656702, 28.568909538044863 ], [ 77.183369499802723, 28.570309363386571 ], [ 77.175977285723263, 28.578565353808187 ], [ 77.221963187751101, 28.57924605965809 ], [ 77.216704441656702, 28.568909538044863 ] ] ] } },
{ "type": "Feature", "properties": { "pincode": "110024", "state": "Nct Of Delhi", "district": "South East", "officename": "Amar Colony", "officetype": "S.O" }, "geometry": { "type": "Polygon", "coordinates": [ [ [ 77.225434747116026, 28.567958326016083 ], [ 77.229405103762701, 28.578786338818588 ], [ 77.245886568810192, 28.579081660890097 ], [ 77.250295437584441, 28.562433133282525 ], [ 77.238793447659646, 28.558415595503448 ], [ 77.225434747116026, 28.567958326016083 ] ] ] } },
{ "type": "Feature", "properties": { "pincode": "110025", "state": "Nct Of Delhi", "district": "South East", "officename": "Sukhdev Vihar", "officetype": "S.O" }, "geometry": { "type": "Polygon", "coordinates": [ [ [ 77.285133254496031, 28.535551398178484 ], [ 77.288751119168978, 28.549507998595345 ], [ 77.27707791091683, 28.547685989217143 ], [ 77.264595733706244, 28.563881249520136 ], [ 77.293468670343032, 28.582406823216331 ], [ 77.31825057570353, 28.550826527022764 ], [ 77.304044830704356, 28.53568683248136 ], [ 77.299723545105678, 28.541657618604347 ], [ 77.285133254496031, 28.535551398178484 ] ] ] } },
{ "type": "Feature", "properties": { "pincode": "110026", "state": "Nct Of Delhi", "district": "West", "officename": "Punjabi Bagh Sec - III", "officetype": "S.O" }, "geometry": { "type": "Polygon", "coordinates": [ [ [ 77.116737330063927, 28.663291959556375 ], [ 77.124207716812748, 28.675679359015305 ], [ 77.157523960862193, 28.671175790730217 ], [ 77.124615109699675, 28.658931537260798 ], [ 77.116737330063927, 28.663291959556375 ] ] ] } },
{ "type": "Feature", "properties": { "pincode": "110027", "state": "Nct Of Delhi", "district": "West", "officename": "Rajouri Market", "officetype": "S.O" }, "geometry": { "type": "Polygon", "coordinates": [ [ [ 77.109679178151737, 28.634236504611238 ], [ 77.105273550534037, 28.66099246592961 ], [ 77.129261173764348, 28.66100634966341 ], [ 77.124095051545623, 28.652611227826071 ], [ 77.130020456978571, 28.637399185523975 ], [ 77.109679178151737, 28.634236504611238 ] ] ] } },
{ "type": "Feature", "properties": { "pincode": "110028", "state": "Nct Of Delhi", "district": "South West", "officename": "Naraina Industrial Estate", "officetype": "H.O" }, "geometry": { "type": "Polygon", "coordinates": [ [ [ 77.124006653584331, 28.62181525467031 ], [ 77.148862592934449, 28.650951392293052 ], [ 77.151807171164023, 28.649200119090324 ], [ 77.141356070526342, 28.618149687258381 ], [ 77.124006653584331, 28.62181525467031 ] ] ] } },
{ "type": "Feature", "properties": { "pincode": "110029", "state": "Nct Of Delhi", "district": "South East, South West", "officename": "Nauroji Nagar", "officetype": "S.O" }, "geometry": { "type": "Polygon", "coordinates": [ [ [ 77.189604898847108, 28.569522065391027 ], [ 77.212355603528465, 28.56905819328108 ], [ 77.211120333436781, 28.557734045190216 ], [ 77.188030833456367, 28.560766170622344 ], [ 77.189604898847108, 28.569522065391027 ] ] ] } },
{ "type": "Feature", "properties": { "pincode": "110030", "state": "Nct Of Delhi", "district": "South, South West", "officename": "T B Hospital", "officetype": "S.O" }, "geometry": { "type": "Polygon", "coordinates": [ [ [ 77.139293984429969, 28.489521598442991 ], [ 77.1786711401611, 28.512890472817048 ], [ 77.179080499865279, 28.528660933855122 ], [ 77.170888515992317, 28.530319443787334 ], [ 77.178214191931602, 28.544477048976717 ], [ 77.197492204102048, 28.536278587287086 ], [ 77.205500708291083, 28.515241100096716 ], [ 77.195255071264683, 28.499594080902284 ], [ 77.171390000448241, 28.490510000136624 ], [ 77.176679950319624, 28.477886801135014 ], [ 77.144207685836079, 28.477054924645188 ], [ 77.139293984429969, 28.489521598442991 ] ] ] } },
{ "type": "Feature", "properties": { "pincode": "110031", "state": "Nct Of Delhi", "district": "East, Shahdara", "officename": "Kailash Nagar", "officetype": "S.O" }, "geometry": { "type": "Polygon", "coordinates": [ [ [ 77.246079659548798, 28.662897383807433 ], [ 77.280534014533316, 28.671901200080413 ], [ 77.284402956431336, 28.665509746177918 ], [ 77.272473208471922, 28.662434391234285 ], [ 77.283666261488975, 28.639643583084933 ], [ 77.262849911294495, 28.639985813794283 ], [ 77.262605510635979, 28.653579348908011 ], [ 77.246079659548798, 28.662897383807433 ] ] ] } },
{ "type": "Feature", "properties": { "pincode": "110032", "state": "Nct Of Delhi", "district": "North East, Shahdara", "officename": "Babarpur (North East Delhi)", "officetype": "S.O" }, "geometry": { "type": "Polygon", "coordinates": [ [ [ 77.269174061733509, 28.671462938863613 ], [ 77.283789933558523, 28.701798933973691 ], [ 77.291471118697132, 28.706524492711253 ], [ 77.29240906302789, 28.675886612277509 ], [ 77.30370981435658, 28.675712789513682 ], [ 77.302670802415719, 28.656699783268323 ], [ 77.29263749622362, 28.653121433007811 ], [ 77.280534014533316, 28.671901200080413 ], [ 77.269174061733509, 28.671462938863613 ] ] ] } },
{ "type": "Feature", "properties": { "pincode": "110033", "state": "Nct Of Delhi", "district": "North West", "officename": "Jahangir Puri D Block", "officetype": "S.O" }, "geometry": { "type": "Polygon", "coordinates": [ [ [ 77.150899564563304, 28.731727142293778 ], [ 77.164427714467422, 28.737823197682474 ], [ 77.183155811891424, 28.732109298405533 ], [ 77.180186458238495, 28.713776621194199 ], [ 77.176144269142867, 28.710176045987851 ], [ 77.150899564563304, 28.731727142293778 ] ] ] } },
{ "type": "Feature", "properties": { "pincode": "110034", "state": "Nct Of Delhi", "district": "North West", "officename": "Anandvas Shakurpur", "officetype": "S.O" }, "geometry": { "type": "Polygon", "coordinates": [ [ [ 77.095294360146738, 28.683234006844032 ], [ 77.098594416998878, 28.692049920567513 ], [ 77.135243699637101, 28.708600555171643 ], [ 77.138653079875837, 28.69879493843564 ], [ 77.155371795971803, 28.692415292631836 ], [ 77.141696436941231, 28.678818821231687 ], [ 77.11098306471672, 28.688317136926401 ], [ 77.095294360146738, 28.683234006844032 ] ] ] } },
{ "type": "Feature", "properties": { "pincode": "110036", "state": "Nct Of Delhi", "district": "North West", "officename": "Alipur", "officetype": "S.O" }, "geometry": { "type": "Polygon", "coordinates": [ [ [ 77.123453358286042, 28.860961793252272 ], [ 77.137385507035731, 28.86280124498154 ], [ 77.140519388958751, 28.840148728281235 ], [ 77.155200945467413, 28.838138956647697 ], [ 77.171687889184852, 28.859020148860907 ], [ 77.209362601303042, 28.859939874725569 ], [ 77.221148723035128, 28.82372991180614 ], [ 77.216958858964176, 28.810921872446556 ], [ 77.198734653481665, 28.813851370844191 ], [ 77.19594141136713, 28.803019039497087 ], [ 77.211679529187109, 28.788004230211016 ], [ 77.170361014149591, 28.784488717380498 ], [ 77.167351825026799, 28.759634779921271 ], [ 77.14883217876212, 28.766958831684747 ], [ 77.147521736139424, 28.758386096441313 ], [ 77.114595543349708, 28.80448350720809 ], [ 77.137814201264632, 28.805088873252998 ], [ 77.123453358286042, 28.860961793252272 ] ] ] } },
{ "type": "Feature", "properties": { "pincode": "110037", "state": "Nct Of Delhi", "district": "South West", "officename": "Palam Airport", "officetype": "S.O" }, "geometry": { "type": "Polygon", "coordinates": [ [ [ 77.132210843955477, 28.554368950266962 ], [ 77.147979098057021, 28.550202687104388 ], [ 77.135678345579436, 28.534727294529148 ], [ 77.123595805502191, 28.531128138452914 ], [ 77.115969080608579, 28.538129309320311 ], [ 77.098219383517801, 28.521730003636719 ], [ 77.084957106485319, 28.531632026796728 ], [ 77.067290000433275, 28.529639999686367 ], [ 77.055767997895032, 28.542061806307345 ], [ 77.083216926420221, 28.574197081330396 ], [ 77.098833859694935, 28.572743241807302 ], [ 77.103009581926756, 28.579146999334569 ], [ 77.121104529650438, 28.574087424295328 ], [ 77.122507301171083, 28.566526434447383 ], [ 77.135005684165037, 28.57008997287403 ], [ 77.131832659249881, 28.555726503875121 ], [ 77.104182777213623, 28.552867459265883 ], [ 77.12432415383671, 28.546948918357884 ], [ 77.132210843955477, 28.554368950266962 ] ] ] } },
{ "type": "Feature", "properties": { "pincode": "110038", "state": "Nct Of Delhi", "district": "South West", "officename": "A F Rajokari", "officetype": "S.O" }, "geometry": { "type": "Polygon", "coordinates": [ [ [ 77.092561565963592, 28.512258938299397 ], [ 77.115969080608579, 28.538129309320311 ], [ 77.131040000395728, 28.522830000404383 ], [ 77.119329549419206, 28.492742759570831 ], [ 77.092561565963592, 28.512258938299397 ] ] ] } },
{ "type": "Feature", "properties": { "pincode": "110039", "state": "Nct Of Delhi", "district": "North West", "officename": "Bawana", "officetype": "S.O" }, "geometry": { "type": "Polygon", "coordinates": [ [ [ 76.96090714424929, 28.815206519665253 ], [ 76.965294508435022, 28.826080323248505 ], [ 76.977505433029478, 28.820666970204627 ], [ 76.993499446642204, 28.838275212031533 ], [ 77.03900886356837, 28.831053657800169 ], [ 77.040575804529851, 28.83698078273693 ], [ 77.063990992190668, 28.830299202146477 ], [ 77.056548907106503, 28.818800631444105 ], [ 77.073263666185369, 28.806208548086204 ], [ 77.046466278496041, 28.779545595552918 ], [ 77.014022617849662, 28.777977186897715 ], [ 76.967916522329688, 28.797265862329709 ], [ 76.956079668042378, 28.789116525207589 ], [ 76.940728026677334, 28.798020431297914 ], [ 76.94967273410947, 28.818373658517601 ], [ 76.96090714424929, 28.815206519665253 ] ] ] } },
{ "type": "Feature", "properties": { "pincode": "110040", "state": "Nct Of Delhi", "district": "North West", "officename": "Narela", "officetype": "S.O" }, "geometry": { "type": "Polygon", "coordinates": [ [ [ 77.041393338631792, 28.838138956647697 ], [ 77.057812156006435, 28.869273393252513 ], [ 77.072391519852772, 28.86722955709854 ], [ 77.080362480044585, 28.882933030335323 ], [ 77.123453358286042, 28.860961793252272 ], [ 77.137814201264632, 28.805088873252998 ], [ 77.114595543349708, 28.80448350720809 ], [ 77.09393419310851, 28.816182164475322 ], [ 77.080110742716727, 28.809117380962505 ], [ 77.059162485360389, 28.8219922768223 ], [ 77.059214312390679, 28.834393498860948 ], [ 77.041393338631792, 28.838138956647697 ] ] ] } },
{ "type": "Feature", "properties": { "pincode": "110041", "state": "Nct Of Delhi", "district": "West", "officename": "Nangloi - III", "officetype": "S.O" }, "geometry": { "type": "Polygon", "coordinates": [ [ [ 76.968006280965085, 28.681853542107376 ], [ 76.976613980051184, 28.696254295199594 ], [ 76.998776011004168, 28.677624284133515 ], [ 77.014321011105892, 28.693683360998421 ], [ 77.076356098355404, 28.68488980981698 ], [ 77.080121100208828, 28.657224061941065 ], [ 77.058387421742282, 28.638406429813017 ], [ 77.040158509208027, 28.655492328308526 ], [ 77.016495085280098, 28.643562733233694 ], [ 77.016756695365189, 28.659142868048889 ], [ 76.990606916675915, 28.648981615309538 ], [ 76.983280681358451, 28.658956092349968 ], [ 76.974595609100277, 28.657296895335492 ], [ 76.968006280965085, 28.681853542107376 ] ] ] } },
{ "type": "Feature", "properties": { "pincode": "110042", "state": "Nct Of Delhi", "district": "North, North West", "officename": "Delhi Engg. College", "officetype": "S.O" }, "geometry": { "type": "Polygon", "coordinates": [ [ [ 77.08371364986516, 28.739157055054193 ], [ 77.101895510769282, 28.766698716272913 ], [ 77.0975126512879, 28.774428231877323 ], [ 77.143362738599649, 28.771818203247506 ], [ 77.147521736139424, 28.758386096441313 ], [ 77.14883217876212, 28.766958831684747 ], [ 77.186096735276237, 28.758325474940932 ], [ 77.194130183061475, 28.738663918105317 ], [ 77.190933950241686, 28.730208931996742 ], [ 77.165362583116803, 28.73781546171432 ], [ 77.150899564563304, 28.731727142293778 ], [ 77.137378001293712, 28.745249216378227 ], [ 77.118028524496879, 28.744806969366266 ], [ 77.101612772911267, 28.736141014896134 ], [ 77.099246873344725, 28.726626595041523 ], [ 77.08371364986516, 28.739157055054193 ] ] ] } },
{ "type": "Feature", "properties": { "pincode": "110043", "state": "Nct Of Delhi", "district": "South West, West", "officename": "Najafgarh", "officetype": "S.O" }, "geometry": { "type": "Polygon", "coordinates": [ [ [ 76.908831221283947, 28.618253742416471 ], [ 76.92062929050951, 28.628105820826988 ], [ 76.937327091072575, 28.612314720348195 ], [ 76.945473961354423, 28.633047930917371 ], [ 76.974595609100277, 28.657296895335492 ], [ 76.983280681358451, 28.658956092349968 ], [ 76.990606916675915, 28.648981615309538 ], [ 77.016756695365189, 28.659142868048889 ], [ 77.016495085280098, 28.643562733233694 ], [ 77.041077126208449, 28.653592683156035 ], [ 77.025317316740882, 28.640723977329742 ], [ 77.021272485437009, 28.618536986592687 ], [ 77.010316156465478, 28.606428926453816 ], [ 77.014668185388473, 28.597071014715652 ], [ 76.976291265529596, 28.568213381842327 ], [ 76.965941076019874, 28.522046297898441 ], [ 76.972981852130829, 28.51740670445588 ], [ 76.953506145592314, 28.505294835688176 ], [ 76.933182332498689, 28.510345491251485 ], [ 76.941215968242545, 28.56591317685178 ], [ 76.934951364613823, 28.600890548759935 ], [ 76.908831221283947, 28.618253742416471 ] ] ] } },
{ "type": "Feature", "properties": { "pincode": "110045", "state": "Nct Of Delhi", "district": "South West, West", "officename": "Palam Village", "officetype": "S.O" }, "geometry": { "type": "Polygon", "coordinates": [ [ [ 77.070177321526216, 28.60317294357651 ], [ 77.077617060279294, 28.617711171533472 ], [ 77.095673060163676, 28.609792234424219 ], [ 77.090857743689924, 28.602780459650432 ], [ 77.101749404211716, 28.595787874610721 ], [ 77.091417655300688, 28.583784363357665 ], [ 77.074267156703968, 28.58549694143062 ], [ 77.070177321526216, 28.60317294357651 ] ] ] } },
{ "type": "Feature", "properties": { "pincode": "110046", "state": "Nct Of Delhi", "district": "South West, West", "officename": "Nangal Raya", "officetype": "S.O" }, "geometry": { "type": "Polygon", "coordinates": [ [ [ 77.090857743689924, 28.602780459650432 ], [ 77.10788276257955, 28.606573594995496 ], [ 77.114166296937071, 28.610390299772575 ], [ 77.101749404211716, 28.595787874610721 ], [ 77.090857743689924, 28.602780459650432 ] ] ] } },
{ "type": "Feature", "properties": { "pincode": "110047", "state": "Nct Of Delhi", "district": "South", "officename": "Arjungarh", "officetype": "S.O" }, "geometry": { "type": "Polygon", "coordinates": [ [ [ 77.123898228620533, 28.48738883912381 ], [ 77.139293984429969, 28.489521598442991 ], [ 77.144207685836079, 28.477054924645188 ], [ 77.162977282475708, 28.476311510867674 ], [ 77.153849893957613, 28.468553241239192 ], [ 77.168844224781196, 28.451947368476283 ], [ 77.164065324555224, 28.437344114139648 ], [ 77.170023933857578, 28.42641869037044 ], [ 77.127201223557677, 28.438054451751668 ], [ 77.126587142182927, 28.452981354106385 ], [ 77.114872358272692, 28.465877063875382 ], [ 77.123898228620533, 28.48738883912381 ] ] ] } },
{ "type": "Feature", "properties": { "pincode": "110048", "state": "Nct Of Delhi", "district": "South East", "officename": "Masjid Moth", "officetype": "S.O" }, "geometry": { "type": "Polygon", "coordinates": [ [ [ 77.238793447659646, 28.558415595503448 ], [ 77.250279361303512, 28.546010534258926 ], [ 77.239609327008964, 28.541904440237829 ], [ 77.24611303608782, 28.52792789735463 ], [ 77.232092865293566, 28.533582492638004 ], [ 77.228184548378294, 28.553735218705526 ], [ 77.238793447659646, 28.558415595503448 ] ] ] } },
{ "type": "Feature", "properties": { "pincode": "110049", "state": "Nct Of Delhi", "district": "South East", "officename": "Andrewsganj", "officetype": "S.O" }, "geometry": { "type": "Polygon", "coordinates": [ [ [ 77.208848532633624, 28.543484082324653 ], [ 77.212355603528465, 28.56905819328108 ], [ 77.218906036884221, 28.574258837775176 ], [ 77.234058190633164, 28.565438815948824 ], [ 77.231900000284782, 28.541559999894218 ], [ 77.208848532633624, 28.543484082324653 ] ] ] } },
{ "type": "Feature", "properties": { "pincode": "110050", "state": "Nct Of Delhi", "district": "South West", "officename": "Safdarjung Sorting Delivery Office", "officetype": "S.O" }, "geometry": { "type": "Polygon", "coordinates": [ [ [ 77.19449881966483, 28.565891847630724 ], [ 77.199271029834279, 28.569777223739891 ], [ 77.20024129849719, 28.565287195647613 ], [ 77.19449881966483, 28.565891847630724 ] ] ] } },
{ "type": "Feature", "properties": { "pincode": "110051", "state": "Nct Of Delhi", "district": "East, Shahdara", "officename": "Krishna Nagar", "officetype": "H.O" }, "geometry": { "type": "Polygon", "coordinates": [ [ [ 77.282969357949639, 28.640801561842636 ], [ 77.272473208471922, 28.662434391234285 ], [ 77.284402956431336, 28.665509746177918 ], [ 77.298714825928528, 28.644218212200826 ], [ 77.282969357949639, 28.640801561842636 ] ] ] } },
{ "type": "Feature", "properties": { "pincode": "110052", "state": "Nct Of Delhi", "district": "North, North West", "officename": "Ashok Vihar", "officetype": "H.O" }, "geometry": { "type": "MultiPolygon", "coordinates": [ [ [ [ 77.173616413592754, 28.70719427900093 ], [ 77.173616409301815, 28.707194283604736 ], [ 77.173620492219982, 28.707199275493565 ], [ 77.173616413592754, 28.70719427900093 ] ] ], [ [ [ 77.183457717299632, 28.670050054788646 ], [ 77.16960446536541, 28.672484397888184 ], [ 77.157654970884437, 28.699658274650631 ], [ 77.173616413592754, 28.70719427900093 ], [ 77.18129783868784, 28.69888624548912 ], [ 77.189898535609302, 28.682237103581485 ], [ 77.183457717299632, 28.670050054788646 ] ] ] ] } },
{ "type": "Feature", "properties": { "pincode": "110053", "state": "Nct Of Delhi", "district": "North East, Shahdara", "officename": "Maujpur", "officetype": "S.O" }, "geometry": { "type": "Polygon", "coordinates": [ [ [ 77.235533807239506, 28.67148898053216 ], [ 77.255974717459424, 28.672566670515437 ], [ 77.256200592083701, 28.704654962256882 ], [ 77.283789933558523, 28.701798933973691 ], [ 77.270171837959992, 28.670125976133022 ], [ 77.246079659548798, 28.662897383807433 ], [ 77.235533807239506, 28.67148898053216 ] ] ] } },
{ "type": "Feature", "properties": { "pincode": "110054", "state": "Nct Of Delhi", "district": "North, North East", "officename": "Patrachar Vidyalay", "officetype": "S.O" }, "geometry": { "type": "Polygon", "coordinates": [ [ [ 77.209018177147186, 28.697255411508195 ], [ 77.216224415924103, 28.715449778384595 ], [ 77.234167033781716, 28.712513398374711 ], [ 77.235533807239506, 28.67148898053216 ], [ 77.217999406947229, 28.663660017895552 ], [ 77.209574663240289, 28.667518722810996 ], [ 77.221206765280101, 28.691522129143095 ], [ 77.209018177147186, 28.697255411508195 ] ] ] } },
{ "type": "Feature", "properties": { "pincode": "110055", "state": "Nct Of Delhi", "district": "Central, North", "officename": "Swami Ram Tirth Nagar", "officetype": "S.O" }, "geometry": { "type": "Polygon", "coordinates": [ [ [ 77.203055273582152, 28.643098845835141 ], [ 77.20402727523873, 28.6554254385332 ], [ 77.218082569055525, 28.654128828382909 ], [ 77.222551637548236, 28.63663774663479 ], [ 77.203055273582152, 28.643098845835141 ] ] ] } },
{ "type": "Feature", "properties": { "pincode": "110056", "state": "Nct Of Delhi", "district": "North West", "officename": "Shakur Basti Depot", "officetype": "S.O" }, "geometry": { "type": "Polygon", "coordinates": [ [ [ 77.101247525852727, 28.682716982103159 ], [ 77.11098306471672, 28.688317136926401 ], [ 77.141696436941231, 28.678818821231687 ], [ 77.14016142910674, 28.673689301420325 ], [ 77.101247525852727, 28.682716982103159 ] ] ] } },
{ "type": "Feature", "properties": { "pincode": "110057", "state": "Nct Of Delhi", "district": "South West", "officename": "Vasant Vihar-1", "officetype": "S.O" }, "geometry": { "type": "Polygon", "coordinates": [ [ [ 77.161622695730841, 28.572589335429541 ], [ 77.171208146738707, 28.559345885704033 ], [ 77.161681290159549, 28.547053078736667 ], [ 77.143007256379974, 28.553156554431496 ], [ 77.149334406058131, 28.562656215511993 ], [ 77.141702096374843, 28.56758986478053 ], [ 77.161622695730841, 28.572589335429541 ] ] ] } },
{ "type": "Feature", "properties": { "pincode": "110058", "state": "Nct Of Delhi", "district": "West", "officename": "Janakpuri A-3", "officetype": "S.O" }, "geometry": { "type": "Polygon", "coordinates": [ [ [ 77.09204046999173, 28.634938697962525 ], [ 77.110029167312234, 28.612764925461022 ], [ 77.107917256975838, 28.606589477022908 ], [ 77.067150346511426, 28.62557622216508 ], [ 77.09204046999173, 28.634938697962525 ] ] ] } },
{ "type": "Feature", "properties": { "pincode": "110059", "state": "Nct Of Delhi", "district": "South West, West", "officename": "Uttam Nagar", "officetype": "S.O" }, "geometry": { "type": "Polygon", "coordinates": [ [ [ 77.021715846709128, 28.620670831393795 ], [ 77.025317316740882, 28.640723977329742 ], [ 77.051582638528032, 28.650329470628662 ], [ 77.077617060279294, 28.617711171533472 ], [ 77.07621642824563, 28.606788501488268 ], [ 77.06360614620678, 28.598253102498688 ], [ 77.021715846709128, 28.620670831393795 ] ] ] } },
{ "type": "Feature", "properties": { "pincode": "110060", "state": "Nct Of Delhi", "district": "Central", "officename": "Rajender Nagar", "officetype": "S.O" }, "geometry": { "type": "Polygon", "coordinates": [ [ [ 77.174354309803732, 28.641583633877644 ], [ 77.197339462346292, 28.645635559033792 ], [ 77.197827084652374, 28.645251663633474 ], [ 77.180694364753208, 28.623763150249374 ], [ 77.174354309803732, 28.641583633877644 ] ] ] } },
{ "type": "Feature", "properties": { "pincode": "110061", "state": "Nct Of Delhi", "district": "South West", "officename": "Bijwasan", "officetype": "S.O" }, "geometry": { "type": "Polygon", "coordinates": [ [ [ 77.011332037843431, 28.535931056872869 ], [ 77.009028281430233, 28.543794618227082 ], [ 77.024602895307567, 28.561469991746776 ], [ 77.043196724849224, 28.559135320238909 ], [ 77.050876047491727, 28.554675395153481 ], [ 77.029969999815762, 28.546389999598773 ], [ 77.029840000116053, 28.539219999903139 ], [ 77.049090000203535, 28.534080000291965 ], [ 77.05905471330442, 28.540573804237738 ], [ 77.076732780293696, 28.527530965381857 ], [ 77.067833388799897, 28.512960374421937 ], [ 77.072919976775609, 28.509678997387994 ], [ 77.049832971514491, 28.511222585653911 ], [ 77.044293152207388, 28.524948092680518 ], [ 77.011332037843431, 28.535931056872869 ] ] ] } },
{ "type": "Feature", "properties": { "pincode": "110062", "state": "Nct Of Delhi", "district": "South, South East", "officename": "Dakshinpuri Phase-III", "officetype": "S.O" }, "geometry": { "type": "Polygon", "coordinates": [ [ [ 77.222896179515089, 28.492038568825137 ], [ 77.212630402171328, 28.509602487564848 ], [ 77.22682451803712, 28.515611524552298 ], [ 77.232092865293566, 28.533582492638004 ], [ 77.255949500469171, 28.52362000985562 ], [ 77.251864985680697, 28.511822776999622 ], [ 77.261416041217387, 28.511211910701093 ], [ 77.258249365515837, 28.499898442059532 ], [ 77.229379701512244, 28.507889656782368 ], [ 77.222896179515089, 28.492038568825137 ] ] ] } },
{ "type": "Feature", "properties": { "pincode": "110063", "state": "Nct Of Delhi", "district": "West", "officename": "Paschim Vihar", "officetype": "S.O" }, "geometry": { "type": "Polygon", "coordinates": [ [ [ 77.094647661260638, 28.679463201665499 ], [ 77.113940076973108, 28.681625653900937 ], [ 77.123224052747901, 28.669826036942197 ], [ 77.117910033421481, 28.661949209688316 ], [ 77.088878212659495, 28.654543613696944 ], [ 77.094647661260638, 28.679463201665499 ] ] ] } },
{ "type": "Feature", "properties": { "pincode": "110064", "state": "Nct Of Delhi", "district": "West", "officename": "Mayapuri Shopping Centre", "officetype": "S.O" }, "geometry": { "type": "Polygon", "coordinates": [ [ [ 77.103378183456527, 28.634389499076178 ], [ 77.125509366763993, 28.631857160179891 ], [ 77.130020456978571, 28.637399185523975 ], [ 77.132248290826112, 28.631430869838937 ], [ 77.114166296937071, 28.610390299772575 ], [ 77.102522361617844, 28.622459616218407 ], [ 77.103378183456527, 28.634389499076178 ] ] ] } },
{ "type": "Feature", "properties": { "pincode": "110065", "state": "Nct Of Delhi", "district": "South East", "officename": "Sant Nagar (South Delhi)", "officetype": "S.O" }, "geometry": { "type": "Polygon", "coordinates": [ [ [ 77.238793447659646, 28.558415595503448 ], [ 77.250211119847279, 28.562219162084773 ], [ 77.24593007261484, 28.574927169853197 ], [ 77.258293750656208, 28.572485034756539 ], [ 77.272079267644244, 28.581337701074233 ], [ 77.281410982131206, 28.575916229850293 ], [ 77.264595733706244, 28.563881249520136 ], [ 77.265723094145585, 28.554968762997987 ], [ 77.261747226453451, 28.559806998694171 ], [ 77.246919999558429, 28.552100000314738 ], [ 77.238793447659646, 28.558415595503448 ] ] ] } },
{ "type": "Feature", "properties": { "pincode": "110066", "state": "Nct Of Delhi", "district": "South West", "officename": "R K Puram (Main)", "officetype": "S.O" }, "geometry": { "type": "Polygon", "coordinates": [ [ [ 77.187563428809426, 28.569778283141375 ], [ 77.188565580237423, 28.562428078193363 ], [ 77.175530761535526, 28.567247549534841 ], [ 77.182710598015717, 28.567243472008784 ], [ 77.187563428809426, 28.569778283141375 ] ] ] } },
{ "type": "Feature", "properties": { "pincode": "110067", "state": "Nct Of Delhi", "district": "South West", "officename": "J.N.U.", "officetype": "S.O" }, "geometry": { "type": "Polygon", "coordinates": [ [ [ 77.169354602632779, 28.525603215516128 ], [ 77.152773728325087, 28.535245639474795 ], [ 77.169686567581152, 28.558107559716177 ], [ 77.182330193783514, 28.551632648727832 ], [ 77.169354602632779, 28.525603215516128 ] ] ] } },
{ "type": "Feature", "properties": { "pincode": "110068", "state": "Nct Of Delhi", "district": "South", "officename": "Ignou", "officetype": "S.O" }, "geometry": { "type": "Polygon", "coordinates": [ [ [ 77.197167503877267, 28.501329462185026 ], [ 77.206674328057773, 28.519674776669831 ], [ 77.219558182064588, 28.5169782125746 ], [ 77.213468565821643, 28.498878127024057 ], [ 77.243735717829111, 28.480326480183123 ], [ 77.239438293942328, 28.467438998311195 ], [ 77.220300828720383, 28.470308287097851 ], [ 77.197167503877267, 28.501329462185026 ] ] ] } },
{ "type": "Feature", "properties": { "pincode": "110069", "state": "Nct Of Delhi", "district": "New Delhi", "officename": "Union Public Service Commission", "officetype": "S.O" }, "geometry": { "type": "Polygon", "coordinates": [ [ [ 77.224570226135199, 28.603879294493822 ], [ 77.224866198416521, 28.61002617956467 ], [ 77.229305820407262, 28.610241015010956 ], [ 77.224570226135199, 28.603879294493822 ] ] ] } },
{ "type": "Feature", "properties": { "pincode": "110070", "state": "Nct Of Delhi", "district": "South West", "officename": "Vasant Kunj Pkt-A", "officetype": "S.O" }, "geometry": { "type": "Polygon", "coordinates": [ [ [ 77.119329549419206, 28.492742759570831 ], [ 77.130820000142876, 28.518170000445309 ], [ 77.123595805502191, 28.531128138452914 ], [ 77.147979098057021, 28.550202687104388 ], [ 77.161590900199883, 28.547162070273544 ], [ 77.152773728325087, 28.535245639474795 ], [ 77.169354602632779, 28.525603215516128 ], [ 77.179080499865279, 28.528660933855122 ], [ 77.172979078221942, 28.504142564028086 ], [ 77.130960239523517, 28.484509132590631 ], [ 77.119329549419206, 28.492742759570831 ] ] ] } },
{ "type": "Feature", "properties": { "pincode": "110071", "state": "Nct Of Delhi", "district": "South West", "officename": "Chhawla", "officetype": "S.O" }, "geometry": { "type": "Polygon", "coordinates": [ [ [ 76.982982825896784, 28.522694753160408 ], [ 76.965941076019874, 28.522046297898441 ], [ 76.976291265529596, 28.568213381842327 ], [ 77.001068096915276, 28.592518428882386 ], [ 77.017705908201322, 28.591876375894174 ], [ 77.018116325508231, 28.584432412126091 ], [ 77.03691566812364, 28.579610919108632 ], [ 77.009028281430233, 28.543794618227082 ], [ 77.005209664694348, 28.525411486351175 ], [ 77.020394469229529, 28.5169523705556 ], [ 77.016511596832743, 28.510642702798577 ], [ 76.993769057995735, 28.507661211895538 ], [ 76.982982825896784, 28.522694753160408 ] ] ] } },
{ "type": "Feature", "properties": { "pincode": "110072", "state": "Nct Of Delhi", "district": "South West, West", "officename": "CRPF Jharoda Kalan", "officetype": "S.O" }, "geometry": { "type": "Polygon", "coordinates": [ [ [ 76.945473961354423, 28.633047930917371 ], [ 76.926512158909077, 28.645433850092331 ], [ 76.934913439303784, 28.662210153376122 ], [ 76.956731810524786, 28.668245904724813 ], [ 76.961770878323421, 28.688186682169714 ], [ 76.975114267909191, 28.700003574205766 ], [ 76.968006280965085, 28.681853542107376 ], [ 76.974595609100277, 28.657296895335492 ], [ 76.945473961354423, 28.633047930917371 ] ] ] } },
{ "type": "Feature", "properties": { "pincode": "110073", "state": "Nct Of Delhi", "district": "South West", "officename": "Ujwa", "officetype": "S.O" }, "geometry": { "type": "Polygon", "coordinates": [ [ [ 76.889971554843498, 28.626504845922 ], [ 76.934951364613823, 28.600890548759935 ], [ 76.941215968242545, 28.56591317685178 ], [ 76.933182332498689, 28.510345491251485 ], [ 76.906824875168013, 28.512002070339236 ], [ 76.910008729719209, 28.498916015461873 ], [ 76.899743151125676, 28.497876930676 ], [ 76.896145386300589, 28.488554518776141 ], [ 76.886073663768684, 28.49253226065548 ], [ 76.885102621688702, 28.506886718447333 ], [ 76.894198453895569, 28.513137332222186 ], [ 76.883212244949277, 28.532295080753386 ], [ 76.847168000103238, 28.551896999946621 ], [ 76.842514000421033, 28.577420999779406 ], [ 76.867783711549066, 28.579494353481834 ], [ 76.889971554843498, 28.626504845922 ] ] ] } },
{ "type": "Feature", "properties": { "pincode": "110075", "state": "Nct Of Delhi", "district": "South West, West", "officename": "Dwarka Sec-6", "officetype": "S.O" }, "geometry": { "type": "Polygon", "coordinates": [ [ [ 77.010317401127281, 28.592426625188637 ], [ 77.035361405804281, 28.606325164474868 ], [ 77.049920185068515, 28.596597438920753 ], [ 77.07013182122671, 28.60302168030654 ], [ 77.077346229445084, 28.578722420403494 ], [ 77.050876047491727, 28.554675395153481 ], [ 77.026050511521987, 28.56041619225357 ], [ 77.037336677645612, 28.579065242866704 ], [ 77.017549284072174, 28.584869170575814 ], [ 77.010317401127281, 28.592426625188637 ] ] ] } },
{ "type": "Feature", "properties": { "pincode": "110076", "state": "Nct Of Delhi", "district": "South East", "officename": "Sarita Vihar", "officetype": "S.O" }, "geometry": { "type": "Polygon", "coordinates": [ [ [ 77.282772580889969, 28.539751517218804 ], [ 77.299723545105678, 28.541657618604347 ], [ 77.304044830704356, 28.53568683248136 ], [ 77.31825057570353, 28.550826527022764 ], [ 77.341081103310273, 28.522266664175334 ], [ 77.293957745053888, 28.508656006869387 ], [ 77.282772580889969, 28.539751517218804 ] ] ] } },
{ "type": "Feature", "properties": { "pincode": "110077", "state": "Nct Of Delhi", "district": "South West", "officename": "Raj Nagar - II", "officetype": "S.O" }, "geometry": { "type": "Polygon", "coordinates": [ [ [ 77.049090000203535, 28.534080000291965 ], [ 77.029840000116053, 28.539219999903139 ], [ 77.029969999815762, 28.546389999598773 ], [ 77.037319999718306, 28.551750000362347 ], [ 77.044080000291842, 28.546799999620418 ], [ 77.077346229445084, 28.578722420403494 ], [ 77.078490035786615, 28.588027246060619 ], [ 77.091417655300688, 28.583784363357665 ], [ 77.049090000203535, 28.534080000291965 ] ] ] } },
{ "type": "Feature", "properties": { "pincode": "110078", "state": "Nct Of Delhi", "district": "South West, West", "officename": "Distt. Court Complex, Dwarka", "officetype": "S.O" }, "geometry": { "type": "Polygon", "coordinates": [ [ [ 77.015079868940973, 28.599169490079987 ], [ 77.010316156465478, 28.606428926453816 ], [ 77.021715846709128, 28.620670831393795 ], [ 77.056066115958629, 28.60376392046868 ], [ 77.049920185068515, 28.596597438920753 ], [ 77.035361405804281, 28.606325164474868 ], [ 77.015079868940973, 28.599169490079987 ] ] ] } },
{ "type": "Feature", "properties": { "pincode": "110080", "state": "Nct Of Delhi", "district": "South, South East", "officename": "Sangam Vihar", "officetype": "S.O" }, "geometry": { "type": "Polygon", "coordinates": [ [ [ 77.27245652694711, 28.488326427322875 ], [ 77.243735717829111, 28.480326480183123 ], [ 77.22313313468652, 28.48872339616787 ], [ 77.222420716043302, 28.501861246599219 ], [ 77.229379701512244, 28.507889656782368 ], [ 77.249230221197877, 28.503893020146847 ], [ 77.27245652694711, 28.488326427322875 ] ] ] } },
{ "type": "Feature", "properties": { "pincode": "110081", "state": "Nct Of Delhi", "district": "North West", "officename": "Kanjhawla", "officetype": "S.O" }, "geometry": { "type": "Polygon", "coordinates": [ [ [ 76.944209499269164, 28.752600598538834 ], [ 76.949512051340207, 28.784897955676229 ], [ 76.967916522329688, 28.797265862329709 ], [ 77.014022617849662, 28.777977186897715 ], [ 77.058968738116903, 28.786849900002892 ], [ 77.073021001218308, 28.777244180974208 ], [ 77.077500196976587, 28.75957309362343 ], [ 77.094833204888573, 28.770297771624939 ], [ 77.101895510769282, 28.766698716272913 ], [ 77.080765801700636, 28.726694006423429 ], [ 77.062355407775897, 28.712155532052179 ], [ 77.048753017038223, 28.714611448359676 ], [ 77.039494739390932, 28.697325518158266 ], [ 77.012821299863276, 28.693415555483568 ], [ 77.003394542324429, 28.677507901968283 ], [ 76.948291500452626, 28.712928984984785 ], [ 76.959795153223808, 28.729623023683587 ], [ 76.958242514180824, 28.74199549529601 ], [ 76.944209499269164, 28.752600598538834 ] ] ] } },
{ "type": "Feature", "properties": { "pincode": "110082", "state": "Nct Of Delhi", "district": "North West", "officename": "Khera Kalan", "officetype": "S.O" }, "geometry": { "type": "Polygon", "coordinates": [ [ [ 77.059416855003974, 28.786356971696932 ], [ 77.073263666185369, 28.806208548086204 ], [ 77.059162485360389, 28.8219922768223 ], [ 77.080110742716727, 28.809117380962505 ], [ 77.1047865721427, 28.813969898791981 ], [ 77.133604463975018, 28.783409541716992 ], [ 77.135615093561739, 28.771749649726587 ], [ 77.0975126512879, 28.774428231877323 ], [ 77.09009125960398, 28.762455803892351 ], [ 77.077500196976587, 28.75957309362343 ], [ 77.073021001218308, 28.777244180974208 ], [ 77.059416855003974, 28.786356971696932 ] ] ] } },
{ "type": "Feature", "properties": { "pincode": "110083", "state": "Nct Of Delhi", "district": "North West", "officename": "Mangolpuri I Block", "officetype": "S.O" }, "geometry": { "type": "Polygon", "coordinates": [ [ [ 77.076356098355404, 28.68488980981698 ], [ 77.088185684322013, 28.703592207314671 ], [ 77.105425071010359, 28.694722784828798 ], [ 77.095294360146738, 28.683234006844032 ], [ 77.076356098355404, 28.68488980981698 ] ] ] } },
{ "type": "Feature", "properties": { "pincode": "110084", "state": "Nct Of Delhi", "district": "North, North East, North West", "officename": "Wazirabad Village", "officetype": "S.O" }, "geometry": { "type": "Polygon", "coordinates": [ [ [ 77.167351825026799, 28.759634779921271 ], [ 77.170361014149591, 28.784488717380498 ], [ 77.230543952141829, 28.784896362976895 ], [ 77.222444380803609, 28.778046876262351 ], [ 77.233659227091835, 28.761005504100808 ], [ 77.229731205131202, 28.741971337707184 ], [ 77.241450343558483, 28.728915559405664 ], [ 77.242119166666328, 28.715274511309815 ], [ 77.226893877350619, 28.71062950304929 ], [ 77.222490923417467, 28.719867505481091 ], [ 77.190933950241686, 28.730208931996742 ], [ 77.186096735276237, 28.758325474940932 ], [ 77.167351825026799, 28.759634779921271 ] ] ] } },
{ "type": "Feature", "properties": { "pincode": "110085", "state": "Nct Of Delhi", "district": "North West", "officename": "Rohini Sector-7", "officetype": "S.O" }, "geometry": { "type": "Polygon", "coordinates": [ [ [ 77.110992065131882, 28.739070969249951 ], [ 77.129677940284807, 28.726862291161922 ], [ 77.148348991912485, 28.711501780682681 ], [ 77.105514885403807, 28.694261166419722 ], [ 77.088185684322013, 28.703592207314671 ], [ 77.092998841523354, 28.723037255065321 ], [ 77.073152393068597, 28.724511051443983 ], [ 77.087740822980834, 28.734583367528444 ], [ 77.099246873344725, 28.726626595041523 ], [ 77.110992065131882, 28.739070969249951 ] ] ] } },
{ "type": "Feature", "properties": { "pincode": "110086", "state": "Nct Of Delhi", "district": "North West", "officename": "Pooth Kalan Resettlement", "officetype": "S.O" }, "geometry": { "type": "Polygon", "coordinates": [ [ [ 77.024283380573593, 28.693951167412422 ], [ 77.039494739390932, 28.697325518158266 ], [ 77.048753017038223, 28.714611448359676 ], [ 77.062355407775897, 28.712155532052179 ], [ 77.073152393068597, 28.724511051443983 ], [ 77.09480123309055, 28.718544772723135 ], [ 77.076356098355404, 28.68488980981698 ], [ 77.024283380573593, 28.693951167412422 ] ] ] } },
{ "type": "Feature", "properties": { "pincode": "110087", "state": "Nct Of Delhi", "district": "West", "officename": "Sunder Vihar", "officetype": "S.O" }, "geometry": { "type": "Polygon", "coordinates": [ [ [ 77.078617634296506, 28.654720153312553 ], [ 77.076356098355404, 28.68488980981698 ], [ 77.095294360146738, 28.683234006844032 ], [ 77.088878212659495, 28.654543613696944 ], [ 77.078617634296506, 28.654720153312553 ] ] ] } },
{ "type": "Feature", "properties": { "pincode": "110088", "state": "Nct Of Delhi", "district": "North West", "officename": "Haiderpur", "officetype": "S.O" }, "geometry": { "type": "Polygon", "coordinates": [ [ [ 77.129677940284807, 28.726862291161922 ], [ 77.140444703860112, 28.730932945599079 ], [ 77.142460071974824, 28.740812080113585 ], [ 77.176144269142867, 28.710176045987851 ], [ 77.155371795971803, 28.692415292631836 ], [ 77.146705254244182, 28.695258222289226 ], [ 77.139119334289944, 28.704163052882677 ], [ 77.148393911250025, 28.711596930753785 ], [ 77.129677940284807, 28.726862291161922 ] ] ] } },
{ "type": "Feature", "properties": { "pincode": "110089", "state": "Nct Of Delhi", "district": "North West", "officename": "Rohini Sector 15", "officetype": "S.O" }, "geometry": { "type": "Polygon", "coordinates": [ [ [ 77.11099596998821, 28.739405535936839 ], [ 77.137263576053442, 28.745267544561671 ], [ 77.142980034800871, 28.737816310674134 ], [ 77.130366041259776, 28.726635349941603 ], [ 77.11099596998821, 28.739405535936839 ] ] ] } },
{ "type": "Feature", "properties": { "pincode": "110090", "state": "Nct Of Delhi", "district": "North East, Shahdara", "officename": "Karawal Nagar", "officetype": "S.O" }, "geometry": { "type": "Polygon", "coordinates": [ [ [ 77.234167033781716, 28.712513398374711 ], [ 77.2425748477512, 28.719390344988483 ], [ 77.229731205131202, 28.741971337707184 ], [ 77.233659227091835, 28.761005504100808 ], [ 77.255165471509372, 28.756955446836457 ], [ 77.25586878181889, 28.741417510909571 ], [ 77.277466597006025, 28.735748182932412 ], [ 77.287127838379149, 28.724284308973836 ], [ 77.277913087019328, 28.714634252468841 ], [ 77.257898459945977, 28.716971630936143 ], [ 77.255974717459424, 28.672566670515437 ], [ 77.235533807239506, 28.67148898053216 ], [ 77.234167033781716, 28.712513398374711 ] ] ] } },
{ "type": "Feature", "properties": { "pincode": "110091", "state": "Nct Of Delhi", "district": "East", "officename": "Kalyanpuri", "officetype": "S.O" }, "geometry": { "type": "Polygon", "coordinates": [ [ [ 77.297838395225767, 28.58911551207126 ], [ 77.301198941378232, 28.584037945195178 ], [ 77.289363868647683, 28.579601481623172 ], [ 77.263976809482187, 28.601622271350891 ], [ 77.317713543745072, 28.627487728476012 ], [ 77.321689710012265, 28.615127978673343 ], [ 77.297838395225767, 28.58911551207126 ] ] ] } },
{ "type": "Feature", "properties": { "pincode": "110092", "state": "Nct Of Delhi", "district": "East, Shahdara", "officename": "Laxmi Nagar (East Delhi)", "officetype": "S.O" }, "geometry": { "type": "Polygon", "coordinates": [ [ [ 77.263976809482187, 28.601622271350891 ], [ 77.254532143743461, 28.628009270511484 ], [ 77.262849911294495, 28.639985813794283 ], [ 77.298640728986413, 28.644160880420429 ], [ 77.29263749622362, 28.653121433007811 ], [ 77.302421013019455, 28.656365173414201 ], [ 77.303393377102736, 28.666620141806163 ], [ 77.321145011333385, 28.663384840637889 ], [ 77.317713543745072, 28.627487728476012 ], [ 77.263976809482187, 28.601622271350891 ] ] ] } },
{ "type": "Feature", "properties": { "pincode": "110093", "state": "Nct Of Delhi", "district": "North East, Shahdara", "officename": "Harsh Vihar", "officetype": "S.O" }, "geometry": { "type": "Polygon", "coordinates": [ [ [ 77.292326770564046, 28.705877969193125 ], [ 77.327602616667605, 28.714225531283375 ], [ 77.323151107437752, 28.700440111421926 ], [ 77.329970284301282, 28.69188808666604 ], [ 77.312198868583039, 28.682778483140453 ], [ 77.307200635401045, 28.68993218532222 ], [ 77.29199244669411, 28.689347698837423 ], [ 77.292326770564046, 28.705877969193125 ] ] ] } },
{ "type": "Feature", "properties": { "pincode": "110094", "state": "Nct Of Delhi", "district": "North East", "officename": "Gokal Puri", "officetype": "S.O" }, "geometry": { "type": "Polygon", "coordinates": [ [ [ 77.280455640415425, 28.716424580530088 ], [ 77.289336223488078, 28.723804035927628 ], [ 77.284907267456504, 28.701697385226282 ], [ 77.256200592083701, 28.704654962256882 ], [ 77.257898459945977, 28.716971630936143 ], [ 77.280455640415425, 28.716424580530088 ] ] ] } },
{ "type": "Feature", "properties": { "pincode": "110095", "state": "Nct Of Delhi", "district": "Shahdara", "officename": "Jhilmil", "officetype": "H.O" }, "geometry": { "type": "Polygon", "coordinates": [ [ [ 77.29199244669411, 28.689347698837423 ], [ 77.307200635401045, 28.68993218532222 ], [ 77.312198868583039, 28.682778483140453 ], [ 77.327124546960363, 28.693064595954411 ], [ 77.333100871108456, 28.683510040256181 ], [ 77.323485497857632, 28.679127219445718 ], [ 77.321145011333385, 28.663384840637889 ], [ 77.292488667418183, 28.675789811950438 ], [ 77.29199244669411, 28.689347698837423 ] ] ] } },
{ "type": "Feature", "properties": { "pincode": "110096", "state": "Nct Of Delhi", "district": "East", "officename": "Vasundhra Enclave", "officetype": "S.O" }, "geometry": { "type": "Polygon", "coordinates": [ [ [ 77.293468670343032, 28.582406823216331 ], [ 77.321743782649492, 28.615237908202971 ], [ 77.316903812161286, 28.642827322523033 ], [ 77.341720552761387, 28.625679102808419 ], [ 77.340593654573638, 28.605076459411066 ], [ 77.315520163824544, 28.598241575888096 ], [ 77.300788954846382, 28.570988132995979 ], [ 77.293468670343032, 28.582406823216331 ] ] ] } },
{ "type": "Feature", "properties": { "pincode": "110097", "state": "Nct Of Delhi", "district": "South West", "officename": "Kapashera .", "officetype": "S.O" }, "geometry": { "type": "Polygon", "coordinates": [ [ [ 77.07484499450112, 28.518847919296149 ], [ 77.08217789109699, 28.531716551377826 ], [ 77.098219383517801, 28.521730003636719 ], [ 77.093037397258172, 28.511074200214182 ], [ 77.07484499450112, 28.518847919296149 ] ] ] } },
{ "type": "Feature", "properties": { "pincode": "110098", "state": "Nct Of Delhi", "district": "South West", "officename": "AMPC Delivery", "officetype": "S.O" }, "geometry": { "type": "Polygon", "coordinates": [ [ [ 77.12432415383671, 28.546948918357884 ], [ 77.104182777213623, 28.552867459265883 ], [ 77.104387526763048, 28.554219328259535 ], [ 77.132935843214682, 28.556365656549929 ], [ 77.12432415383671, 28.546948918357884 ] ] ] } },
{ "type": "Feature", "properties": { "pincode": "110100", "state": "Nct Of Delhi", "district": "Central", "officename": "Foreign Post Delhi IBC", "officetype": "S.O" }, "geometry": { "type": "Polygon", "coordinates": [ [ [ 77.234538362055787, 28.629628717491414 ], [ 77.240901761607063, 28.632396043842391 ], [ 77.241207353037112, 28.626699731707333 ], [ 77.240794597492709, 28.626064266252854 ], [ 77.234538362055787, 28.629628717491414 ] ] ] } }
]
}
