{
"type": "FeatureCollection",
"name": "puducherry",
"crs": { "type": "name", "properties": { "name": "urn:ogc:def:crs:OGC:1.3:CRS84" } },
"features": [
{ "type": "Feature", "properties": { "pincode": "533464", "state": "Puducherry", "district": "East Godavari, Yanam", "officename": "Yanam", "officetype": "S.O" }, "geometry": { "type": "Polygon", "coordinates": [ [ [ 82.118808763613686, 16.686482420727202 ], [ 82.114524799879689, 16.720685604956827 ], [ 82.136216956647445, 16.750885845605524 ], [ 82.133804995604066, 16.760307043535363 ], [ 82.147060471063924, 16.764133906154882 ], [ 82.151539728875377, 16.778429973664402 ], [ 82.160350772770016, 16.770874147723873 ], [ 82.168543578623314, 16.793586267892067 ], [ 82.185058452585736, 16.777611888277988 ], [ 82.209092776710406, 16.773454742442595 ], [ 82.218975550781181, 16.750491836429092 ], [ 82.228507887828869, 16.760653369757335 ], [ 82.232251609923878, 16.755525412967472 ], [ 82.217937376109035, 16.733409134124315 ], [ 82.236970588321924, 16.724757674027558 ], [ 82.257639714101742, 16.720195995149197 ], [ 82.289256869009421, 16.726613805482828 ], [ 82.305710374134549, 16.748069427062489 ], [ 82.312356889259149, 16.734153791664198 ], [ 82.306510990190134, 16.718614399734918 ], [ 82.288103769073928, 16.70339685987733 ], [ 82.251049975875731, 16.700667859034581 ], [ 82.261046198523388, 16.667167868202569 ], [ 82.253970443281389, 16.65735421602443 ], [ 82.258791349041701, 16.643950747229269 ], [ 82.214301015079855, 16.646965818817591 ], [ 82.206169048362995, 16.689061542356399 ], [ 82.217281349454709, 16.696931943054835 ], [ 82.206954266226489, 16.713178424244859 ], [ 82.186807895668039, 16.703623439570322 ], [ 82.167081813375091, 16.70495493712076 ], [ 82.13364662679038, 16.68245208739404 ], [ 82.118808763613686, 16.686482420727202 ] ] ] } },
{ "type": "Feature", "properties": { "pincode": "605011", "state": "Puducherry", "district": "Puducherry", "officename": "Venkata Nagar", "officetype": "S.O" }, "geometry": { "type": "Polygon", "coordinates": [ [ [ 79.820920188415982, 11.937303471677865 ], [ 79.822491575625691, 11.944738253367746 ], [ 79.828935801745843, 11.945743375256598 ], [ 79.830417092175196, 11.942040003943134 ], [ 79.820920188415982, 11.937303471677865 ] ] ] } },
{ "type": "Feature", "properties": { "pincode": "605005", "state": "Puducherry", "district": "Puducherry", "officename": "Nellithoppe", "officetype": "S.O" }, "geometry": { "type": "Polygon", "coordinates": [ [ [ 79.807329609374108, 11.927353910354782 ], [ 79.808462020406068, 11.941534189251513 ], [ 79.820920188415982, 11.937303471677865 ], [ 79.821547678682464, 11.926589492910807 ], [ 79.807329609374108, 11.927353910354782 ] ] ] } },
{ "type": "Feature", "properties": { "pincode": "605006", "state": "Puducherry", "district": "Puducherry", "officename": "Dhanvantry Nagar", "officetype": "S.O" }, "geometry": { "type": "Polygon", "coordinates": [ [ [ 79.796057685813707, 11.957017275526994 ], [ 79.806051590908282, 11.950671605210459 ], [ 79.802283526863334, 11.944156502620615 ], [ 79.797128420440345, 11.948419764860375 ], [ 79.796057685813707, 11.957017275526994 ] ] ] } },
{ "type": "Feature", "properties": { "pincode": "605004", "state": "Puducherry", "district": "Puducherry", "officename": "Mudaliarpet", "officetype": "S.O" }, "geometry": { "type": "Polygon", "coordinates": [ [ [ 79.781826714831084, 11.901703320152137 ], [ 79.777935476041421, 11.919093967412721 ], [ 79.784058457132289, 11.91412569334608 ], [ 79.821547678682464, 11.926589492910807 ], [ 79.831571202049531, 11.914798507645116 ], [ 79.829636560678864, 11.905952667181964 ], [ 79.820318874716349, 11.907717961714582 ], [ 79.814861587992141, 11.899926505304222 ], [ 79.781826714831084, 11.901703320152137 ] ] ] } },
{ "type": "Feature", "properties": { "pincode": "605007", "state": "Puducherry", "district": "Puducherry", "officename": "Ariyankuppam", "officetype": "S.O" }, "geometry": { "type": "Polygon", "coordinates": [ [ [ 79.742938953070279, 11.848498533980205 ], [ 79.741148137576545, 11.880184167765208 ], [ 79.772371823800825, 11.876280681108653 ], [ 79.769935604444584, 11.903140308178706 ], [ 79.788513253383996, 11.896874993186373 ], [ 79.829636560678864, 11.905952667181964 ], [ 79.807969487801699, 11.836585839864767 ], [ 79.802556096087073, 11.854501112036871 ], [ 79.782456875184835, 11.855753979162785 ], [ 79.771824918185587, 11.83714601857389 ], [ 79.764196505264692, 11.846770306804274 ], [ 79.742938953070279, 11.848498533980205 ] ] ] } },
{ "type": "Feature", "properties": { "pincode": "605010", "state": "Puducherry", "district": "Puducherry", "officename": "Reddiyarpalayam", "officetype": "S.O" }, "geometry": { "type": "Polygon", "coordinates": [ [ [ 79.784058457132289, 11.91412569334608 ], [ 79.776153037732627, 11.922921902024314 ], [ 79.784350660354789, 11.93089016694779 ], [ 79.807562207330079, 11.9315618436043 ], [ 79.808065299773887, 11.924834199738655 ], [ 79.784058457132289, 11.91412569334608 ] ] ] } },
{ "type": "Feature", "properties": { "pincode": "605009", "state": "Puducherry", "district": "Puducherry", "officename": "Thattanchavady", "officetype": "S.O" }, "geometry": { "type": "Polygon", "coordinates": [ [ [ 79.762192178126668, 11.930176965894361 ], [ 79.759850777891188, 11.943445575952694 ], [ 79.771425617398506, 11.944070777444495 ], [ 79.786241691800683, 11.960563448944129 ], [ 79.808856149192025, 11.943853745853744 ], [ 79.807562207330079, 11.9315618436043 ], [ 79.762192178126668, 11.930176965894361 ] ] ] } },
{ "type": "Feature", "properties": { "pincode": "605107", "state": "Puducherry", "district": "Puducherry", "officename": "Pallineliyanur", "officetype": "S.O" }, "geometry": { "type": "Polygon", "coordinates": [ [ [ 79.595203369839737, 11.963418947526577 ], [ 79.598238750817757, 11.970515838635151 ], [ 79.624632958943891, 11.963029486221785 ], [ 79.628812105794168, 11.945696363196532 ], [ 79.639484163563225, 11.941241297148224 ], [ 79.657446867778845, 11.948014865793596 ], [ 79.655882698527819, 11.907751448870386 ], [ 79.625245952138982, 11.903022202013119 ], [ 79.628164844831872, 11.918765542196127 ], [ 79.618193805000203, 11.925912725192291 ], [ 79.618334904132723, 11.939898511307319 ], [ 79.595203369839737, 11.963418947526577 ] ] ] } },
{ "type": "Feature", "properties": { "pincode": "605110", "state": "Puducherry", "district": "Puducherry", "officename": "Villiyanur", "officetype": "S.O" }, "geometry": { "type": "Polygon", "coordinates": [ [ [ 79.67398056814892, 11.880783837504339 ], [ 79.6742128765232, 11.8917833384304 ], [ 79.695949041615222, 11.895124350408594 ], [ 79.696514474163621, 11.919036141904598 ], [ 79.718379339435046, 11.91938024770036 ], [ 79.717883541392439, 11.913364454106272 ], [ 79.707073390924336, 11.913329120642629 ], [ 79.705798776392555, 11.894328254345567 ], [ 79.729079980357028, 11.890595272853659 ], [ 79.73025721629773, 11.903222207638862 ], [ 79.739491116921613, 11.906030118595083 ], [ 79.718629408520485, 11.932418972158018 ], [ 79.749135038251552, 11.92929002841214 ], [ 79.752987207793524, 11.919413275302531 ], [ 79.762192178126668, 11.930176965894361 ], [ 79.784350660354789, 11.93089016694779 ], [ 79.776153037732627, 11.922921902024314 ], [ 79.781513768745526, 11.904512477568915 ], [ 79.768903886904923, 11.902132753623675 ], [ 79.769904812557172, 11.875103281491363 ], [ 79.741148137576545, 11.880184167765208 ], [ 79.740014513359085, 11.865167418641533 ], [ 79.721149879963093, 11.862606268164768 ], [ 79.718712350294822, 11.853251666831056 ], [ 79.708768153427627, 11.869867148849949 ], [ 79.710546176964726, 11.889155382714819 ], [ 79.67398056814892, 11.880783837504339 ] ] ] } },
{ "type": "Feature", "properties": { "pincode": "605502", "state": "Puducherry", "district": "Puducherry", "officename": "Valudavur", "officetype": "S.O" }, "geometry": { "type": "Polygon", "coordinates": [ [ [ 79.66017356275978, 12.008216869412934 ], [ 79.643162211766651, 12.036404784353465 ], [ 79.663801373035085, 12.038845848357369 ], [ 79.669304526982387, 12.054330132529572 ], [ 79.678098004419439, 12.05382151645 ], [ 79.691263817471281, 12.033049333759834 ], [ 79.704653057193013, 12.032395372848271 ], [ 79.70257472754173, 12.011751704177925 ], [ 79.717919826339028, 11.993480635023218 ], [ 79.742349551790483, 12.001811145967736 ], [ 79.739840536811414, 11.987969142562065 ], [ 79.749731405679881, 11.985749177782395 ], [ 79.744317102951982, 11.980735135418172 ], [ 79.749135038251552, 11.92929002841214 ], [ 79.718026615436088, 11.931405035114381 ], [ 79.720850402124427, 11.944631566793475 ], [ 79.710035975379924, 11.949791716614527 ], [ 79.710341396838032, 11.933894533905629 ], [ 79.697260871891785, 11.942327328343652 ], [ 79.686233483888202, 11.97774201628107 ], [ 79.67252295237239, 11.995035706732665 ], [ 79.656306182084677, 11.992136505595397 ], [ 79.66017356275978, 12.008216869412934 ] ] ] } },
{ "type": "Feature", "properties": { "pincode": "607403", "state": "Puducherry", "district": "Puducherry", "officename": "Mathalapattu", "officetype": "B.O" }, "geometry": { "type": "Polygon", "coordinates": [ [ [ 79.768815224543232, 11.799293482608277 ], [ 79.782118739088673, 11.855544810344895 ], [ 79.802688940342478, 11.854399003910999 ], [ 79.807969487801699, 11.836585839864767 ], [ 79.799320247231719, 11.802672685196285 ], [ 79.768815224543232, 11.799293482608277 ] ] ] } },
{ "type": "Feature", "properties": { "pincode": "607402", "state": "Puducherry", "district": "Puducherry", "officename": "Bahoor", "officetype": "S.O" }, "geometry": { "type": "MultiPolygon", "coordinates": [ [ [ [ 79.722440289288045, 11.796427625634522 ], [ 79.724654020866353, 11.809933569478744 ], [ 79.735837048241422, 11.80996507812597 ], [ 79.729226583340278, 11.837166776725326 ], [ 79.753616000278271, 11.849479000055965 ], [ 79.778643359403645, 11.834696272515089 ], [ 79.768815224543232, 11.799293482608277 ], [ 79.799320247231719, 11.802672685196285 ], [ 79.796242572037158, 11.785670256377273 ], [ 79.770717694466157, 11.782064064904716 ], [ 79.765912054697708, 11.791666008579568 ], [ 79.755188673518603, 11.775161186339801 ], [ 79.712751581720283, 11.790001823925138 ], [ 79.722440289288045, 11.796427625634522 ] ] ], [ [ [ 79.689743983897813, 11.802419356967846 ], [ 79.678510268034643, 11.797652152424916 ], [ 79.676395878267215, 11.813685178628077 ], [ 79.688606551950784, 11.811825289805427 ], [ 79.689743983897813, 11.802419356967846 ] ] ] ] } },
{ "type": "Feature", "properties": { "pincode": "609603", "state": "Puducherry", "district": "Karaikal", "officename": "Nedungadu", "officetype": "S.O" }, "geometry": { "type": "Polygon", "coordinates": [ [ [ 79.730939678523498, 10.970475506039747 ], [ 79.727977365663094, 10.980149183238439 ], [ 79.747836210372895, 11.003424563193221 ], [ 79.787176379686343, 10.997696313434233 ], [ 79.786824934523281, 10.989959994458218 ], [ 79.809112188876611, 10.974280061875504 ], [ 79.816326447807455, 10.945960676843811 ], [ 79.770017091115847, 10.945542357194142 ], [ 79.730939678523498, 10.970475506039747 ] ] ] } },
{ "type": "Feature", "properties": { "pincode": "609604", "state": "Puducherry", "district": "Karaikal", "officename": "Neravy", "officetype": "S.O" }, "geometry": { "type": "Polygon", "coordinates": [ [ [ 79.772405468337922, 10.88686724592668 ], [ 79.755058641443156, 10.887718938977855 ], [ 79.77635761191442, 10.896766882285874 ], [ 79.777520479386737, 10.908974557629904 ], [ 79.803385702688047, 10.901867122869533 ], [ 79.806923735442126, 10.908712951141808 ], [ 79.832271159686286, 10.911136365950711 ], [ 79.832251464533556, 10.882781897466828 ], [ 79.809691185899737, 10.885998601554434 ], [ 79.776046415909434, 10.87810283907487 ], [ 79.772405468337922, 10.88686724592668 ] ] ] } },
{ "type": "Feature", "properties": { "pincode": "609606", "state": "Puducherry", "district": "Karaikal", "officename": "Tirumalairayanpattinam", "officetype": "S.O" }, "geometry": { "type": "MultiPolygon", "coordinates": [ [ [ [ 79.824282142906611, 10.865807960968652 ], [ 79.811269503285132, 10.881281461370349 ], [ 79.851189426850681, 10.88674184266182 ], [ 79.850591392079082, 10.828049864609625 ], [ 79.830573590399013, 10.827708563799263 ], [ 79.827763747698782, 10.849402005698096 ], [ 79.820527822301301, 10.845986676443999 ], [ 79.807405109258468, 10.855847976503071 ], [ 79.807852765692701, 10.86655414106076 ], [ 79.811183685478738, 10.860514161099616 ], [ 79.824282142906611, 10.865807960968652 ] ] ], [ [ [ 79.807409973691449, 10.881336740898007 ], [ 79.808739858757519, 10.878431755321287 ], [ 79.805875788736728, 10.879531813242636 ], [ 79.807409973691449, 10.881336740898007 ] ] ] ] } },
{ "type": "Feature", "properties": { "pincode": "609607", "state": "Puducherry", "district": "Karaikal", "officename": "Tirunallar", "officetype": "S.O" }, "geometry": { "type": "Polygon", "coordinates": [ [ [ 79.763127816595613, 10.913257771329199 ], [ 79.772188567148817, 10.909156275541761 ], [ 79.774752976768582, 10.915926810773726 ], [ 79.772876354260518, 10.945806214685206 ], [ 79.787012774120285, 10.948600175357967 ], [ 79.811079254404149, 10.941610156083982 ], [ 79.832271159686286, 10.911136365950711 ], [ 79.806923735442126, 10.908712951141808 ], [ 79.803385702688047, 10.901867122869533 ], [ 79.777520479386737, 10.908974557629904 ], [ 79.77635761191442, 10.896766882285874 ], [ 79.756914718939299, 10.89144798773458 ], [ 79.763127816595613, 10.913257771329199 ] ] ] } },
{ "type": "Feature", "properties": { "pincode": "609609", "state": "Puducherry", "district": "Karaikal", "officename": "Kottuchery", "officetype": "S.O" }, "geometry": { "type": "Polygon", "coordinates": [ [ [ 79.799884395548531, 10.983167928557236 ], [ 79.804269702085321, 10.997731047050365 ], [ 79.814825457728944, 11.003535154623819 ], [ 79.826197572959757, 10.998232389413374 ], [ 79.839277382045509, 11.002904423200619 ], [ 79.839333533016145, 10.995996637035319 ], [ 79.851729683777876, 10.993725890237783 ], [ 79.853624092178165, 10.957104255457125 ], [ 79.813914002029719, 10.955667533629878 ], [ 79.799884395548531, 10.983167928557236 ] ] ] } },
{ "type": "Feature", "properties": { "pincode": "673310", "state": "Puducherry", "district": "Mahe", "officename": "Mahe", "officetype": "S.O" }, "geometry": { "type": "Polygon", "coordinates": [ [ [ 75.529538729328976, 11.701555071809082 ], [ 75.527231632833832, 11.721222757524288 ], [ 75.541940108749088, 11.737969976733041 ], [ 75.531122516391008, 11.758011149994616 ], [ 75.53823138646942, 11.762539505393875 ], [ 75.546758172651607, 11.756272499676129 ], [ 75.542857012541276, 11.734147349920306 ], [ 75.555193064308583, 11.722625244859273 ], [ 75.532149305646101, 11.715489699989632 ], [ 75.543346175385921, 11.704882055262772 ], [ 75.541777567980319, 11.695690727645001 ], [ 75.529538729328976, 11.701555071809082 ] ] ] } },
{ "type": "Feature", "properties": { "pincode": "605001", "state": "Puducherry", "district": "Puducherry", "officename": "Pondicherry", "officetype": "H.O" }, "geometry": { "type": "Polygon", "coordinates": [ [ [ 79.820920188415982, 11.937303471677865 ], [ 79.830525141222438, 11.942642948113644 ], [ 79.837146839555032, 11.935896505719199 ], [ 79.831571202049531, 11.914798507645116 ], [ 79.820920188415982, 11.937303471677865 ] ] ] } },
{ "type": "Feature", "properties": { "pincode": "605002", "state": "Puducherry", "district": "Puducherry", "officename": "Sri Aurobindo Ashram", "officetype": "S.O" }, "geometry": { "type": "Polygon", "coordinates": [ [ [ 79.832883462202176, 11.936750033387511 ], [ 79.837396441892395, 11.939842957486576 ], [ 79.837146839555032, 11.935896505719199 ], [ 79.832883462202176, 11.936750033387511 ] ] ] } },
{ "type": "Feature", "properties": { "pincode": "605003", "state": "Puducherry", "district": "Puducherry", "officename": "Muthialpet", "officetype": "S.O" }, "geometry": { "type": "Polygon", "coordinates": [ [ [ 79.833127312475483, 11.956690590498454 ], [ 79.840703356974416, 11.955923043413691 ], [ 79.837396441892395, 11.939842957486576 ], [ 79.830525141222438, 11.942642948113644 ], [ 79.833127312475483, 11.956690590498454 ] ] ] } },
{ "type": "Feature", "properties": { "pincode": "605008", "state": "Puducherry", "district": "Puducherry", "officename": "Lawspet", "officetype": "S.O" }, "geometry": { "type": "Polygon", "coordinates": [ [ [ 79.808856149192025, 11.943853745853744 ], [ 79.806533017784602, 11.968783943124606 ], [ 79.818385620999777, 11.977547838262183 ], [ 79.828223384901435, 11.957564244993875 ], [ 79.808856149192025, 11.943853745853744 ] ] ] } },
{ "type": "Feature", "properties": { "pincode": "609602", "state": "Puducherry", "district": "Karaikal", "officename": "Karaikal Bazaar", "officetype": "S.O" }, "geometry": { "type": "Polygon", "coordinates": [ [ [ 79.823407206877221, 10.928655520036386 ], [ 79.853188177292623, 10.930136701647484 ], [ 79.851189426850681, 10.88674184266182 ], [ 79.832251464533556, 10.882781897466828 ], [ 79.832271159686286, 10.911136365950711 ], [ 79.823407206877221, 10.928655520036386 ] ] ] } },
{ "type": "Feature", "properties": { "pincode": "609605", "state": "Puducherry", "district": "Karaikal", "officename": "Thalatheru", "officetype": "S.O" }, "geometry": { "type": "Polygon", "coordinates": [ [ [ 79.853188177292623, 10.930136701647484 ], [ 79.8138270070109, 10.933015112257806 ], [ 79.813914002029719, 10.955667533629878 ], [ 79.853624092178165, 10.957104255457125 ], [ 79.853188177292623, 10.930136701647484 ] ] ] } },
{ "type": "Feature", "properties": { "pincode": "605013", "state": "Puducherry", "district": "Puducherry", "officename": "Saram(Py)", "officetype": "S.O" }, "geometry": { "type": "Polygon", "coordinates": [ [ [ 79.808347789419088, 11.941441607644208 ], [ 79.82864820035428, 11.958973999750526 ], [ 79.833127312475483, 11.956690590498454 ], [ 79.830644962395127, 11.943311582363833 ], [ 79.823440393659439, 11.945521189651174 ], [ 79.820920188415982, 11.937303471677865 ], [ 79.808347789419088, 11.941441607644208 ] ] ] } },
{ "type": "Feature", "properties": { "pincode": "605014", "state": "Puducherry", "district": "Puducherry", "officename": "Pondicherry University", "officetype": "S.O" }, "geometry": { "type": "Polygon", "coordinates": [ [ [ 79.819428062055579, 12.016189710986396 ], [ 79.823574358469841, 12.027654158712494 ], [ 79.802580223098914, 12.03825873315418 ], [ 79.799286398548531, 12.067210404536581 ], [ 79.80579951543541, 12.083683780182355 ], [ 79.834664627070936, 12.088749107285537 ], [ 79.835516682548985, 12.102625529544639 ], [ 79.854929256679952, 12.095502026597273 ], [ 79.856950662842735, 12.072336729956191 ], [ 79.886548651798876, 12.066167755737467 ], [ 79.855862600079149, 12.002383848635816 ], [ 79.819428062055579, 12.016189710986396 ] ] ] } },
{ "type": "Feature", "properties": { "pincode": "609601", "state": "Puducherry", "district": "Karaikal", "officename": "Ambagarathur", "officetype": "S.O" }, "geometry": { "type": "Polygon", "coordinates": [ [ [ 79.721190277509379, 10.95144118226483 ], [ 79.719426606253023, 10.968298134051622 ], [ 79.731127231236769, 10.970449948206578 ], [ 79.745020832345631, 10.965297177323009 ], [ 79.745245581018821, 10.956198418722238 ], [ 79.772876354260518, 10.945806214685206 ], [ 79.772188567148817, 10.909156275541761 ], [ 79.744408710593632, 10.914181595404386 ], [ 79.743274234718228, 10.924294952050388 ], [ 79.725256433537766, 10.928966548767335 ], [ 79.724324845615229, 10.941657831843486 ], [ 79.736528225796974, 10.949118576061494 ], [ 79.736321531913291, 10.956744083272952 ], [ 79.721190277509379, 10.95144118226483 ] ] ] } }
]
}
