{
"type": "FeatureCollection",
"name": "sikkim",
"crs": { "type": "name", "properties": { "name": "urn:ogc:def:crs:OGC:1.3:CRS84" } },
"features": [
{ "type": "Feature", "properties": { "pincode": "737101", "officename": "Gangtok H.O", "officetype": "H.O", "circle": "West Bengal", "region": "Div Reporting", "division": "Sikkim", "state": "Sikkim", "district": "Sikkim" }, "geometry": { "type": "Polygon", "coordinates": [ [ [ 88.620486000247666, 27.357510999726905 ], [ 88.618650000113789, 27.357425999736879 ], [ 88.617055999829233, 27.35526800001546 ], [ 88.617998000185636, 27.354514999721182 ], [ 88.61754999957364, 27.349367000360019 ], [ 88.612107000367658, 27.342779999942948 ], [ 88.612815000372294, 27.342399000223889 ], [ 88.612675999556828, 27.339264999774247 ], [ 88.615368999658273, 27.337853000351235 ], [ 88.616747000032746, 27.334164000186647 ], [ 88.616301999793819, 27.331654000207671 ], [ 88.615428000107826, 27.329037000022726 ], [ 88.614231000381622, 27.327907999981328 ], [ 88.613427999942402, 27.32308699962903 ], [ 88.608835000132984, 27.320522000088044 ], [ 88.609747000352115, 27.324947999719782 ], [ 88.609333999900272, 27.327831000159154 ], [ 88.606480000140323, 27.331147999709003 ], [ 88.608738000048589, 27.333722000061151 ], [ 88.606920000356368, 27.33483699969921 ], [ 88.60587500006784, 27.33374800021123 ], [ 88.601762999584025, 27.333705999843019 ], [ 88.596392000348033, 27.331751999930042 ], [ 88.595080000095805, 27.338081999772577 ], [ 88.593438999955566, 27.339522000382861 ], [ 88.593926999852201, 27.342608999797552 ], [ 88.597401999578167, 27.345112000364516 ], [ 88.597020999811676, 27.345654000357083 ], [ 88.599646000141064, 27.349406000263283 ], [ 88.602354000311109, 27.349657000273712 ], [ 88.605343999615187, 27.351993999899882 ], [ 88.605116000009545, 27.354393000347564 ], [ 88.610563000311799, 27.358840000396739 ], [ 88.617027000415234, 27.360713000127557 ], [ 88.619840999992192, 27.359204999690025 ], [ 88.62071700022635, 27.358373000313755 ], [ 88.620486000247666, 27.357510999726905 ] ] ] } },
{ "type": "Feature", "properties": { "pincode": "737102", "officename": "Tadong S.O", "officetype": "S.O", "circle": "West Bengal", "region": "Div Reporting", "division": "Sikkim", "state": "Sikkim", "district": "Sikkim" }, "geometry": { "type": "Polygon", "coordinates": [ [ [ 88.812544229652474, 27.40127952747817 ], [ 88.816591795777583, 27.402336298459797 ], [ 88.818434332951796, 27.401463855393391 ], [ 88.820956028820149, 27.398576164149848 ], [ 88.823309934664778, 27.390582362541828 ], [ 88.830511988808979, 27.389968000771781 ], [ 88.831393213644816, 27.385826494205904 ], [ 88.83594558534891, 27.38229576730058 ], [ 88.837670732478415, 27.379156049405143 ], [ 88.845750331959053, 27.384880578016507 ], [ 88.850030797101383, 27.383919112245525 ], [ 88.853337709461243, 27.384785085248645 ], [ 88.856627996700155, 27.384397242643939 ], [ 88.859500918573247, 27.385233838643508 ], [ 88.860950470658437, 27.386537495785223 ], [ 88.86216227911207, 27.384013852776171 ], [ 88.861965414215888, 27.381931589174528 ], [ 88.864284759176584, 27.378654015049406 ], [ 88.863045858432272, 27.375051574130996 ], [ 88.862807334164799, 27.369815548772372 ], [ 88.866754715677843, 27.365813884637994 ], [ 88.874615928424717, 27.362708138825948 ], [ 88.87620326410817, 27.360213080912935 ], [ 88.881093917992033, 27.360405615866316 ], [ 88.881652597335219, 27.357993102587368 ], [ 88.880633720055158, 27.352544317634869 ], [ 88.881936899749604, 27.350977543392144 ], [ 88.88536556077996, 27.351145845720122 ], [ 88.88202560748563, 27.346248021662493 ], [ 88.882227971867948, 27.344763299555371 ], [ 88.884015154854353, 27.342515219672123 ], [ 88.891471966721582, 27.339108206176487 ], [ 88.895054254038556, 27.332182106936067 ], [ 88.899621641082589, 27.332772242264401 ], [ 88.903123939711747, 27.331208853002838 ], [ 88.905782221724067, 27.328592216596679 ], [ 88.912647119277565, 27.329535128654818 ], [ 88.915400211281607, 27.330705797624997 ], [ 88.919202376535736, 27.327966081804675 ], [ 88.91926028822715, 27.32061883323507 ], [ 88.918566620842853, 27.318288319217054 ], [ 88.916070040971519, 27.316021121638009 ], [ 88.913666420562464, 27.309921486933202 ], [ 88.908635081521936, 27.303418913227194 ], [ 88.909418617265544, 27.299157230888326 ], [ 88.911566879877029, 27.295774531131368 ], [ 88.913564799544247, 27.29009080313191 ], [ 88.908434249665433, 27.282054153735739 ], [ 88.9077375118395, 27.277040307930466 ], [ 88.903289240503781, 27.27258612864761 ], [ 88.899727920763851, 27.274194877048462 ], [ 88.897677982353514, 27.270192956939255 ], [ 88.886574777594021, 27.267962317299396 ], [ 88.881656217545824, 27.264960480675523 ], [ 88.879108811894056, 27.261138605940172 ], [ 88.866585657232946, 27.264631975464564 ], [ 88.831428309924647, 27.262184877864129 ], [ 88.785667000169312, 27.262555999742684 ], [ 88.748588999986325, 27.260124000060092 ], [ 88.736229000042073, 27.275684999760585 ], [ 88.713225999563448, 27.288500999611728 ], [ 88.692269000179266, 27.296015999667404 ], [ 88.65973799977499, 27.320377000018027 ], [ 88.649542000027665, 27.296662999888166 ], [ 88.619439000309299, 27.289115999986635 ], [ 88.619893999695648, 27.293739999978548 ], [ 88.609636999848973, 27.304760000263855 ], [ 88.602719000184095, 27.293816000037822 ], [ 88.599896000386323, 27.291576999656524 ], [ 88.599622999676527, 27.289634000340769 ], [ 88.588561999565727, 27.29785900014987 ], [ 88.588448999587797, 27.301400999610255 ], [ 88.580535999863102, 27.310456999732612 ], [ 88.556683999812805, 27.312184000187333 ], [ 88.557228999610857, 27.325262000252057 ], [ 88.551039999867044, 27.332341000361332 ], [ 88.557351999634506, 27.337462000053954 ], [ 88.563239000152819, 27.339455000067371 ], [ 88.561177000063154, 27.354311000339912 ], [ 88.566573000311791, 27.359141999644354 ], [ 88.570460999591319, 27.353108000254277 ], [ 88.582023000017529, 27.354256000125595 ], [ 88.584783999891059, 27.351939999880166 ], [ 88.586938999867158, 27.348489999993777 ], [ 88.589335999692608, 27.346845000071045 ], [ 88.597020999811676, 27.345654000357083 ], [ 88.597401999578167, 27.345112000364516 ], [ 88.594211000432665, 27.34331399995818 ], [ 88.593438999955566, 27.339522000382861 ], [ 88.595080000095805, 27.338081999772577 ], [ 88.596392000348033, 27.331751999930042 ], [ 88.601762999584025, 27.333705999843019 ], [ 88.60587500006784, 27.33374800021123 ], [ 88.606920000356368, 27.33483699969921 ], [ 88.608067999678767, 27.334402999922919 ], [ 88.608738000048589, 27.333722000061151 ], [ 88.608266000045475, 27.33257399969516 ], [ 88.606480000140323, 27.331147999709003 ], [ 88.609333999900272, 27.327831000159154 ], [ 88.609747000352115, 27.324947999719782 ], [ 88.608835000132984, 27.320522000088044 ], [ 88.617859000268467, 27.326576000224748 ], [ 88.640393000218737, 27.32812600039011 ], [ 88.655976999818762, 27.32556600002194 ], [ 88.692269000179266, 27.339995000087896 ], [ 88.698893000116243, 27.352407999708266 ], [ 88.686662000043441, 27.358430999949405 ], [ 88.672327999873048, 27.357416000343882 ], [ 88.653316000402683, 27.359871000145873 ], [ 88.646729000275613, 27.350712999739759 ], [ 88.644413999567618, 27.348815000011232 ], [ 88.645080999564414, 27.346658999669 ], [ 88.64420100003062, 27.345770999957466 ], [ 88.643594000308283, 27.347009999703005 ], [ 88.640469000386716, 27.347654999750858 ], [ 88.640469000386716, 27.346092999767826 ], [ 88.635582999775991, 27.346415000238171 ], [ 88.635098000252427, 27.345889999840299 ], [ 88.632287999975119, 27.349319999865056 ], [ 88.639239999975132, 27.355842000216928 ], [ 88.634733000379441, 27.360506000382607 ], [ 88.639771000427771, 27.362597000261587 ], [ 88.668545000175499, 27.392961000052662 ], [ 88.696060000272723, 27.398553000151615 ], [ 88.707389999997048, 27.392791000226051 ], [ 88.761635000193962, 27.399494999895246 ], [ 88.807383625737515, 27.42134866957495 ], [ 88.804807648269787, 27.415047513315759 ], [ 88.806826758296239, 27.413141464859333 ], [ 88.807475652748465, 27.411263677288627 ], [ 88.806195678334419, 27.40679697300456 ], [ 88.809528360664856, 27.404970593074907 ], [ 88.812544229652474, 27.40127952747817 ] ] ] } },
{ "type": "Feature", "properties": { "pincode": "737103", "officename": "Rajbhawan S.O East Sikkim", "officetype": "S.O", "circle": "West Bengal", "region": "Div Reporting", "division": "Sikkim", "state": "Sikkim", "district": "Sikkim" }, "geometry": { "type": "Polygon", "coordinates": [ [ [ 88.588637999733692, 27.397294000355313 ], [ 88.593219999672442, 27.392768000116824 ], [ 88.594767999926276, 27.393091999965939 ], [ 88.60135300040352, 27.39109900029786 ], [ 88.604904000297438, 27.391447000033526 ], [ 88.605813999968476, 27.390505999710317 ], [ 88.608605999804112, 27.390988999713546 ], [ 88.611093999866156, 27.388698999968717 ], [ 88.620682999891173, 27.387999999787603 ], [ 88.622715999668543, 27.38851100005882 ], [ 88.624900999781886, 27.386679999610724 ], [ 88.626479000172878, 27.387648999697497 ], [ 88.628420999713668, 27.3871109996218 ], [ 88.63242699989226, 27.388081000141039 ], [ 88.642502000164086, 27.392820999979847 ], [ 88.646750000192029, 27.393467999841306 ], [ 88.648813999931548, 27.390667999877188 ], [ 88.653548000206285, 27.389912999930765 ], [ 88.668545000175499, 27.392961000052662 ], [ 88.639771000427771, 27.362597000261587 ], [ 88.634733000379441, 27.360506000382607 ], [ 88.639239999975132, 27.355842000216928 ], [ 88.632287999975119, 27.349319999865056 ], [ 88.635098000252427, 27.345889999840299 ], [ 88.635582999775991, 27.346415000238171 ], [ 88.640469000386716, 27.346092999767826 ], [ 88.640469000386716, 27.347654999750858 ], [ 88.643594000308283, 27.347009999703005 ], [ 88.64420100003062, 27.345770999957466 ], [ 88.645080999564414, 27.346658999669 ], [ 88.644413999567618, 27.348815000011232 ], [ 88.646729000275613, 27.350712999739759 ], [ 88.653316000402683, 27.359871000145873 ], [ 88.672327999873048, 27.357416000343882 ], [ 88.686662000043441, 27.358430999949405 ], [ 88.698893000116243, 27.352407999708266 ], [ 88.692269000179266, 27.339995000087896 ], [ 88.655976999818762, 27.32556600002194 ], [ 88.640393000218737, 27.32812600039011 ], [ 88.617859000268467, 27.326576000224748 ], [ 88.613541999745223, 27.32358000013582 ], [ 88.614231000381622, 27.327907999981328 ], [ 88.615428000107826, 27.329037000022726 ], [ 88.616747000032746, 27.334164000186647 ], [ 88.615089999999014, 27.338395999812839 ], [ 88.612675999556828, 27.339264999774247 ], [ 88.612815000372294, 27.342399000223889 ], [ 88.612107000367658, 27.342779999942948 ], [ 88.61754999957364, 27.349367000360019 ], [ 88.617998000185636, 27.354514999721182 ], [ 88.617055999829233, 27.35526800001546 ], [ 88.618650000113789, 27.357425999736879 ], [ 88.62073300011987, 27.357763000214934 ], [ 88.618441999701332, 27.360009999954947 ], [ 88.617027000415234, 27.360713000127557 ], [ 88.610563000311799, 27.358840000396739 ], [ 88.605116000009545, 27.354393000347564 ], [ 88.605343999615187, 27.351993999899882 ], [ 88.602354000311109, 27.349657000273712 ], [ 88.599646000141064, 27.349406000263283 ], [ 88.597096999979641, 27.345642000288787 ], [ 88.589335999692608, 27.346845000071045 ], [ 88.586938999867158, 27.348489999993777 ], [ 88.584783999891059, 27.351939999880166 ], [ 88.582023000017529, 27.354256000125595 ], [ 88.570460999591319, 27.353108000254277 ], [ 88.566573000311791, 27.359141999644354 ], [ 88.561177000063154, 27.354311000339912 ], [ 88.554311000276826, 27.354082999882738 ], [ 88.549417999993423, 27.3554570002741 ], [ 88.542845999934954, 27.362102000083002 ], [ 88.547359000276757, 27.36593599987145 ], [ 88.547487000323287, 27.384720999806337 ], [ 88.552895000267483, 27.392761999844812 ], [ 88.556886000377503, 27.3934119997712 ], [ 88.557915999699091, 27.394688000253435 ], [ 88.566412999579896, 27.394364000295774 ], [ 88.570833000035307, 27.395851000182251 ], [ 88.572763999705415, 27.39478399970405 ], [ 88.577986999701707, 27.396109000388819 ], [ 88.579595000229972, 27.395784999810132 ], [ 88.585845999898027, 27.400123000049742 ], [ 88.58800099987414, 27.400469999983891 ], [ 88.58924500035431, 27.398505999806829 ], [ 88.588637999733692, 27.397294000355313 ] ] ] } },
{ "type": "Feature", "properties": { "pincode": "737106", "officename": "Pakyong S.O", "officetype": "S.O", "circle": "West Bengal", "region": "Div Reporting", "division": "Sikkim", "state": "Sikkim", "district": "Sikkim" }, "geometry": { "type": "Polygon", "coordinates": [ [ [ 88.686533000171991, 27.240475000123492 ], [ 88.689365000190605, 27.235743000148712 ], [ 88.692733999611363, 27.223455999641239 ], [ 88.689783999591981, 27.223046000216755 ], [ 88.689032999929609, 27.220679999669613 ], [ 88.68536400003488, 27.222664000107866 ], [ 88.683701000153363, 27.222386999882779 ], [ 88.675113999860898, 27.215778000027278 ], [ 88.671937000060765, 27.215325999905854 ], [ 88.671251999622342, 27.213715999947702 ], [ 88.669409999640664, 27.213838999930207 ], [ 88.666721999562085, 27.209980000319323 ], [ 88.661984999812617, 27.210366000085454 ], [ 88.659449999894917, 27.208795000118986 ], [ 88.658684999988836, 27.207445000262005 ], [ 88.640570999595639, 27.222445000286854 ], [ 88.640727000129559, 27.22641699991911 ], [ 88.643154000092238, 27.230033000051389 ], [ 88.626838000198077, 27.234369999972191 ], [ 88.624658999932549, 27.236225000273155 ], [ 88.616687999583206, 27.238413999634499 ], [ 88.612826000242961, 27.217368999855744 ], [ 88.608190999702416, 27.20254100019088 ], [ 88.589284999638963, 27.208883999821975 ], [ 88.584602000316181, 27.214961999804157 ], [ 88.57458800014372, 27.222896000167118 ], [ 88.568944000197959, 27.222787999910452 ], [ 88.561305999934575, 27.237460000102974 ], [ 88.573798999948224, 27.253600000333833 ], [ 88.549522999575387, 27.258708999670265 ], [ 88.612633999724039, 27.262095999820836 ], [ 88.628425999736521, 27.265310999776474 ], [ 88.669623999900907, 27.259436000311336 ], [ 88.686533000171991, 27.240475000123492 ] ] ] } },
{ "type": "Feature", "properties": { "pincode": "737107", "officename": "Dikchu S.O", "officetype": "S.O", "circle": "West Bengal", "region": "Div Reporting", "division": "Sikkim", "state": "Sikkim", "district": "Sikkim" }, "geometry": { "type": "Polygon", "coordinates": [ [ [ 88.409818999950758, 27.52289999968831 ], [ 88.44944200009715, 27.497089999980719 ], [ 88.448532000426127, 27.501453000282012 ], [ 88.514928000329917, 27.462216000281686 ], [ 88.514200000233771, 27.432468000077144 ], [ 88.529979999652383, 27.402173000276029 ], [ 88.552895000267483, 27.392761999844812 ], [ 88.547487000323287, 27.384720999806337 ], [ 88.547359000276757, 27.36593599987145 ], [ 88.542845999934954, 27.362102000083002 ], [ 88.518509000361078, 27.36641399976077 ], [ 88.47359799992104, 27.378917999764507 ], [ 88.440762999743171, 27.381397000053759 ], [ 88.40115300001554, 27.506467999764027 ], [ 88.409818999950758, 27.52289999968831 ] ] ] } },
{ "type": "Feature", "properties": { "pincode": "737111", "officename": "Gayzing S.O", "officetype": "S.O", "circle": "West Bengal", "region": "Div Reporting", "division": "Sikkim", "state": "Sikkim", "district": "Sikkim" }, "geometry": { "type": "Polygon", "coordinates": [ [ [ 88.40115300001554, 27.506467999764027 ], [ 88.440762999743171, 27.381397000053759 ], [ 88.429735000142614, 27.344760000088694 ], [ 88.429298000299639, 27.357742000196165 ], [ 88.416252000092015, 27.392192999819464 ], [ 88.41178899997891, 27.408651999978115 ], [ 88.392220000116666, 27.419929000300563 ], [ 88.356658000400458, 27.422052999839305 ], [ 88.350781999752783, 27.410905999771057 ], [ 88.340617999792514, 27.397364999712394 ], [ 88.330765000176854, 27.387010999767011 ], [ 88.327999000280471, 27.366522000017351 ], [ 88.328704999736985, 27.350728000135664 ], [ 88.332480999761813, 27.336700000243766 ], [ 88.315659000427701, 27.328159999968609 ], [ 88.307076000333197, 27.315958999740687 ], [ 88.30467199993673, 27.304976999697899 ], [ 88.307076000333197, 27.291554000083693 ], [ 88.300895999911901, 27.272329999802754 ], [ 88.309135000049821, 27.254018999920135 ], [ 88.324584999755558, 27.231126000036785 ], [ 88.317804000358095, 27.228989000182676 ], [ 88.306817999692029, 27.227160000273411 ], [ 88.232058999801751, 27.221332999756381 ], [ 88.247423000192086, 27.239747000197191 ], [ 88.244761999877667, 27.248204000011508 ], [ 88.201674999875948, 27.286677999859069 ], [ 88.240239000388442, 27.301777000296518 ], [ 88.243879999795737, 27.309870999992231 ], [ 88.245233999880753, 27.318551000024474 ], [ 88.232574000360856, 27.352860999847508 ], [ 88.263129999815746, 27.381203999878444 ], [ 88.275489999760012, 27.415024000306108 ], [ 88.266906999665522, 27.479620000391051 ], [ 88.29025300027584, 27.600784000173704 ], [ 88.409827000346667, 27.522916000393156 ], [ 88.40115300001554, 27.506467999764027 ] ] ] } },
{ "type": "Feature", "properties": { "pincode": "737113", "officename": "Pelling S.O", "officetype": "S.O", "circle": "West Bengal", "region": "Div Reporting", "division": "Sikkim", "state": "Sikkim", "district": "Sikkim" }, "geometry": { "type": "Polygon", "coordinates": [ [ [ 88.29025300027584, 27.600784000173704 ], [ 88.266906999665522, 27.479620000391051 ], [ 88.275489999760012, 27.415024000306108 ], [ 88.263129999815746, 27.381203999878444 ], [ 88.232574000360856, 27.352860999847508 ], [ 88.245233999880753, 27.318551000024474 ], [ 88.243879999795737, 27.309870999992231 ], [ 88.240239000388442, 27.301777000296518 ], [ 88.201674999875948, 27.286677999859069 ], [ 88.244761999877667, 27.248204000011508 ], [ 88.174206999634379, 27.223597000374561 ], [ 88.139977000261894, 27.212910999632609 ], [ 88.119462999670233, 27.238923000134967 ], [ 88.07540099970015, 27.238708000227934 ], [ 88.066419000295795, 27.226295999611303 ], [ 88.063316000115506, 27.214487000031564 ], [ 88.057822999782474, 27.214638999795657 ], [ 88.053017000436, 27.213115000009577 ], [ 88.050572999856584, 27.214412999650914 ], [ 88.0485790004373, 27.21673400033 ], [ 88.040141999932629, 27.219829000089291 ], [ 88.029670999825726, 27.220746999755672 ], [ 88.018899438696053, 27.224979069545579 ], [ 88.019747702547491, 27.231388041078283 ], [ 88.019280590277845, 27.235675537840109 ], [ 88.021619355018402, 27.237523921459655 ], [ 88.02463490330743, 27.237623132035381 ], [ 88.02430695534666, 27.242075172899263 ], [ 88.02678071711145, 27.246037822058732 ], [ 88.027826057861475, 27.249467229153648 ], [ 88.030885057660839, 27.249911686692379 ], [ 88.030296113177428, 27.255252435893226 ], [ 88.031197227611969, 27.26149754007568 ], [ 88.030686217369322, 27.262853187336287 ], [ 88.031882106777843, 27.264904105836848 ], [ 88.031605268465142, 27.269241565488887 ], [ 88.030432614879771, 27.271942732155843 ], [ 88.031342724145276, 27.277069888718046 ], [ 88.032808558194958, 27.280376372952343 ], [ 88.032046635917069, 27.286390214346127 ], [ 88.034185459031548, 27.287580924431271 ], [ 88.03511377085961, 27.289254695732204 ], [ 88.037064760739781, 27.289977075421511 ], [ 88.03852440629548, 27.291879056811808 ], [ 88.041235823656876, 27.291135525177221 ], [ 88.043149069023727, 27.291497458315895 ], [ 88.044608392084243, 27.293248291063019 ], [ 88.044035121405898, 27.295960652014895 ], [ 88.040867435338654, 27.301368269027645 ], [ 88.041544438076116, 27.304078417666542 ], [ 88.044886991993224, 27.309644788649784 ], [ 88.048794430815448, 27.312813929168666 ], [ 88.048944655182112, 27.315034153315924 ], [ 88.049823029663557, 27.315293932578342 ], [ 88.049377377247737, 27.318285979907117 ], [ 88.052303401232194, 27.324220471740144 ], [ 88.059743524198069, 27.328343559046107 ], [ 88.060063025300238, 27.330054471003091 ], [ 88.063455450088625, 27.334325439619718 ], [ 88.066927814157538, 27.335774757021966 ], [ 88.064858252948099, 27.341138739874189 ], [ 88.063620184942081, 27.340853113649608 ], [ 88.061301536175705, 27.344761614313853 ], [ 88.061489116085127, 27.347265144742412 ], [ 88.058983005088649, 27.351350170086778 ], [ 88.057620502449467, 27.35621422757588 ], [ 88.053254636269713, 27.358361264910034 ], [ 88.050727468762958, 27.358432427281308 ], [ 88.049000824141871, 27.360051135082475 ], [ 88.047156002551915, 27.362309242569474 ], [ 88.046837032354077, 27.364172380289652 ], [ 88.041828484470628, 27.370287286304624 ], [ 88.041573280284922, 27.372931077205827 ], [ 88.044840629941376, 27.379867606771377 ], [ 88.044059016592456, 27.384766117180384 ], [ 88.045114946683086, 27.38826696604626 ], [ 88.044749027833561, 27.389929264811006 ], [ 88.045780620766479, 27.392688803359192 ], [ 88.045755362835635, 27.39579575262864 ], [ 88.04842272412057, 27.401030033838946 ], [ 88.046804134251744, 27.405932285704079 ], [ 88.049631059687329, 27.40724572478242 ], [ 88.050713572723851, 27.412984657891847 ], [ 88.055586769646794, 27.418286925198416 ], [ 88.058185483474347, 27.418449867049738 ], [ 88.060218970138621, 27.420792295852948 ], [ 88.067787504579385, 27.425332066841442 ], [ 88.074089305773441, 27.426807833217485 ], [ 88.073148433701064, 27.430780549632008 ], [ 88.075056893742371, 27.433222686146298 ], [ 88.067820759312909, 27.438343749765046 ], [ 88.072443618224057, 27.445818498857982 ], [ 88.067249706574998, 27.449475541344743 ], [ 88.067028095787649, 27.451531122375041 ], [ 88.064350527844482, 27.453652874854267 ], [ 88.06629620868128, 27.455073801100909 ], [ 88.066860760311499, 27.457873004559993 ], [ 88.060524719830383, 27.46077267671885 ], [ 88.059356339530837, 27.463559626274066 ], [ 88.057184727010167, 27.465765019091418 ], [ 88.057136227866309, 27.466906852286538 ], [ 88.053704565564587, 27.468782971089901 ], [ 88.051576224891178, 27.471393377055239 ], [ 88.04859267279592, 27.472419672501019 ], [ 88.044139691593188, 27.478100399268357 ], [ 88.045540383411748, 27.481520962810787 ], [ 88.04416124127853, 27.48417708571878 ], [ 88.044076426840974, 27.4894123453013 ], [ 88.045084034755831, 27.493493711542104 ], [ 88.044084322134026, 27.495810703492491 ], [ 88.046621570534882, 27.500949728411065 ], [ 88.049220389465304, 27.501976690271555 ], [ 88.050580480127977, 27.503927389429766 ], [ 88.055146253797773, 27.504442620149312 ], [ 88.05732398294721, 27.50674874319764 ], [ 88.057855674204291, 27.509200816645446 ], [ 88.061868837549, 27.512173611063023 ], [ 88.058098270534984, 27.515716440697286 ], [ 88.058416617302001, 27.520422348689078 ], [ 88.059398916082031, 27.520676267834787 ], [ 88.061012237331724, 27.52489642434481 ], [ 88.066264937427931, 27.527332873857393 ], [ 88.065500280678307, 27.529468075386415 ], [ 88.061873313854036, 27.529991877359247 ], [ 88.05953585616227, 27.53190166341416 ], [ 88.058652882306575, 27.534821098176007 ], [ 88.059515536270553, 27.535440535003517 ], [ 88.061200030141862, 27.540294465913643 ], [ 88.064262491149989, 27.542007925892847 ], [ 88.065014577773866, 27.544252982469512 ], [ 88.067157747835992, 27.544625404477603 ], [ 88.068803407537573, 27.546255062176254 ], [ 88.068256161053014, 27.550568979794644 ], [ 88.069055093920625, 27.554913984177517 ], [ 88.075058366979434, 27.557459355083331 ], [ 88.078618125447392, 27.560408417636719 ], [ 88.081136181342202, 27.565145062789096 ], [ 88.079438165130895, 27.568197293343314 ], [ 88.077708480610923, 27.56887250706232 ], [ 88.075484396596195, 27.571567125206048 ], [ 88.077467336856046, 27.575245456402065 ], [ 88.080554836606083, 27.577527659416049 ], [ 88.079107111694199, 27.579085886779197 ], [ 88.080601828376913, 27.580340285754644 ], [ 88.081831795375749, 27.584220908538565 ], [ 88.089231209387847, 27.594436542111495 ], [ 88.093020782058332, 27.597882513098494 ], [ 88.106375214327144, 27.602706223339542 ], [ 88.109022205414718, 27.606389737538429 ], [ 88.113852082879745, 27.610306794478291 ], [ 88.112665374253439, 27.614997226391917 ], [ 88.116973708729105, 27.620169299721194 ], [ 88.11661322738199, 27.624043437623772 ], [ 88.119905862817092, 27.627651332393224 ], [ 88.116983865081693, 27.629805855878558 ], [ 88.120626630576851, 27.638431911178618 ], [ 88.120075737830575, 27.640973028360566 ], [ 88.120674336508344, 27.642333941079073 ], [ 88.394285679705774, 27.661953773482406 ], [ 88.384674999739687, 27.657078999738903 ], [ 88.29025300027584, 27.600784000173704 ] ] ] } },
{ "type": "Feature", "properties": { "pincode": "737116", "officename": "Mangan S.O", "officetype": "S.O", "circle": "West Bengal", "region": "Div Reporting", "division": "Sikkim", "state": "Sikkim", "district": "Sikkim" }, "geometry": { "type": "Polygon", "coordinates": [ [ [ 88.777331352086563, 27.532562788168207 ], [ 88.783668086067081, 27.529232152703877 ], [ 88.785170454599381, 27.530739561044957 ], [ 88.790951920139804, 27.531558416291652 ], [ 88.792815320686472, 27.528898579992539 ], [ 88.792208436846849, 27.526488746916659 ], [ 88.792803272481905, 27.524948642168273 ], [ 88.791530000398168, 27.523474668501571 ], [ 88.788384279037942, 27.522142589700167 ], [ 88.789029640416146, 27.51778891444949 ], [ 88.790585821627246, 27.515803219789124 ], [ 88.78976613587993, 27.513152719947698 ], [ 88.78752435864736, 27.511481865600569 ], [ 88.785634394019439, 27.506540674593769 ], [ 88.786934948836645, 27.503671637252808 ], [ 88.783315910543095, 27.500399902072289 ], [ 88.783315852152583, 27.495494080376464 ], [ 88.786568466743432, 27.488167341102354 ], [ 88.782897138415521, 27.482940278620575 ], [ 88.780618825802037, 27.481200026944993 ], [ 88.783422771434346, 27.477050749391292 ], [ 88.783715447045481, 27.474754445722027 ], [ 88.777971766442533, 27.470359775243125 ], [ 88.777042334415285, 27.468140438384179 ], [ 88.779768907253839, 27.462029533963282 ], [ 88.784420780850382, 27.458647291676833 ], [ 88.783189664008006, 27.456076849450771 ], [ 88.783000771659928, 27.453111948612634 ], [ 88.783635021776419, 27.452016857664901 ], [ 88.782548363014882, 27.449654595193696 ], [ 88.789294455677066, 27.44681250423762 ], [ 88.796339349562317, 27.447310579385405 ], [ 88.794503342241939, 27.445533138142277 ], [ 88.794292970277112, 27.440477560711049 ], [ 88.791657855815927, 27.438432727278308 ], [ 88.794721522363176, 27.431827519343614 ], [ 88.795156185688143, 27.428852488939373 ], [ 88.796415121558226, 27.427237521395405 ], [ 88.799868152983933, 27.426436185481958 ], [ 88.8008193107663, 27.422586616505768 ], [ 88.808873959539923, 27.423628349467101 ], [ 88.807383625737515, 27.42134866957495 ], [ 88.761635000193962, 27.399494999895246 ], [ 88.707389999997048, 27.392791000226051 ], [ 88.696060000272723, 27.398553000151615 ], [ 88.653548000206285, 27.389912999930765 ], [ 88.648813999931548, 27.390667999877188 ], [ 88.646750000192029, 27.393467999841306 ], [ 88.642502000164086, 27.392820999979847 ], [ 88.63242699989226, 27.388081000141039 ], [ 88.628420999713668, 27.3871109996218 ], [ 88.626479000172878, 27.387648999697497 ], [ 88.624900999781886, 27.386679999610724 ], [ 88.622715999668543, 27.38851100005882 ], [ 88.620682999891173, 27.387999999787603 ], [ 88.611093999866156, 27.388698999968717 ], [ 88.608605999804112, 27.390988999713546 ], [ 88.605813999968476, 27.390505999710317 ], [ 88.604904000297438, 27.391447000033526 ], [ 88.60135300040352, 27.39109900029786 ], [ 88.594767999926276, 27.393091999965939 ], [ 88.593219999672442, 27.392768000116824 ], [ 88.588637999733692, 27.397294000355313 ], [ 88.58924500035431, 27.398505999806829 ], [ 88.58800099987414, 27.400469999983891 ], [ 88.585845999898027, 27.400123000049742 ], [ 88.579595000229972, 27.395784999810132 ], [ 88.577986999701707, 27.396109000388819 ], [ 88.572763999705415, 27.39478399970405 ], [ 88.570833000035307, 27.395851000182251 ], [ 88.566412999579896, 27.394364000295774 ], [ 88.557915999699091, 27.394688000253435 ], [ 88.556886000377503, 27.3934119997712 ], [ 88.552895000267483, 27.392761999844812 ], [ 88.529979999652383, 27.402173000276029 ], [ 88.514200000233771, 27.432468000077144 ], [ 88.514928000329917, 27.462216000281686 ], [ 88.448532000426127, 27.501453000282012 ], [ 88.44944200009715, 27.497089999980719 ], [ 88.29025300027584, 27.600784000173704 ], [ 88.384674999739687, 27.657078999738903 ], [ 88.394285679705774, 27.661953773482406 ], [ 88.414829000410009, 27.663380000117531 ], [ 88.557358000380589, 27.57768000010206 ], [ 88.605722999731867, 27.533475000165218 ], [ 88.777331352086563, 27.532562788168207 ] ] ] } },
{ "type": "Feature", "properties": { "pincode": "737120", "officename": "Chungthang S.O", "officetype": "S.O", "circle": "West Bengal", "region": "Div Reporting", "division": "Sikkim", "state": "Sikkim", "district": "Sikkim" }, "geometry": { "type": "Polygon", "coordinates": [ [ [ 88.646841119006211, 28.098146557053514 ], [ 88.654408650028856, 28.094651252816284 ], [ 88.65640436882363, 28.092411419788846 ], [ 88.656864174196755, 28.0900439568574 ], [ 88.661352617293645, 28.089644534536845 ], [ 88.664338549026084, 28.087414281644559 ], [ 88.665403282606462, 28.085417363836317 ], [ 88.665158506064586, 28.082643490270478 ], [ 88.666395888656083, 28.07978197559699 ], [ 88.666682329060833, 28.076103441661395 ], [ 88.672063853856983, 28.072340964091389 ], [ 88.678437496019242, 28.071459916486646 ], [ 88.68135381730032, 28.076913899637788 ], [ 88.686810827529797, 28.077944246548324 ], [ 88.693438709087147, 28.077627812105405 ], [ 88.697201255942275, 28.075928821248233 ], [ 88.703252142406086, 28.076256454633779 ], [ 88.709551721168111, 28.077639825439842 ], [ 88.720420780947123, 28.074331173005753 ], [ 88.734852364208521, 28.074346068665896 ], [ 88.747097038436607, 28.076041515458012 ], [ 88.756286440873765, 28.075973171493082 ], [ 88.765652197872555, 28.070465625887348 ], [ 88.770927911908061, 28.065873316235816 ], [ 88.774152730827382, 28.062304129205501 ], [ 88.777604424661604, 28.054122927646581 ], [ 88.783775847070217, 28.053947816464138 ], [ 88.787407798645987, 28.050381671785917 ], [ 88.792881494183561, 28.048639875410448 ], [ 88.793853717459371, 28.043400714954558 ], [ 88.797575496970296, 28.040943262635469 ], [ 88.803073917737748, 28.031805498898414 ], [ 88.805879476744309, 28.02915943788739 ], [ 88.807773146922798, 28.028428405539795 ], [ 88.81359480937725, 28.022436593690305 ], [ 88.816875113638432, 28.020676204699196 ], [ 88.820154816926632, 28.021471492371457 ], [ 88.822633270592178, 28.020858033720845 ], [ 88.836278327618345, 28.014814526268029 ], [ 88.837793853774642, 28.008538842557595 ], [ 88.837976403118475, 28.000488434450371 ], [ 88.839278012557799, 27.997739342891474 ], [ 88.843705580421158, 27.993250624790793 ], [ 88.84381017935452, 27.990424225493516 ], [ 88.843172538996171, 27.985375443068222 ], [ 88.841399797326275, 27.981742643983733 ], [ 88.842993066382192, 27.975263805061299 ], [ 88.840840272668416, 27.966335337344521 ], [ 88.842395701091306, 27.963633384827205 ], [ 88.842885986302008, 27.952780440202449 ], [ 88.841771884008551, 27.949559860127518 ], [ 88.84134191258434, 27.94415064966692 ], [ 88.838707275128556, 27.942727540240952 ], [ 88.839211961231598, 27.940650607630189 ], [ 88.837647605351421, 27.936634761363766 ], [ 88.836936755890662, 27.928780435290335 ], [ 88.843583222692942, 27.928810176397668 ], [ 88.852653752865166, 27.925782368719013 ], [ 88.860407369000583, 27.927154488593651 ], [ 88.863698417112545, 27.921344260350971 ], [ 88.870018634668227, 27.91560245932444 ], [ 88.869331027318822, 27.912995991368387 ], [ 88.87014804327309, 27.91015226256766 ], [ 88.869179967518974, 27.907588867467709 ], [ 88.869531857378689, 27.905442751107465 ], [ 88.87217022733445, 27.901187963177172 ], [ 88.871814269903112, 27.898516163119076 ], [ 88.882632802142354, 27.89077240948626 ], [ 88.880661637897546, 27.886618073973303 ], [ 88.880779838222622, 27.882276029294854 ], [ 88.878487942183739, 27.879725190048841 ], [ 88.87781346461054, 27.875761614658618 ], [ 88.879372849213937, 27.867155389779885 ], [ 88.885051795420864, 27.861543579686963 ], [ 88.88767375944461, 27.85617988874251 ], [ 88.881296644395476, 27.849752692479708 ], [ 88.881756234172926, 27.846951296695398 ], [ 88.880506559933423, 27.844589299269231 ], [ 88.879939230712381, 27.84008356504469 ], [ 88.882074890858718, 27.837634205625509 ], [ 88.882692513159284, 27.834268477655186 ], [ 88.880553528348045, 27.831786597689984 ], [ 88.880451364747415, 27.829184477337577 ], [ 88.871707865356043, 27.825588875338518 ], [ 88.863903338100229, 27.819692702806982 ], [ 88.855781639073754, 27.815082993433908 ], [ 88.85833947955588, 27.811099013182663 ], [ 88.858910768550714, 27.807325784173493 ], [ 88.858101974876249, 27.804197835864763 ], [ 88.860225683836063, 27.802947546400329 ], [ 88.859659933853266, 27.800975146525602 ], [ 88.861233051900726, 27.798793112453364 ], [ 88.861454260242809, 27.796985153061453 ], [ 88.859823342793334, 27.794687798863993 ], [ 88.859282048545836, 27.790227264173922 ], [ 88.854922429250621, 27.78349753054054 ], [ 88.854676271998144, 27.777500995684917 ], [ 88.855912430185882, 27.770769476992747 ], [ 88.853563053646894, 27.76916767753082 ], [ 88.853278635349852, 27.764482827009097 ], [ 88.854488925650671, 27.762954005727984 ], [ 88.854451596159066, 27.756416095916027 ], [ 88.856094192605525, 27.752289136501886 ], [ 88.858391965422996, 27.753935759090613 ], [ 88.859892558884297, 27.753902163687577 ], [ 88.861610064943989, 27.752490315850832 ], [ 88.864090060118542, 27.746661203030584 ], [ 88.863600748681591, 27.74425010110474 ], [ 88.865141157272916, 27.742248033921157 ], [ 88.859416608988894, 27.738112829261095 ], [ 88.858663348266958, 27.733780069078424 ], [ 88.856685880543836, 27.731672040338548 ], [ 88.857511600274876, 27.726816564762437 ], [ 88.855794523609887, 27.725214036825864 ], [ 88.85559206939601, 27.722427479246523 ], [ 88.854235651046196, 27.720119687597723 ], [ 88.855931302891676, 27.718496523673434 ], [ 88.856304064208715, 27.716548356457537 ], [ 88.854697127285746, 27.716347025652837 ], [ 88.852629151602784, 27.714489960504164 ], [ 88.849801328750246, 27.714389178333583 ], [ 88.839790558021249, 27.711226506201289 ], [ 88.837983516877173, 27.706287314958381 ], [ 88.838273652052692, 27.703787814000943 ], [ 88.842631611261311, 27.702878135441786 ], [ 88.843595538595466, 27.700163640397321 ], [ 88.846038133311481, 27.698074408730196 ], [ 88.84765618688607, 27.693555528248744 ], [ 88.842340265156793, 27.684183031918064 ], [ 88.841918135126704, 27.682197119266114 ], [ 88.842429118419858, 27.680580462431958 ], [ 88.844382586751877, 27.679651755959355 ], [ 88.844567104304488, 27.677088427557806 ], [ 88.847588037993674, 27.675444267229071 ], [ 88.848386246819146, 27.668007916566243 ], [ 88.843094110681974, 27.659910005730818 ], [ 88.839129455464317, 27.656983467748294 ], [ 88.838248695057487, 27.654930942003734 ], [ 88.835717160840133, 27.6536206143379 ], [ 88.835507440153904, 27.650344245860484 ], [ 88.833849829265773, 27.649514662018365 ], [ 88.831528292415797, 27.646663875861162 ], [ 88.828850604098335, 27.645855782962801 ], [ 88.827947848441767, 27.644259324661522 ], [ 88.822778106863723, 27.643525615694557 ], [ 88.819462518574852, 27.646394274294906 ], [ 88.8167687719734, 27.647175085001635 ], [ 88.815260167336376, 27.646092927008457 ], [ 88.814131075754091, 27.642448975357425 ], [ 88.811571169146816, 27.638777694438105 ], [ 88.811187634334587, 27.636540178356888 ], [ 88.808682519569757, 27.634442810175948 ], [ 88.808522155918467, 27.631121349847948 ], [ 88.806515716629121, 27.628650333621696 ], [ 88.804907782576223, 27.623507505016363 ], [ 88.808014435306433, 27.622037897636673 ], [ 88.811655597308814, 27.618385318347261 ], [ 88.808226483527562, 27.613400828978886 ], [ 88.806329309919448, 27.608916512227577 ], [ 88.809026527611167, 27.602534025977132 ], [ 88.807535753634241, 27.601499103851797 ], [ 88.804729898183638, 27.594363743106555 ], [ 88.803140618545896, 27.594335054516549 ], [ 88.794687458247608, 27.590253251233644 ], [ 88.791423758446157, 27.586497021872692 ], [ 88.788367087080033, 27.584929703690719 ], [ 88.790825728401941, 27.58115764054417 ], [ 88.791294719947189, 27.575103178793686 ], [ 88.788013367352079, 27.574792863587007 ], [ 88.784444331083847, 27.573284159874486 ], [ 88.78138920302338, 27.569922788963808 ], [ 88.770003165493307, 27.571259757452637 ], [ 88.767143069765865, 27.569536264077144 ], [ 88.764315398728584, 27.566428211931143 ], [ 88.763805078392082, 27.564598529461492 ], [ 88.771731452234732, 27.558071676699125 ], [ 88.773930548711505, 27.553794103209324 ], [ 88.773010425027252, 27.548955398941761 ], [ 88.775175649627926, 27.544520139237523 ], [ 88.773096729769847, 27.540757531826827 ], [ 88.777331352086563, 27.532562788168207 ], [ 88.605722999731867, 27.533475000165218 ], [ 88.557358000380589, 27.57768000010206 ], [ 88.414829000410009, 27.663380000117531 ], [ 88.120674336508344, 27.642333941079073 ], [ 88.120211974529909, 27.645247781639473 ], [ 88.124519196891285, 27.649997720144597 ], [ 88.128711327098458, 27.652160236579551 ], [ 88.132145531632403, 27.656197956164203 ], [ 88.136023538052697, 27.656629612594038 ], [ 88.137561806857036, 27.657569213343482 ], [ 88.139154259344323, 27.660367558687089 ], [ 88.142041812976743, 27.663167340119152 ], [ 88.143703622590493, 27.663732039283332 ], [ 88.144690988767053, 27.665354646813725 ], [ 88.14720995824851, 27.674673777779667 ], [ 88.146937658224672, 27.679342359862904 ], [ 88.154151400349051, 27.691800049943222 ], [ 88.151144434564216, 27.696093843224084 ], [ 88.150837185584209, 27.698533489628186 ], [ 88.149629431227453, 27.699139612519041 ], [ 88.148721492291699, 27.701783771658178 ], [ 88.147568737288168, 27.70279881360424 ], [ 88.149092017701989, 27.704875969245901 ], [ 88.149026570941942, 27.708146091278717 ], [ 88.152802847647891, 27.711715487476557 ], [ 88.155373068711256, 27.717353578145463 ], [ 88.154510880074596, 27.720543058949215 ], [ 88.154470615786934, 27.728540288129906 ], [ 88.156283840933412, 27.736326699022406 ], [ 88.157954396544781, 27.737935596790461 ], [ 88.15848338027962, 27.740573685561504 ], [ 88.162871229132691, 27.739771492881498 ], [ 88.16593923005118, 27.741039906125334 ], [ 88.169910004592538, 27.741139602249845 ], [ 88.174208862740301, 27.742924398999239 ], [ 88.175919350262674, 27.745605340730265 ], [ 88.178369713609271, 27.746184625079135 ], [ 88.17891724396145, 27.749954664262507 ], [ 88.177668218305584, 27.758441548028905 ], [ 88.182284935435163, 27.762624434332114 ], [ 88.183659820452235, 27.766699025016695 ], [ 88.181792072059551, 27.769406075040106 ], [ 88.182202963267159, 27.775773513590639 ], [ 88.185464457704569, 27.77714167290074 ], [ 88.189574651676367, 27.782279632717614 ], [ 88.195293664541623, 27.786260543320981 ], [ 88.197171927714649, 27.791172327696522 ], [ 88.193972019078174, 27.796412226206641 ], [ 88.191973447234062, 27.796924357990125 ], [ 88.187423162316406, 27.801097247813537 ], [ 88.185611119352828, 27.810580232625529 ], [ 88.179269366484846, 27.81544939948294 ], [ 88.174089633844204, 27.817374876854704 ], [ 88.173591187439129, 27.820595470054251 ], [ 88.182844059444406, 27.823116666514426 ], [ 88.188005984781142, 27.825456114689107 ], [ 88.191443222925813, 27.829477268046961 ], [ 88.192548175878088, 27.832961626582126 ], [ 88.19563321244766, 27.835302404447148 ], [ 88.20182100216077, 27.836717395129558 ], [ 88.202795363426944, 27.838510919878594 ], [ 88.201900928864845, 27.842495482834071 ], [ 88.198603022115719, 27.845326101663993 ], [ 88.197375852470685, 27.848791356452981 ], [ 88.197622636747241, 27.851339181380744 ], [ 88.195217920393489, 27.854539074427461 ], [ 88.189010024587688, 27.854383918430155 ], [ 88.185560819086788, 27.856531366099333 ], [ 88.18320642635527, 27.857000508570916 ], [ 88.178950989175107, 27.8564815248839 ], [ 88.17406794132674, 27.862661510748183 ], [ 88.167063396170789, 27.86606391053132 ], [ 88.164928849037054, 27.868304003830819 ], [ 88.15780926472749, 27.870659435045646 ], [ 88.15474704626449, 27.870721413346679 ], [ 88.153121175550268, 27.873034314925437 ], [ 88.148993796807119, 27.876405333604868 ], [ 88.144079026751129, 27.877948764289663 ], [ 88.140065216619433, 27.877413701831262 ], [ 88.136685266735384, 27.881231510128952 ], [ 88.13501398438693, 27.881619917798719 ], [ 88.136242970425457, 27.884540223139222 ], [ 88.137936468110865, 27.885644430734615 ], [ 88.139902707791265, 27.889147966844536 ], [ 88.134304942336556, 27.89704804092209 ], [ 88.130826179567876, 27.898915991074048 ], [ 88.122634869191742, 27.908372179569049 ], [ 88.121906748721372, 27.911703278863516 ], [ 88.119580894568102, 27.916004556267961 ], [ 88.121247923393653, 27.921969399832751 ], [ 88.125485898223047, 27.924534465362811 ], [ 88.13065354043826, 27.925752036257443 ], [ 88.130491593057158, 27.929366765044691 ], [ 88.132069356292931, 27.932865353559755 ], [ 88.134724924494805, 27.935479144765448 ], [ 88.137862568204042, 27.937154476674753 ], [ 88.135599847648948, 27.943990749533995 ], [ 88.132746976172996, 27.947179705935124 ], [ 88.129391172105471, 27.949371643473398 ], [ 88.134340622521336, 27.951323441229501 ], [ 88.145214029247995, 27.964084733708123 ], [ 88.148846983343617, 27.960790204573286 ], [ 88.154297246327005, 27.957403192578425 ], [ 88.163891885077021, 27.957684417704527 ], [ 88.165112356883299, 27.955971913464062 ], [ 88.170564096697007, 27.952446096318749 ], [ 88.179072400079008, 27.949188274221154 ], [ 88.185465347935022, 27.943485073814681 ], [ 88.189910341318267, 27.942894777352606 ], [ 88.195338114080201, 27.944159313136055 ], [ 88.200590418019374, 27.941689602699277 ], [ 88.205339361768864, 27.941563285457551 ], [ 88.206604480743053, 27.941947286366968 ], [ 88.204948309854316, 27.948400322022792 ], [ 88.205561673242102, 27.955710292630137 ], [ 88.206460174477499, 27.959683460263378 ], [ 88.20796035022218, 27.961659797012711 ], [ 88.212745721554754, 27.964274966995902 ], [ 88.214762232755106, 27.963055484884492 ], [ 88.225053438651187, 27.960423729091378 ], [ 88.22915444914581, 27.965897182867526 ], [ 88.237173770772586, 27.970847933196474 ], [ 88.241505103017872, 27.957149729812514 ], [ 88.247388865109571, 27.949788871281505 ], [ 88.248771411857732, 27.945430596890191 ], [ 88.251084648274485, 27.94235099946367 ], [ 88.254095900819863, 27.945275030738681 ], [ 88.261115014853104, 27.947130464325241 ], [ 88.264725547897541, 27.956144199660073 ], [ 88.266236081217457, 27.957299794327565 ], [ 88.268185399332879, 27.957125809546667 ], [ 88.273941360804059, 27.954502075087625 ], [ 88.275638723940148, 27.954697010079627 ], [ 88.280556780033464, 27.957052005503225 ], [ 88.286039159584888, 27.966262022787134 ], [ 88.293340229632989, 27.965821698017706 ], [ 88.299948101217367, 27.967276613002575 ], [ 88.303469036295368, 27.965807468880758 ], [ 88.308206310929322, 27.967109163731703 ], [ 88.311166544556443, 27.970293929738972 ], [ 88.313204084419269, 27.970842414446498 ], [ 88.315413752270288, 27.976512839087167 ], [ 88.317919214683144, 27.978795147991072 ], [ 88.325966188250987, 27.976239333832869 ], [ 88.330397137373055, 27.973182636633773 ], [ 88.331926899131645, 27.974775356672023 ], [ 88.336721665045474, 27.984150559232955 ], [ 88.341335279394045, 27.985559160164478 ], [ 88.345656386116445, 27.9850170020954 ], [ 88.352265907905988, 27.989948470966301 ], [ 88.362266232126544, 27.988703457258367 ], [ 88.369578008296216, 27.98933158366258 ], [ 88.371147904985065, 27.989874073820758 ], [ 88.37177179033975, 27.991084370955008 ], [ 88.377014313422094, 27.989873199670459 ], [ 88.379001705732492, 27.98523465130873 ], [ 88.38090516575096, 27.983067586695999 ], [ 88.386177957566801, 27.981418818574998 ], [ 88.387388490412789, 27.97944099213732 ], [ 88.3990656341972, 27.978036794378525 ], [ 88.400603258011145, 27.980919791562073 ], [ 88.403019744091694, 27.982630778964484 ], [ 88.406803104013676, 27.981730917427477 ], [ 88.410774642123044, 27.983283549346748 ], [ 88.411489696597627, 27.985063541183521 ], [ 88.410832257370416, 27.988075879298631 ], [ 88.412223235705795, 27.994501678595348 ], [ 88.414702298429091, 27.998882454801567 ], [ 88.418232110658707, 28.000820626724121 ], [ 88.424612088638668, 28.001600992689134 ], [ 88.430593281107789, 28.008086764483991 ], [ 88.434763425048374, 28.007991514023164 ], [ 88.44375112246658, 28.009378230376555 ], [ 88.456380719404052, 28.014921383406744 ], [ 88.460790745864841, 28.01454866890117 ], [ 88.462382046711951, 28.016153457804474 ], [ 88.467816493956448, 28.017135056804953 ], [ 88.472627908347405, 28.026609270671493 ], [ 88.47444016600835, 28.033870710914798 ], [ 88.478529970019792, 28.038468003134849 ], [ 88.480364949667518, 28.042535815997063 ], [ 88.482473748390248, 28.043726834068796 ], [ 88.488050290248069, 28.044482237381093 ], [ 88.49561890104566, 28.053931380006503 ], [ 88.496545780060856, 28.053899266555685 ], [ 88.504477153926388, 28.047817245402477 ], [ 88.50962080214039, 28.04119432581933 ], [ 88.519675182483127, 28.043553828401407 ], [ 88.521848717398512, 28.036289903338304 ], [ 88.523513980136215, 28.034985787481293 ], [ 88.527528260086811, 28.037766994854518 ], [ 88.53270667849219, 28.033316535036416 ], [ 88.543639562673803, 28.033254576253487 ], [ 88.550804334038773, 28.037571690712923 ], [ 88.551070244346022, 28.03934958280675 ], [ 88.548974727214784, 28.043078338679866 ], [ 88.548703924682471, 28.046810835053567 ], [ 88.551757440267025, 28.054822442786019 ], [ 88.553922118692, 28.067384028308183 ], [ 88.556215746682753, 28.073484907792647 ], [ 88.55254617545954, 28.081416116483673 ], [ 88.559704633464676, 28.083928929451552 ], [ 88.563490633535267, 28.08853880912023 ], [ 88.566270902271626, 28.090326876370664 ], [ 88.570709625414182, 28.088793598470907 ], [ 88.57494051972246, 28.084616667570497 ], [ 88.581477731623238, 28.082989717881347 ], [ 88.584003815761747, 28.083312239963202 ], [ 88.587878604416673, 28.087283265960458 ], [ 88.591233401472778, 28.089260983860743 ], [ 88.597422721915137, 28.088595719439908 ], [ 88.602588178529288, 28.089170230637134 ], [ 88.602137118255442, 28.092048875144926 ], [ 88.605225074349647, 28.097602515104313 ], [ 88.611597590024545, 28.099054408537825 ], [ 88.619344477778469, 28.098076248430143 ], [ 88.617712880304325, 28.11000434381388 ], [ 88.617700335331392, 28.11777233589747 ], [ 88.608576433553168, 28.122600154874277 ], [ 88.609961046426449, 28.128691315247522 ], [ 88.624023554158441, 28.126181779069743 ], [ 88.628737857972254, 28.124422142618673 ], [ 88.63435337862856, 28.119574841836112 ], [ 88.637069133056158, 28.116106464344067 ], [ 88.644418142597729, 28.101291216939167 ], [ 88.646841119006211, 28.098146557053514 ] ] ] } },
{ "type": "Feature", "properties": { "pincode": "737121", "officename": "Naya Bazar S.O West Sikkim", "officetype": "S.O", "circle": "West Bengal", "region": "Div Reporting", "division": "Sikkim", "state": "Sikkim", "district": "Sikkim" }, "geometry": { "type": "Polygon", "coordinates": [ [ [ 88.247423000192086, 27.239747000197191 ], [ 88.232058999801751, 27.221332999756381 ], [ 88.306817999692029, 27.227160000273411 ], [ 88.317804000358095, 27.228989000182676 ], [ 88.324584999755558, 27.231126000036785 ], [ 88.335143999726057, 27.219774999685349 ], [ 88.318232999805147, 27.220135999624929 ], [ 88.309649999710658, 27.193266000246762 ], [ 88.298492000413773, 27.184410000147057 ], [ 88.285274999603629, 27.16700100033276 ], [ 88.289050999628458, 27.14851999964538 ], [ 88.289088000336662, 27.143889000300501 ], [ 88.285918000209264, 27.140356999621378 ], [ 88.283693999737864, 27.139051000377997 ], [ 88.283526000406681, 27.137691000094545 ], [ 88.281111999964494, 27.13500000000321 ], [ 88.283451000063621, 27.131849999678742 ], [ 88.280574999664069, 27.130512999797531 ], [ 88.279588000000132, 27.131773000060825 ], [ 88.273580000006305, 27.13104799993695 ], [ 88.272227999571101, 27.128335999667918 ], [ 88.251585999831207, 27.126407000064201 ], [ 88.229871000213663, 27.119360000325525 ], [ 88.224678000354601, 27.12369499997882 ], [ 88.21648100004947, 27.132594000139118 ], [ 88.206138999813973, 27.133855000247671 ], [ 88.198971999728784, 27.133740000130402 ], [ 88.19410100008497, 27.135439999823962 ], [ 88.190752999682317, 27.133797000147705 ], [ 88.180346000047791, 27.13351099965579 ], [ 88.173823000393156, 27.129290999934035 ], [ 88.166163000388451, 27.122969000044382 ], [ 88.162579999809168, 27.114813999665063 ], [ 88.14022099976107, 27.114299000370714 ], [ 88.128891000036745, 27.12117399968848 ], [ 88.0986789996401, 27.132633000133072 ], [ 88.08288599980267, 27.168221999621181 ], [ 88.080139000172863, 27.17738500019848 ], [ 88.075122000040892, 27.184042999991028 ], [ 88.074450000021258, 27.186019000217939 ], [ 88.072722999667306, 27.187200000259157 ], [ 88.074330000370665, 27.192804999667334 ], [ 88.078021999831577, 27.196957999979418 ], [ 88.07932800023606, 27.200834999846258 ], [ 88.075643000447783, 27.203094000072486 ], [ 88.071690999797582, 27.204162000108411 ], [ 88.065521000320331, 27.209163999976973 ], [ 88.064404000061771, 27.211054000397382 ], [ 88.064861999821161, 27.213937999934409 ], [ 88.063349999552386, 27.214616000286171 ], [ 88.066419000295795, 27.226295999611303 ], [ 88.07540099970015, 27.238708000227934 ], [ 88.119462999670233, 27.238923000134967 ], [ 88.139977000261894, 27.212910999632609 ], [ 88.174206999634379, 27.223597000374561 ], [ 88.244761999877667, 27.248204000011508 ], [ 88.247423000192086, 27.239747000197191 ] ] ] } },
{ "type": "Feature", "properties": { "pincode": "737126", "officename": "Namchi S.O", "officetype": "S.O", "circle": "West Bengal", "region": "Div Reporting", "division": "Sikkim", "state": "Sikkim", "district": "Sikkim" }, "geometry": { "type": "Polygon", "coordinates": [ [ [ 88.403898393457638, 27.214732613102814 ], [ 88.405951999689321, 27.191739000291829 ], [ 88.438225000350741, 27.196013999677334 ], [ 88.465347000087561, 27.182271999685231 ], [ 88.467922000188253, 27.164252000145616 ], [ 88.459339000093706, 27.145617000107773 ], [ 88.442917999719285, 27.137051999961884 ], [ 88.435452999708247, 27.148096999891692 ], [ 88.422903999618114, 27.152032999871729 ], [ 88.416487000268674, 27.152659999753634 ], [ 88.406552999563829, 27.150391000284454 ], [ 88.396381999930881, 27.143401999735872 ], [ 88.396639999673738, 27.138552000280139 ], [ 88.398314000324234, 27.131448999727432 ], [ 88.396167999670638, 27.131296000020917 ], [ 88.388871999714027, 27.133701999836241 ], [ 88.379430999827008, 27.127591000289854 ], [ 88.369645999983419, 27.117277999742466 ], [ 88.367629000099583, 27.113228999622994 ], [ 88.359436999817291, 27.108881999834495 ], [ 88.351729000132025, 27.101454000306934 ], [ 88.341562999623619, 27.110017000112059 ], [ 88.32927299999956, 27.108693000324585 ], [ 88.322778999758924, 27.105289999785395 ], [ 88.322890000087, 27.112455000389904 ], [ 88.321889000179368, 27.114604000215717 ], [ 88.31570600028337, 27.12102100031656 ], [ 88.297531999615728, 27.128599000153933 ], [ 88.295241000095473, 27.129132000348466 ], [ 88.288578999625344, 27.128430999741582 ], [ 88.28547899981811, 27.127209000311865 ], [ 88.280574999664069, 27.130512999797531 ], [ 88.283451000063621, 27.131849999678742 ], [ 88.281111999964494, 27.13500000000321 ], [ 88.283526000406681, 27.137691000094545 ], [ 88.283693999737864, 27.139051000377997 ], [ 88.285918000209264, 27.140356999621378 ], [ 88.289088000336662, 27.143889000300501 ], [ 88.289050999628458, 27.14851999964538 ], [ 88.285274999603629, 27.16700100033276 ], [ 88.298492000413773, 27.184410000147057 ], [ 88.309649999710658, 27.193266000246762 ], [ 88.318232999805147, 27.220135999624929 ], [ 88.335143999726057, 27.219774999685349 ], [ 88.338316000401605, 27.216364999976964 ], [ 88.346327999860492, 27.21463799960868 ], [ 88.36186499960489, 27.215069999659924 ], [ 88.378858000439891, 27.221977999839464 ], [ 88.392321000399022, 27.226295000327799 ], [ 88.403898393457638, 27.214732613102814 ] ] ] } },
{ "type": "Feature", "properties": { "pincode": "737128", "officename": "Melli Bazar S.O", "officetype": "S.O", "circle": "West Bengal", "region": "Div Reporting", "division": "Sikkim", "state": "Sikkim", "district": "Sikkim" }, "geometry": { "type": "Polygon", "coordinates": [ [ [ 88.442917999719285, 27.137051999961884 ], [ 88.442189999623139, 27.129058000122356 ], [ 88.46127700033486, 27.122089999886565 ], [ 88.467986999587254, 27.106237999961021 ], [ 88.469231000067438, 27.105169000077638 ], [ 88.466784999838183, 27.100545999997632 ], [ 88.464896999825754, 27.099304999900053 ], [ 88.466957000265651, 27.098100999615486 ], [ 88.467127999969875, 27.093383000240802 ], [ 88.465282999615141, 27.092713999754935 ], [ 88.458308999873779, 27.085836999642471 ], [ 88.456013000330685, 27.084498999714786 ], [ 88.45000500033683, 27.081271000108543 ], [ 88.440583999642996, 27.078705999979601 ], [ 88.43715199957478, 27.075635000021887 ], [ 88.439793999622609, 27.07381500038607 ], [ 88.438760999927936, 27.071329000194535 ], [ 88.433159999639869, 27.069816000257372 ], [ 88.431141000106194, 27.063519999972609 ], [ 88.429062000298089, 27.063747999704773 ], [ 88.427955999910154, 27.06474899973443 ], [ 88.42837199983677, 27.066337000110206 ], [ 88.427150999821109, 27.067438000395629 ], [ 88.428585000272108, 27.069619999614876 ], [ 88.431721999889248, 27.079843000169571 ], [ 88.419623000060909, 27.083285000189488 ], [ 88.412260999982038, 27.087514000042351 ], [ 88.4042260000586, 27.089704000355841 ], [ 88.398460999739001, 27.090187999670427 ], [ 88.392692999944686, 27.092862999923323 ], [ 88.378638000331861, 27.096374999890482 ], [ 88.374542999566458, 27.096955000017449 ], [ 88.359259000440403, 27.095197999645862 ], [ 88.356429000071586, 27.097184000147632 ], [ 88.356602000323932, 27.100011000338011 ], [ 88.355871999679678, 27.10069900017459 ], [ 88.35132099970302, 27.099093999718402 ], [ 88.348745999602372, 27.099743999757933 ], [ 88.344607000252694, 27.107452999728039 ], [ 88.351729000132025, 27.101454000306934 ], [ 88.359436999817291, 27.108881999834495 ], [ 88.367629000099583, 27.113228999622994 ], [ 88.369645999983419, 27.117277999742466 ], [ 88.379430999827008, 27.127591000289854 ], [ 88.388871999714027, 27.133701999836241 ], [ 88.396167999670638, 27.131296000020917 ], [ 88.398314000324234, 27.131448999727432 ], [ 88.396639999673738, 27.138552000280139 ], [ 88.396381999930881, 27.143401999735872 ], [ 88.406552999563829, 27.150391000284454 ], [ 88.416487000268674, 27.152659999753634 ], [ 88.422903999618114, 27.152032999871729 ], [ 88.435452999708247, 27.148096999891692 ], [ 88.442917999719285, 27.137051999961884 ] ] ] } },
{ "type": "Feature", "properties": { "pincode": "737131", "officename": "Rangli Bazar S.O", "officetype": "S.O", "circle": "West Bengal", "region": "Div Reporting", "division": "Sikkim", "state": "Sikkim", "district": "Sikkim" }, "geometry": { "type": "Polygon", "coordinates": [ [ [ 88.736229000042073, 27.275684999760585 ], [ 88.748588999986325, 27.260124000060092 ], [ 88.785667000169312, 27.262555999742684 ], [ 88.831428309924647, 27.262184877864129 ], [ 88.828159893967964, 27.257236383139844 ], [ 88.803096082769059, 27.247836216445332 ], [ 88.804200193101636, 27.236477352883945 ], [ 88.80273702974327, 27.232953762248354 ], [ 88.802048856455258, 27.227768563941417 ], [ 88.803268081399878, 27.219997903061 ], [ 88.798806712627339, 27.20758328175669 ], [ 88.796471150380825, 27.205769194825319 ], [ 88.789092633877118, 27.193825292876205 ], [ 88.789227248219092, 27.189102043242364 ], [ 88.788200395695895, 27.184576525970762 ], [ 88.786760369345998, 27.181986008226488 ], [ 88.783898194018676, 27.181890101155485 ], [ 88.77885036190952, 27.183529513546368 ], [ 88.769606814416917, 27.180521812211015 ], [ 88.764608139018449, 27.177017500647167 ], [ 88.762401900036821, 27.172585481540565 ], [ 88.757191023703626, 27.1653870106251 ], [ 88.758102165133366, 27.161220294818708 ], [ 88.757212047874532, 27.158665672991845 ], [ 88.759456995261715, 27.156079079448595 ], [ 88.760077843412461, 27.152184860939478 ], [ 88.756884873363234, 27.148195132600762 ], [ 88.749298638518098, 27.147440675732476 ], [ 88.746059162686564, 27.144259954273899 ], [ 88.747518574680328, 27.143930001193358 ], [ 88.738625000042617, 27.135398999813919 ], [ 88.73653600018875, 27.135359999985361 ], [ 88.728579999908035, 27.136416999729615 ], [ 88.724110000122238, 27.138339999689272 ], [ 88.72200500037485, 27.141793000165126 ], [ 88.717805999852416, 27.143309999674841 ], [ 88.71705500019003, 27.155971000086495 ], [ 88.716139999597814, 27.159774000066065 ], [ 88.712474999901076, 27.162483000394491 ], [ 88.710119999908414, 27.166846000118525 ], [ 88.704059000211146, 27.170140999661221 ], [ 88.701730999982644, 27.173869999614908 ], [ 88.688051000288567, 27.179331999852689 ], [ 88.680603999820889, 27.179503000354309 ], [ 88.682553999757573, 27.181276999723259 ], [ 88.685744999801386, 27.192021000344312 ], [ 88.672179999735008, 27.192399000078165 ], [ 88.662071000026344, 27.204641000258217 ], [ 88.658684999988836, 27.207445000262005 ], [ 88.659449999894917, 27.208795000118986 ], [ 88.661984999812617, 27.210366000085454 ], [ 88.666721999562085, 27.209980000319323 ], [ 88.669409999640664, 27.213838999930207 ], [ 88.671251999622342, 27.213715999947702 ], [ 88.671937000060765, 27.215325999905854 ], [ 88.675113999860898, 27.215778000027278 ], [ 88.683701000153363, 27.222386999882779 ], [ 88.68536400003488, 27.222664000107866 ], [ 88.689032999929609, 27.220679999669613 ], [ 88.689783999591981, 27.223046000216755 ], [ 88.692733999611363, 27.223455999641239 ], [ 88.689365000190605, 27.235743000148712 ], [ 88.686533000171991, 27.240475000123492 ], [ 88.669623999900907, 27.259436000311336 ], [ 88.656144000223335, 27.261357999966616 ], [ 88.692269000179266, 27.296015999667404 ], [ 88.713225999563448, 27.288500999611728 ], [ 88.736229000042073, 27.275684999760585 ] ] ] } },
{ "type": "Feature", "properties": { "pincode": "737132", "officename": "Rangpo S.O", "officetype": "S.O", "circle": "West Bengal", "region": "Div Reporting", "division": "Sikkim", "state": "Sikkim", "district": "Sikkim" }, "geometry": { "type": "Polygon", "coordinates": [ [ [ 88.561305999934575, 27.237460000102974 ], [ 88.568944000197959, 27.222787999910452 ], [ 88.57458800014372, 27.222896000167118 ], [ 88.584602000316181, 27.214961999804157 ], [ 88.589284999638963, 27.208883999821975 ], [ 88.608190999702416, 27.20254100019088 ], [ 88.607106999954112, 27.200174999656333 ], [ 88.604972000069495, 27.198828999780915 ], [ 88.606378000033061, 27.197912999992685 ], [ 88.603063000140693, 27.193618999956772 ], [ 88.599168000290177, 27.19312300032464 ], [ 88.596549999633453, 27.190918000261391 ], [ 88.597656999846294, 27.189797999882376 ], [ 88.595234999906495, 27.187775999773436 ], [ 88.594125000218938, 27.188105000268639 ], [ 88.593270999726101, 27.190980000263473 ], [ 88.591388999561474, 27.191172999649776 ], [ 88.59025399975954, 27.190334000148635 ], [ 88.589861000297461, 27.187337000389636 ], [ 88.588791999719462, 27.186357999915113 ], [ 88.58715200030251, 27.187205999661785 ], [ 88.587185999739347, 27.190043993368519 ], [ 88.585939999609366, 27.190391000050777 ], [ 88.583326999873876, 27.187596999725457 ], [ 88.58103499963039, 27.18880999966019 ], [ 88.567205999973368, 27.184765999684807 ], [ 88.558279999747171, 27.185610999803306 ], [ 88.555514999675708, 27.185265999927573 ], [ 88.551973999827496, 27.183098999847946 ], [ 88.542983000202327, 27.18318399980712 ], [ 88.540552000041657, 27.180821999683381 ], [ 88.539627000302033, 27.177379000267727 ], [ 88.538744000395198, 27.177296999849656 ], [ 88.536123000263771, 27.179358000160832 ], [ 88.535068999754387, 27.178892000296855 ], [ 88.532742000249158, 27.173791999631405 ], [ 88.530963000016683, 27.17217500011326 ], [ 88.527161999877478, 27.173679000173372 ], [ 88.521062999647057, 27.173453999872212 ], [ 88.520766000444453, 27.172890000288479 ], [ 88.522042999638273, 27.171370000375575 ], [ 88.527582000002042, 27.166509999745426 ], [ 88.531362000224846, 27.165139999712114 ], [ 88.531399000034753, 27.163682999603669 ], [ 88.528122999602118, 27.159465999903791 ], [ 88.52764099955327, 27.157398999782011 ], [ 88.533458999576325, 27.154962000153663 ], [ 88.532353999911635, 27.150060999762413 ], [ 88.528021000393181, 27.148987999938871 ], [ 88.521968000193496, 27.14891600002132 ], [ 88.51927099989409, 27.147515000317398 ], [ 88.518027000312244, 27.145935000122723 ], [ 88.517685999830377, 27.143226999789395 ], [ 88.513240000334051, 27.14075100004624 ], [ 88.511195999787688, 27.137239000162346 ], [ 88.505930999958636, 27.136611000003192 ], [ 88.499667999696655, 27.130911000293022 ], [ 88.498777000292193, 27.129055999813058 ], [ 88.499008000270877, 27.12550900019929 ], [ 88.497743999699225, 27.123815999643011 ], [ 88.495791000287795, 27.123524000382169 ], [ 88.48999300035625, 27.12583400033748 ], [ 88.487481999829683, 27.12591700034438 ], [ 88.486224999829005, 27.124893999813445 ], [ 88.486060999797473, 27.121857000263827 ], [ 88.485086999654044, 27.120919000352494 ], [ 88.479853999612004, 27.122520999817404 ], [ 88.476243000341952, 27.122302000106469 ], [ 88.468384000145605, 27.114816999711458 ], [ 88.466829000219136, 27.108972999899329 ], [ 88.46127700033486, 27.122089999886565 ], [ 88.442189999623139, 27.129058000122356 ], [ 88.442917999719285, 27.137051999961884 ], [ 88.459339000093706, 27.145617000107773 ], [ 88.467922000188253, 27.164252000145616 ], [ 88.465347000087561, 27.182271999685231 ], [ 88.438225000350741, 27.196013999677334 ], [ 88.405951999689321, 27.191739000291829 ], [ 88.403892999972655, 27.214792999723599 ], [ 88.392321000399022, 27.226295000327799 ], [ 88.399772999991256, 27.228683999611363 ], [ 88.408571000170937, 27.233998999717024 ], [ 88.407582999783799, 27.218494999754085 ], [ 88.48658499967911, 27.211021999771052 ], [ 88.489539999721416, 27.20856600017942 ], [ 88.485432000333859, 27.206053000134219 ], [ 88.485023999904868, 27.203630000343235 ], [ 88.488370999584305, 27.198877000375248 ], [ 88.489703999752933, 27.193722000243319 ], [ 88.496289000230163, 27.188208999679276 ], [ 88.496887999556577, 27.18490199995356 ], [ 88.502114999750816, 27.180077000257342 ], [ 88.506750000291362, 27.181211000371729 ], [ 88.508562999960702, 27.184962999650057 ], [ 88.520405999696024, 27.188412999716753 ], [ 88.51607300017757, 27.190746999677536 ], [ 88.515580000258083, 27.19229299980433 ], [ 88.522210999867738, 27.193748999969106 ], [ 88.523626000052175, 27.201872999699383 ], [ 88.52907699965408, 27.211053000178229 ], [ 88.561305999934575, 27.237460000102974 ] ] ] } },
{ "type": "Feature", "properties": { "pincode": "737133", "officename": "Rhenock S.O", "officetype": "S.O", "circle": "West Bengal", "region": "Div Reporting", "division": "Sikkim", "state": "Sikkim", "district": "Sikkim" }, "geometry": { "type": "Polygon", "coordinates": [ [ [ 88.685744999801386, 27.192021000344312 ], [ 88.682553999757573, 27.181276999723259 ], [ 88.671018999993848, 27.172999999662999 ], [ 88.666330999749846, 27.167820000114503 ], [ 88.66282599988665, 27.161668000078738 ], [ 88.660316000083313, 27.160554000279397 ], [ 88.657414999569411, 27.161927000214881 ], [ 88.65335400003751, 27.161934000037402 ], [ 88.651457999629187, 27.164851000014572 ], [ 88.646814999591044, 27.166168000225319 ], [ 88.639778999925397, 27.164842999741296 ], [ 88.635505999783092, 27.166683000346868 ], [ 88.634241000284831, 27.172587999733707 ], [ 88.631021999753614, 27.174258999763818 ], [ 88.628361000337506, 27.177175000032257 ], [ 88.626713002321253, 27.177554006640072 ], [ 88.625969002331601, 27.180366006883016 ], [ 88.622888000095998, 27.179358999865187 ], [ 88.622322000381558, 27.180372999955548 ], [ 88.622977999609361, 27.181851999771602 ], [ 88.622276000350794, 27.182455000591432 ], [ 88.620063999574953, 27.181939999724609 ], [ 88.618712000038073, 27.183338999707022 ], [ 88.614325000092933, 27.181692000187731 ], [ 88.603706999672937, 27.186232999889743 ], [ 88.601620000367205, 27.185664999979132 ], [ 88.599735999654442, 27.188545000247228 ], [ 88.596549999633453, 27.190918000261391 ], [ 88.599168000290177, 27.19312300032464 ], [ 88.603063000140693, 27.193618999956772 ], [ 88.606378000033061, 27.197912999992685 ], [ 88.604972000069495, 27.198828999780915 ], [ 88.607106999954112, 27.200174999656333 ], [ 88.608190999702416, 27.20254100019088 ], [ 88.612826000242961, 27.217368999855744 ], [ 88.616687999583206, 27.238413999634499 ], [ 88.624658999932549, 27.236225000273155 ], [ 88.626838000198077, 27.234369999972191 ], [ 88.643154000092238, 27.230033000051389 ], [ 88.640727000129559, 27.22641699991911 ], [ 88.640570999595639, 27.222445000286854 ], [ 88.662071000026344, 27.204641000258217 ], [ 88.672179999735008, 27.192399000078165 ], [ 88.685744999801386, 27.192021000344312 ] ] ] } },
{ "type": "Feature", "properties": { "pincode": "737134", "officename": "Singtam S.O", "officetype": "S.O", "circle": "West Bengal", "region": "Div Reporting", "division": "Sikkim", "state": "Sikkim", "district": "Sikkim" }, "geometry": { "type": "Polygon", "coordinates": [ [ [ 88.549417999993423, 27.3554570002741 ], [ 88.554311000276826, 27.354082999882738 ], [ 88.561177000063154, 27.354311000339912 ], [ 88.563239000152819, 27.339455000067371 ], [ 88.557351999634506, 27.337462000053954 ], [ 88.551039999867044, 27.332341000361332 ], [ 88.557228999610857, 27.325262000252057 ], [ 88.556922000362505, 27.317889999709003 ], [ 88.484218999815823, 27.28221600032666 ], [ 88.55826200020384, 27.27143400012028 ], [ 88.549522999575387, 27.258708999670265 ], [ 88.573798999948224, 27.253600000333833 ], [ 88.561305999934575, 27.237460000102974 ], [ 88.52907699965408, 27.211053000178229 ], [ 88.523626000052175, 27.201872999699383 ], [ 88.522210999867738, 27.193748999969106 ], [ 88.515580000258083, 27.19229299980433 ], [ 88.495811000379277, 27.203357000287394 ], [ 88.48658499967911, 27.211021999771052 ], [ 88.407582999783799, 27.218494999754085 ], [ 88.409342999749683, 27.246122000127418 ], [ 88.434791999559238, 27.256155999911723 ], [ 88.436851999999107, 27.268058000158991 ], [ 88.420613999922779, 27.270432000237797 ], [ 88.403256000113132, 27.274748000096029 ], [ 88.397005000445048, 27.307541000120061 ], [ 88.429735000142614, 27.344759000274454 ], [ 88.440762999743171, 27.381397000053759 ], [ 88.47359799992104, 27.378917999764507 ], [ 88.518509000361078, 27.36641399976077 ], [ 88.542845999934954, 27.362102000083002 ], [ 88.549417999993423, 27.3554570002741 ] ] ] } },
{ "type": "Feature", "properties": { "pincode": "737135", "officename": "Ranipool S.O", "officetype": "S.O", "circle": "West Bengal", "region": "Div Reporting", "division": "Sikkim", "state": "Sikkim", "district": "Sikkim" }, "geometry": { "type": "Polygon", "coordinates": [ [ [ 88.692269000179266, 27.296015999667404 ], [ 88.656144000223335, 27.261357999966616 ], [ 88.628425999736521, 27.265310999776474 ], [ 88.612633999724039, 27.262095999820836 ], [ 88.549522999575387, 27.258708999670265 ], [ 88.55826200020384, 27.27143400012028 ], [ 88.484218999815823, 27.28221600032666 ], [ 88.556922000362505, 27.317889999709003 ], [ 88.556683999812805, 27.312184000187333 ], [ 88.580535999863102, 27.310456999732612 ], [ 88.588448999587797, 27.301400999610255 ], [ 88.588561999565727, 27.29785900014987 ], [ 88.599622999676527, 27.289634000340769 ], [ 88.599896000386323, 27.291576999656524 ], [ 88.602719000184095, 27.293816000037822 ], [ 88.609636999848973, 27.304760000263855 ], [ 88.619893999695648, 27.293739999978548 ], [ 88.619439000309299, 27.289115999986635 ], [ 88.649542000027665, 27.296662999888166 ], [ 88.65973799977499, 27.320377000018027 ], [ 88.692269000179266, 27.296015999667404 ] ] ] } },
{ "type": "Feature", "properties": { "pincode": "737136", "officename": "Majitar S.O", "officetype": "S.O", "circle": "West Bengal", "region": "Div Reporting", "division": "Sikkim", "state": "Sikkim", "district": "Sikkim" }, "geometry": { "type": "Polygon", "coordinates": [ [ [ 88.506750000291362, 27.181211000371729 ], [ 88.502114999750816, 27.180077000257342 ], [ 88.49958900005393, 27.181818000188876 ], [ 88.496887999556577, 27.18490199995356 ], [ 88.496289000230163, 27.188208999679276 ], [ 88.489703999752933, 27.193722000243319 ], [ 88.488370999584305, 27.198877000375248 ], [ 88.485925000253374, 27.201796999925655 ], [ 88.484895000033433, 27.204850999846645 ], [ 88.485432000333859, 27.206053000134219 ], [ 88.489539999721416, 27.20856600017942 ], [ 88.495811000379277, 27.203357000287394 ], [ 88.515580000258083, 27.19229299980433 ], [ 88.51607300017757, 27.190746999677536 ], [ 88.520405999696024, 27.188412999716753 ], [ 88.508562999960702, 27.184962999650057 ], [ 88.506750000291362, 27.181211000371729 ] ] ] } },
{ "type": "Feature", "properties": { "pincode": "737139", "officename": "Ravangla S.O", "officetype": "S.O", "circle": "West Bengal", "region": "Div Reporting", "division": "Sikkim", "state": "Sikkim", "district": "Sikkim" }, "geometry": { "type": "Polygon", "coordinates": [ [ [ 88.36186499960489, 27.215069999659924 ], [ 88.346327999860492, 27.21463799960868 ], [ 88.338316000401605, 27.216364999976964 ], [ 88.324584999755558, 27.231126000036785 ], [ 88.309135000049821, 27.254018999920135 ], [ 88.300895999911901, 27.272329999802754 ], [ 88.307076000333197, 27.291554000083693 ], [ 88.30467199993673, 27.304976999697899 ], [ 88.307076000333197, 27.315958999740687 ], [ 88.315659000427701, 27.328159999968609 ], [ 88.332480999761813, 27.336700000243766 ], [ 88.328704999736985, 27.350728000135664 ], [ 88.327999000280471, 27.366522000017351 ], [ 88.330765000176854, 27.387010999767011 ], [ 88.340617999792514, 27.397364999712394 ], [ 88.350781999752783, 27.410905999771057 ], [ 88.356658000400458, 27.422052999839305 ], [ 88.392220000116666, 27.419929000300563 ], [ 88.41178899997891, 27.408651999978115 ], [ 88.416252000092015, 27.392192999819464 ], [ 88.429298000299639, 27.357742000196165 ], [ 88.429735000142614, 27.344759000274454 ], [ 88.397005000445048, 27.307541000120061 ], [ 88.403256000113132, 27.274748000096029 ], [ 88.420613999922779, 27.270432000237797 ], [ 88.436851999999107, 27.268058000158991 ], [ 88.434791999559238, 27.256155999911723 ], [ 88.409342999749683, 27.246122000127418 ], [ 88.408571000170937, 27.233998999717024 ], [ 88.399772999991256, 27.228683999611363 ], [ 88.378858000439891, 27.221977999839464 ], [ 88.36186499960489, 27.215069999659924 ] ] ] } }
]
}
