{
"type": "FeatureCollection",
"name": "the_dadra_and_nagar_haveli_and_daman_and_diu",
"crs": { "type": "name", "properties": { "name": "urn:ogc:def:crs:OGC:1.3:CRS84" } },
"features": [
{ "type": "Feature", "properties": { "pincode": "362520", "officename": "Diu S.O", "officetype": "S.O", "circle": "Gujarat", "region": "Rajkot", "division": "Junagadh", "state": "The Dadra And Nagar Haveli And Daman And Diu", "district": "Junagadh" }, "geometry": { "type": "Polygon", "coordinates": [ [ [ 70.926810000078476, 20.7370159997412 ], [ 70.931715000057451, 20.736892999643338 ], [ 70.937727000249254, 20.732743000022662 ], [ 70.939503000108687, 20.732403999796475 ], [ 70.946943000005362, 20.734606999998782 ], [ 70.954120000136271, 20.734919000236367 ], [ 70.960411999812266, 20.736721000295141 ], [ 70.963300999732283, 20.733572000380974 ], [ 70.964354000416762, 20.729615000309824 ], [ 70.971099999654157, 20.728803000003815 ], [ 70.974877000402216, 20.72751899973721 ], [ 70.97922699963911, 20.723594999673725 ], [ 70.981606962016869, 20.722942969980345 ], [ 70.980544592802289, 20.720291427075001 ], [ 70.981491136837377, 20.720681724822423 ], [ 70.982158844706618, 20.719741724645782 ], [ 70.984340332407172, 20.719997709132684 ], [ 70.989902490440684, 20.718839123519484 ], [ 70.991883203776936, 20.71673415389742 ], [ 70.995050661672124, 20.715554842395576 ], [ 70.99807920858332, 20.715933669691328 ], [ 70.994355126690337, 20.710987504175314 ], [ 70.991470879756463, 20.710546201731248 ], [ 70.989043109937597, 20.709179647052135 ], [ 70.988745839443766, 20.709892452141425 ], [ 70.986654768973168, 20.710042571135904 ], [ 70.984420186347734, 20.707598871428033 ], [ 70.979289742470115, 20.705983469435722 ], [ 70.976830439089838, 20.702029330897744 ], [ 70.975610943752287, 20.70259120139718 ], [ 70.976255411306795, 20.703376249933552 ], [ 70.975325611868584, 20.704427437540279 ], [ 70.973503815895981, 20.703967691542253 ], [ 70.972633811916353, 20.704893865862889 ], [ 70.971484019556655, 20.704212943472612 ], [ 70.971011777008414, 20.705422605576427 ], [ 70.969712322627444, 20.705151213183889 ], [ 70.970500019367478, 20.706496216355827 ], [ 70.968899894369315, 20.707791959602442 ], [ 70.96375255677448, 20.705801966577855 ], [ 70.961938786350601, 20.707015319136229 ], [ 70.959912364037734, 20.70706239020204 ], [ 70.95919618577075, 20.705782749950068 ], [ 70.958061907316008, 20.705936336693657 ], [ 70.954044152681917, 20.703796942144823 ], [ 70.951183074197516, 20.704562637408674 ], [ 70.951042537262907, 20.706006151395627 ], [ 70.949013365206966, 20.70634540145101 ], [ 70.94828257314694, 20.705354791345695 ], [ 70.945288852122644, 20.706342485649902 ], [ 70.944126305482513, 20.705906072778358 ], [ 70.938481204202233, 20.708100465745773 ], [ 70.938226706092351, 20.709713021868644 ], [ 70.93746070007316, 20.710118044829283 ], [ 70.928593528718281, 20.711844536999187 ], [ 70.922936949663594, 20.71109402424824 ], [ 70.917416902854015, 20.708724058025151 ], [ 70.915551252027527, 20.705679800747205 ], [ 70.91586374537215, 20.70312745223751 ], [ 70.917016227287846, 20.701963446187872 ], [ 70.913418421574306, 20.699518887673918 ], [ 70.911740354250554, 20.699777667629125 ], [ 70.912059660418279, 20.701482572230528 ], [ 70.910716643135927, 20.7020274351529 ], [ 70.909502643691283, 20.7010831496017 ], [ 70.899821714571686, 20.699140794972291 ], [ 70.897494860593511, 20.700141979969032 ], [ 70.897617011709215, 20.701654492271715 ], [ 70.898904926332037, 20.702335853871464 ], [ 70.898995640904403, 20.703223605099886 ], [ 70.89641236821825, 20.70556786874457 ], [ 70.90569200013752, 20.712286000352403 ], [ 70.912990999568891, 20.720152999702009 ], [ 70.921320000118484, 20.72569199976903 ], [ 70.92346699969869, 20.72874299968425 ], [ 70.923381000383287, 20.730830000399052 ], [ 70.922007000206747, 20.733317999725994 ], [ 70.92511768457598, 20.738078113121617 ], [ 70.926810000078476, 20.7370159997412 ] ] ] } },
{ "type": "Feature", "properties": { "pincode": "362540", "officename": "Ghoghla S.O", "officetype": "S.O", "circle": "Gujarat", "region": "Rajkot", "division": "Junagadh", "state": "The Dadra And Nagar Haveli And Daman And Diu", "district": "Junagadh" }, "geometry": { "type": "Polygon", "coordinates": [ [ [ 71.003120509940359, 20.736186798134561 ], [ 70.993178533094124, 20.730006445206207 ], [ 70.988709209739767, 20.721995836241934 ], [ 70.987031733507422, 20.721487871282697 ], [ 70.982648232500352, 20.725073995663596 ], [ 70.98162299784299, 20.72298900097628 ], [ 70.984426000244241, 20.732274999838133 ], [ 70.988609999799792, 20.733358000413094 ], [ 70.990798000286176, 20.735545999713963 ], [ 70.993481000341859, 20.736006999953375 ], [ 70.995605000355837, 20.73885200005487 ], [ 70.999049000119655, 20.740883999703748 ], [ 70.999516000099902, 20.74223300025448 ], [ 71.002198000330694, 20.741897000250091 ], [ 71.007126011553979, 20.737766770485312 ], [ 71.003120509940359, 20.736186798134561 ] ] ] } },
{ "type": "Feature", "properties": { "pincode": "362570", "officename": "Wanakbara S.O", "officetype": "S.O", "circle": "Gujarat", "region": "Rajkot", "division": "Junagadh", "state": "The Dadra And Nagar Haveli And Daman And Diu", "district": "Junagadh" }, "geometry": { "type": "Polygon", "coordinates": [ [ [ 70.92371440740601, 20.740976069252994 ], [ 70.925180999633838, 20.738174999899798 ], [ 70.922007000206747, 20.733317999725994 ], [ 70.923381000383287, 20.730830000399052 ], [ 70.92346699969869, 20.72874299968425 ], [ 70.922351000163346, 20.726977000213036 ], [ 70.912990999568891, 20.720152999702009 ], [ 70.90569200013752, 20.712286000352403 ], [ 70.89641236821825, 20.70556786874457 ], [ 70.895591103232704, 20.706506139312513 ], [ 70.889183436480749, 20.708599040972381 ], [ 70.873490024774057, 20.708633354479439 ], [ 70.873733982052372, 20.717418527136779 ], [ 70.87620574147239, 20.722804082922305 ], [ 70.875413301627646, 20.722981303098507 ], [ 70.876310999769188, 20.726614999859418 ], [ 70.878457000422785, 20.728922999731434 ], [ 70.884851000205998, 20.731652999974422 ], [ 70.893852999701863, 20.732414999800874 ], [ 70.905311000371, 20.736588999744466 ], [ 70.910043000097602, 20.736820000002464 ], [ 70.915825000135655, 20.742027999822991 ], [ 70.91784200001949, 20.742700000183827 ], [ 70.919869999773979, 20.743151000107293 ], [ 70.92371440740601, 20.740976069252994 ] ] ] } },
{ "type": "Feature", "properties": { "pincode": "396210", "officename": "Daman S.O", "officetype": "S.O", "circle": "Gujarat", "region": "Vadodara", "division": "Valsad", "state": "The Dadra And Nagar Haveli And Daman And Diu", "district": "Valsad" }, "geometry": { "type": "Polygon", "coordinates": [ [ [ 72.849752000392897, 20.474981999923404 ], [ 72.855833000181676, 20.471155000297738 ], [ 72.858123999701888, 20.465636999664781 ], [ 72.859778000260917, 20.464639000379375 ], [ 72.866602000214414, 20.463392000072332 ], [ 72.870473999600435, 20.463486999619928 ], [ 72.877254999896238, 20.461761000098736 ], [ 72.886546999820311, 20.462333999614472 ], [ 72.887998999814656, 20.460708000384187 ], [ 72.887130000151515, 20.454922999818219 ], [ 72.888336999923453, 20.449932000376979 ], [ 72.895322000433779, 20.444307999650395 ], [ 72.898110000071469, 20.438881999599779 ], [ 72.905024000436669, 20.43782200035205 ], [ 72.906176999781934, 20.434922000261306 ], [ 72.905873000008327, 20.431339000364641 ], [ 72.911639000152832, 20.428381000415044 ], [ 72.909089999991409, 20.421328999949019 ], [ 72.903557000373752, 20.415047999913931 ], [ 72.901926000279275, 20.41207199997924 ], [ 72.904394000249823, 20.405213999613764 ], [ 72.899823000181684, 20.400789000037577 ], [ 72.894641000193275, 20.401372999720834 ], [ 72.892702999952164, 20.399301999839995 ], [ 72.889721999970646, 20.399457999863049 ], [ 72.887726999828075, 20.399046000258686 ], [ 72.887536999857289, 20.398341999848331 ], [ 72.884304999805579, 20.399919999911429 ], [ 72.883205000163741, 20.398796999642833 ], [ 72.87907799961134, 20.399557000411033 ], [ 72.881649000412381, 20.401291999925821 ], [ 72.881716000359532, 20.402132000158677 ], [ 72.88561799988274, 20.402036000339823 ], [ 72.886648000102667, 20.404127999642647 ], [ 72.883816000084053, 20.408633000092944 ], [ 72.881112000111912, 20.411207000300841 ], [ 72.87682100042629, 20.413660000061082 ], [ 72.8720140003566, 20.411167000144619 ], [ 72.870512000133587, 20.399965000109994 ], [ 72.879060000067994, 20.398301999718868 ], [ 72.879321000183879, 20.391663999978867 ], [ 72.881718000009329, 20.386543999660251 ], [ 72.882113000019544, 20.38350100007812 ], [ 72.896587999756932, 20.37974600016517 ], [ 72.894949000164857, 20.377556000130966 ], [ 72.891549999708573, 20.375906000111598 ], [ 72.890851999749657, 20.372690999979749 ], [ 72.878913999579794, 20.370601999848553 ], [ 72.87801599960433, 20.372350000061331 ], [ 72.874131999624467, 20.375422000418482 ], [ 72.865878000316229, 20.377014999646676 ], [ 72.862114999811908, 20.382249000314985 ], [ 72.861929000039055, 20.394031999645073 ], [ 72.855619999746324, 20.404289000179162 ], [ 72.85278799972771, 20.40746599989842 ], [ 72.846608000204753, 20.409397000298526 ], [ 72.840642999868592, 20.410723999677135 ], [ 72.83021502906378, 20.410730357827482 ], [ 72.830462418804814, 20.411726762283401 ], [ 72.828702461059734, 20.414732603099068 ], [ 72.828338242721031, 20.419049902263698 ], [ 72.824554964545797, 20.42283385774461 ], [ 72.821154388444498, 20.4294330153148 ], [ 72.823091046602585, 20.434923170340703 ], [ 72.823097889968409, 20.439193601075605 ], [ 72.82579263639478, 20.442274943357518 ], [ 72.826013040744698, 20.446879178351541 ], [ 72.828309723905718, 20.451350901443814 ], [ 72.845332596418856, 20.469199447606098 ], [ 72.846370295200757, 20.475700109209296 ], [ 72.847818864529017, 20.474848365356248 ], [ 72.849078957429199, 20.476336919086009 ], [ 72.849752000392897, 20.474981999923404 ] ] ] } },
{ "type": "Feature", "properties": { "pincode": "396215", "officename": "Daman IE S.O", "officetype": "S.O", "circle": "Gujarat", "region": "Vadodara", "division": "Valsad", "state": "The Dadra And Nagar Haveli And Daman And Diu", "district": "Valsad" }, "geometry": { "type": "Polygon", "coordinates": [ [ [ 72.886648000102667, 20.404127999642647 ], [ 72.88561799988274, 20.402036000339823 ], [ 72.881716000359532, 20.402132000158677 ], [ 72.881649000412381, 20.401291999925821 ], [ 72.879002000341657, 20.399519999720372 ], [ 72.879060000067994, 20.398301999718868 ], [ 72.870512000133587, 20.399965000109994 ], [ 72.8720140003566, 20.411167000144619 ], [ 72.87682100042629, 20.413660000061082 ], [ 72.881112000111912, 20.411207000300841 ], [ 72.883816000084053, 20.408633000092944 ], [ 72.886648000102667, 20.404127999642647 ] ] ] } },
{ "type": "Feature", "properties": { "pincode": "396220", "officename": "Moti Daman S.O", "officetype": "S.O", "circle": "Gujarat", "region": "Vadodara", "division": "Valsad", "state": "The Dadra And Nagar Haveli And Daman And Diu", "district": "Valsad" }, "geometry": { "type": "Polygon", "coordinates": [ [ [ 72.840642999868592, 20.410723999677135 ], [ 72.85278799972771, 20.40746599989842 ], [ 72.855619999746324, 20.404289000179162 ], [ 72.861929000039055, 20.394031999645073 ], [ 72.862114999811908, 20.382249000314985 ], [ 72.865878000316229, 20.377014999646676 ], [ 72.874131999624467, 20.375422000418482 ], [ 72.87801599960433, 20.372350000061331 ], [ 72.881172000386371, 20.366204999804818 ], [ 72.87995800004343, 20.365238000010688 ], [ 72.867697999658304, 20.367399999832184 ], [ 72.862722000432512, 20.369219999964592 ], [ 72.857684000384168, 20.368935999665592 ], [ 72.855834999831472, 20.367198999732778 ], [ 72.853860999605345, 20.369371000311066 ], [ 72.853860999605345, 20.372178999596272 ], [ 72.851432999817746, 20.373714999860137 ], [ 72.843967999806708, 20.375650000414367 ], [ 72.841115999696612, 20.373942999852495 ], [ 72.835229000076595, 20.373886000307039 ], [ 72.830433999702507, 20.368822000222906 ], [ 72.825456999753484, 20.36722899977681 ], [ 72.821211710841069, 20.368158155258438 ], [ 72.820592556912956, 20.369849180433988 ], [ 72.820977918898507, 20.372949824855279 ], [ 72.825720677747256, 20.386402351080289 ], [ 72.826840397206183, 20.391950171253288 ], [ 72.825845485181262, 20.399992915786225 ], [ 72.822866897176269, 20.401342507032496 ], [ 72.823560692121305, 20.405782617901352 ], [ 72.824920302185319, 20.407434748149818 ], [ 72.827456866069909, 20.408364864458221 ], [ 72.83021502906378, 20.410730357827482 ], [ 72.840642999868592, 20.410723999677135 ] ] ] } },
{ "type": "Feature", "properties": { "pincode": "396230", "officename": "Silvassa S.O", "officetype": "S.O", "circle": "Gujarat", "region": "Vadodara", "division": "Valsad", "state": "The Dadra And Nagar Haveli And Daman And Diu", "district": "Valsad" }, "geometry": { "type": "Polygon", "coordinates": [ [ [ 73.095690628973585, 20.361221588335965 ], [ 73.098382000429424, 20.358428000215788 ], [ 73.098724999662792, 20.354928000162804 ], [ 73.101300999588389, 20.355008000169168 ], [ 73.104829999741028, 20.349818000334146 ], [ 73.105001000343577, 20.34788600036709 ], [ 73.104055999614118, 20.347524000309182 ], [ 73.105515000179452, 20.345190000330764 ], [ 73.107188999931623, 20.344385999797684 ], [ 73.107830999814055, 20.33891300016337 ], [ 73.111610000211925, 20.337544999831682 ], [ 73.107143999725793, 20.32756499962921 ], [ 73.108859000384143, 20.32418499968928 ], [ 73.103186999950992, 20.314204000089603 ], [ 73.100954000157074, 20.307764000103198 ], [ 73.100523999986748, 20.304543999906326 ], [ 73.102757999605601, 20.301164000156245 ], [ 73.108080000234381, 20.305671000009738 ], [ 73.112288000079346, 20.304142000250796 ], [ 73.116408999885664, 20.306234999949666 ], [ 73.119500000370408, 20.304866000411792 ], [ 73.123965999958216, 20.304382999823776 ], [ 73.129409000062523, 20.318311000229063 ], [ 73.138856999622234, 20.317624999835957 ], [ 73.140671000014805, 20.318344000356742 ], [ 73.151096000090988, 20.318309000323218 ], [ 73.153995000056753, 20.309876999853962 ], [ 73.153243000569475, 20.30846899986555 ], [ 73.154295000530723, 20.306838999764231 ], [ 73.155303999935938, 20.305953000236492 ], [ 73.157236000329291, 20.305853000298523 ], [ 73.159382999909482, 20.307221000352754 ], [ 73.159777000993103, 20.304947000242549 ], [ 73.158661000559434, 20.298426999665757 ], [ 73.163856000966646, 20.295569000290779 ], [ 73.164347000338012, 20.278219999775555 ], [ 73.171130000283654, 20.268154999904223 ], [ 73.17018600027744, 20.265015000275021 ], [ 73.167716000657052, 20.262595000287345 ], [ 73.165062999840274, 20.252417999738196 ], [ 73.163727000196886, 20.250332999785158 ], [ 73.161944000664761, 20.249912999972452 ], [ 73.160721999925912, 20.248546000359088 ], [ 73.161200000675109, 20.246758999757375 ], [ 73.163697000957981, 20.245050999591506 ], [ 73.164233000535191, 20.23927099977579 ], [ 73.166995000233612, 20.237676999913774 ], [ 73.166196999817259, 20.235029999735836 ], [ 73.166775999950488, 20.23354999988377 ], [ 73.167280999565548, 20.232805000159104 ], [ 73.169963999621274, 20.232765000208651 ], [ 73.164211999720479, 20.225636999981926 ], [ 73.170823999961897, 20.215488999892525 ], [ 73.173056999755815, 20.20920599991365 ], [ 73.170996000389351, 20.203084999846787 ], [ 73.17245500095467, 20.199621000269914 ], [ 73.177007000756234, 20.199056999938751 ], [ 73.179372999721224, 20.196258000035236 ], [ 73.178431000263146, 20.191146000282714 ], [ 73.176487999999139, 20.187159000046286 ], [ 73.177945000914661, 20.183513000312086 ], [ 73.17890100061642, 20.177709000021071 ], [ 73.181527999697323, 20.171891999684831 ], [ 73.185292999851498, 20.16733400013505 ], [ 73.191547000790962, 20.164429000084628 ], [ 73.202355000283461, 20.165226999799721 ], [ 73.205937999964462, 20.164029999961429 ], [ 73.208184001075466, 20.162321000037334 ], [ 73.216927999930164, 20.150355999879974 ], [ 73.220147000461381, 20.14881800015387 ], [ 73.226158000828264, 20.147963000111663 ], [ 73.225685000101947, 20.140148999885469 ], [ 73.22330099979699, 20.139679000298077 ], [ 73.221504000021156, 20.137454000180597 ], [ 73.217927000187956, 20.136645999946531 ], [ 73.216866000005894, 20.1330999996222 ], [ 73.216999999900196, 20.128608999632196 ], [ 73.21247499986282, 20.121544999627684 ], [ 73.208426000026506, 20.120061999806715 ], [ 73.213899000268029, 20.118991999663734 ], [ 73.21254699983281, 20.109883000317726 ], [ 73.212658000160928, 20.104844999771984 ], [ 73.209703000118637, 20.085329000233969 ], [ 73.204747999910964, 20.079958999654224 ], [ 73.203348999620076, 20.078960000030644 ], [ 73.198160999783894, 20.077849999918666 ], [ 73.196913999828979, 20.075939999942712 ], [ 73.188529008186038, 20.078102999881771 ], [ 73.189247000151596, 20.073254999769144 ], [ 73.188365999894557, 20.072432000296477 ], [ 73.187719999814192, 20.063439000394879 ], [ 73.186148999994174, 20.059171000040028 ], [ 73.18770999976843, 20.056978999689825 ], [ 73.192095999888664, 20.054705000024896 ], [ 73.190924000276794, 20.049600000043014 ], [ 73.187785000111532, 20.050735999639585 ], [ 73.185337000232437, 20.050127000129979 ], [ 73.184918999757699, 20.049342999707992 ], [ 73.183321999998427, 20.050279999796651 ], [ 73.179371000071413, 20.048806000408213 ], [ 73.177977999628311, 20.047043999800135 ], [ 73.17663199993919, 20.051954000009854 ], [ 73.174358999962323, 20.051195999767621 ], [ 73.170705000136195, 20.052046000273336 ], [ 73.167755999941718, 20.055768999950899 ], [ 73.165127000312665, 20.055242000241172 ], [ 73.163501000241084, 20.06055199976641 ], [ 73.161633000320137, 20.062007000220131 ], [ 73.156453999806487, 20.063512000007695 ], [ 73.157164000359259, 20.065872999764306 ], [ 73.155791999832573, 20.065875000381975 ], [ 73.154467000059881, 20.070416999889719 ], [ 73.151866999844842, 20.072549999695713 ], [ 73.154643999611878, 20.075761000349239 ], [ 73.149189999636903, 20.078999999758722 ], [ 73.148617000249786, 20.078488999912452 ], [ 73.148685000021842, 20.07484899968081 ], [ 73.146689999879314, 20.07385600025853 ], [ 73.143102000175432, 20.076413999585373 ], [ 73.14246699996572, 20.080304999948009 ], [ 73.14057499975533, 20.080373000330493 ], [ 73.139512999748362, 20.07878799998673 ], [ 73.13707900011299, 20.079123999779 ], [ 73.136243999886716, 20.081558000360499 ], [ 73.137387000084587, 20.085297999988999 ], [ 73.136385000352035, 20.086367000377344 ], [ 73.133350999768737, 20.086163000194695 ], [ 73.130700000398377, 20.08174999982948 ], [ 73.128483998526278, 20.082341998398849 ], [ 73.127321000033575, 20.083596000016904 ], [ 73.125499999968312, 20.083495999813376 ], [ 73.124094000004732, 20.077981000360737 ], [ 73.119045999910625, 20.078662000089839 ], [ 73.118933006220956, 20.075096996065444 ], [ 73.114340000123278, 20.07623899981655 ], [ 73.111920999658224, 20.074272999678179 ], [ 73.111963000389352, 20.071183999612796 ], [ 73.1108059999478, 20.073725999581391 ], [ 73.108461999825806, 20.0752999998566 ], [ 73.106061999627315, 20.074166999584847 ], [ 73.106973003614826, 20.075390001964539 ], [ 73.105661999594219, 20.078548000296774 ], [ 73.106454000162785, 20.085524000273384 ], [ 73.106035999688046, 20.087543000370346 ], [ 73.10226300003626, 20.091236999713715 ], [ 73.09632500036264, 20.09072800042064 ], [ 73.090302000300156, 20.091976999592653 ], [ 73.083548004260095, 20.091174006892043 ], [ 73.080955000124476, 20.092333999776503 ], [ 73.080591999901344, 20.094946000268166 ], [ 73.078558000299068, 20.094657000221133 ], [ 73.075434000202392, 20.096063999993547 ], [ 73.068165999834832, 20.09679099965998 ], [ 73.063692999676007, 20.099586999678156 ], [ 73.05518999994743, 20.099870999868948 ], [ 73.052059000178076, 20.085286000300769 ], [ 73.050623000077266, 20.06374399988087 ], [ 73.047360999888326, 20.065706999880675 ], [ 73.043148999845414, 20.065202999828593 ], [ 73.040237000359141, 20.06642200001907 ], [ 73.038304999965803, 20.068010000114253 ], [ 73.03047699973159, 20.079663000367042 ], [ 73.023364999897979, 20.084716999897104 ], [ 73.02182599986503, 20.08999999987498 ], [ 73.013703999902972, 20.096476000068012 ], [ 73.013378000388045, 20.100354999708138 ], [ 73.010433000391501, 20.105778000315905 ], [ 73.005185000280846, 20.110472999627877 ], [ 73.003365000040517, 20.110601999732548 ], [ 73.00073800006129, 20.112305999766253 ], [ 73.000590999748198, 20.1156379996834 ], [ 72.999123999685253, 20.120360999789909 ], [ 72.999609999932076, 20.123022000061496 ], [ 73.001396999662163, 20.124573000232349 ], [ 73.00422200000807, 20.124923999857447 ], [ 73.013202999587548, 20.129558999744166 ], [ 73.011649000384281, 20.134022999893311 ], [ 73.010413000300019, 20.134654000202708 ], [ 73.008904000404286, 20.133931999990015 ], [ 73.005000000332942, 20.135882000416537 ], [ 73.003286000397779, 20.140343999927325 ], [ 72.999221999594553, 20.142566000333652 ], [ 72.997504000359783, 20.142763000367189 ], [ 72.994598999647877, 20.138819000353394 ], [ 72.994234999599797, 20.137438000024435 ], [ 72.995347999660424, 20.132311999869248 ], [ 72.993940999871953, 20.128994999972726 ], [ 72.99181900040611, 20.117699000235135 ], [ 72.9796040002268, 20.115688000073838 ], [ 72.977359999663932, 20.112783000312469 ], [ 72.972811000235438, 20.11395900013671 ], [ 72.970498000075565, 20.115611000343165 ], [ 72.968945999623813, 20.120283999829141 ], [ 72.968523000024504, 20.123656000314828 ], [ 72.969325999565399, 20.124172999984964 ], [ 72.971048999721376, 20.129587000373704 ], [ 72.975450999735102, 20.132606999668315 ], [ 72.981704999776227, 20.133660999713882 ], [ 72.99372800033494, 20.141666999933761 ], [ 72.996752999799085, 20.145320000072736 ], [ 72.998749999591453, 20.150899999759972 ], [ 73.001883999733892, 20.153398000353661 ], [ 73.001535999579303, 20.149701000129575 ], [ 73.006561999932131, 20.147837999614623 ], [ 73.015461000394126, 20.14793900022638 ], [ 73.018594999638225, 20.149993000248276 ], [ 73.01988400032424, 20.151444000274616 ], [ 73.017350000231446, 20.155109999801223 ], [ 73.01957399980455, 20.155592999687379 ], [ 73.019832000445717, 20.15855399994588 ], [ 73.017535000179393, 20.161807999748017 ], [ 73.017448999965666, 20.163035999788711 ], [ 73.018458000269192, 20.163680999873044 ], [ 73.02283299962042, 20.16359000038614 ], [ 73.024209000345095, 20.170881999754904 ], [ 73.022534999694585, 20.171988999700382 ], [ 73.02236300016547, 20.173359000004787 ], [ 73.024836999983791, 20.175766000299326 ], [ 73.025596000042086, 20.1802949996517 ], [ 73.030726999976849, 20.18055099996122 ], [ 73.034896000362082, 20.178328999857367 ], [ 73.043579999840617, 20.179183999626161 ], [ 73.045219000331002, 20.178158000352727 ], [ 73.046373000399512, 20.174911000337506 ], [ 73.049711999683026, 20.175766000299326 ], [ 73.050016000354944, 20.177075999997445 ], [ 73.053234000162959, 20.175594999670185 ], [ 73.055542000299937, 20.176051000369064 ], [ 73.057606000039456, 20.172973999753296 ], [ 73.062394999667475, 20.170579000102638 ], [ 73.062653000308657, 20.169813999588783 ], [ 73.060334000301012, 20.166872999665756 ], [ 73.060290999744993, 20.161999000105386 ], [ 73.065185999678206, 20.158412999801836 ], [ 73.072527999665596, 20.15482799990998 ], [ 73.074074000269562, 20.156317999742264 ], [ 73.074546000272676, 20.160508000411909 ], [ 73.079011000035578, 20.172835000086028 ], [ 73.079654999567822, 20.1736010001582 ], [ 73.083176000222835, 20.172312000143027 ], [ 73.083474999973589, 20.173359000004787 ], [ 73.084377000146986, 20.172472999667445 ], [ 73.089443999609372, 20.179964999719417 ], [ 73.087425999900603, 20.182864999670858 ], [ 73.086910000414875, 20.181253999705998 ], [ 73.085064000235249, 20.181535999889274 ], [ 73.082746000052552, 20.182301000230176 ], [ 73.081415000432045, 20.18387199962212 ], [ 73.075445999897966, 20.185684999987341 ], [ 73.071205000441026, 20.188183999986006 ], [ 73.063393999925239, 20.195020000406917 ], [ 73.058293000127719, 20.205271999889884 ], [ 73.056714999736698, 20.210511999943503 ], [ 73.056714999736698, 20.213246000221233 ], [ 73.057200000158574, 20.214042999705018 ], [ 73.058171999753881, 20.21130899994116 ], [ 73.06035799969213, 20.214727000037914 ], [ 73.06035799969213, 20.216094000344221 ], [ 73.063029000052268, 20.215295999789944 ], [ 73.064000999647575, 20.217574000268929 ], [ 73.063198000106667, 20.222244000164512 ], [ 73.060526999746543, 20.223098999926449 ], [ 73.063512999750941, 20.22782499969567 ], [ 73.070422000093302, 20.232040000165757 ], [ 73.071634999713012, 20.239328000013231 ], [ 73.066912000207239, 20.247783999857702 ], [ 73.062445999721092, 20.249233000115073 ], [ 73.064336000281656, 20.252696000089003 ], [ 73.06289400033306, 20.258574000408981 ], [ 73.050992999973118, 20.260623999673086 ], [ 73.045102999980031, 20.259258000304424 ], [ 73.03890900021338, 20.260396000363748 ], [ 73.03884700028911, 20.258075000132632 ], [ 73.040948999663428, 20.255732999847925 ], [ 73.040736999951321, 20.254487000415207 ], [ 73.036915999720662, 20.255313000313564 ], [ 73.035370000015007, 20.25670200032032 ], [ 73.03446799984161, 20.259137000294686 ], [ 73.032170999575271, 20.260324999907983 ], [ 73.030839999954765, 20.258996000220073 ], [ 73.026803999638929, 20.259519999946566 ], [ 73.030619999846749, 20.253420000297702 ], [ 73.024609000378149, 20.253461000358691 ], [ 73.022634000327102, 20.252212000097018 ], [ 73.022590999771083, 20.250561999934977 ], [ 73.026454999659478, 20.243676999661837 ], [ 73.028129000309988, 20.24300100038786 ], [ 73.02478900030323, 20.240438999815151 ], [ 73.021265999998391, 20.240696999892741 ], [ 73.017014999597393, 20.238381999695498 ], [ 73.018110000114646, 20.233892000098024 ], [ 73.017014999597393, 20.23165700018729 ], [ 73.013580999879323, 20.231535999749262 ], [ 73.008321000073124, 20.228858999643023 ], [ 73.005380000274528, 20.231919000025833 ], [ 72.998639000161674, 20.236711000191484 ], [ 72.989660000232064, 20.238684000121545 ], [ 72.989706000262785, 20.247682999922091 ], [ 72.990983000354944, 20.255715000168088 ], [ 72.990006999663365, 20.266132000074418 ], [ 72.987381000407368, 20.271214000308124 ], [ 72.980641000119448, 20.277902999737464 ], [ 72.980488999783489, 20.280579000206565 ], [ 72.980913999930891, 20.290583999716414 ], [ 72.98507300027039, 20.291366999970322 ], [ 72.986561000249736, 20.290755000283848 ], [ 72.992826000161529, 20.292087000372916 ], [ 72.990811999752395, 20.295689999681723 ], [ 72.989201999574348, 20.296876999774366 ], [ 72.991478999749191, 20.30086200000752 ], [ 72.990779000140463, 20.304796000139095 ], [ 72.991369999969237, 20.306084000259755 ], [ 72.990047999671262, 20.310819999758255 ], [ 72.993098999973, 20.312783000011482 ], [ 72.994405000377441, 20.313039000260975 ], [ 72.997350000373984, 20.311786999698885 ], [ 73.005797999850955, 20.316425999991672 ], [ 73.006121999716072, 20.31526999979345 ], [ 73.008783999855382, 20.316034999664538 ], [ 73.010200999689587, 20.315732999879749 ], [ 73.012883999745313, 20.312714999926708 ], [ 73.012949000042653, 20.311587999709051 ], [ 73.014525999710443, 20.312180999783486 ], [ 73.016264999759926, 20.307951999735916 ], [ 73.021645999939977, 20.307040000012741 ], [ 73.024866000296129, 20.30799599976039 ], [ 73.031226999569057, 20.30562099995776 ], [ 73.037119999935157, 20.307281000130168 ], [ 73.03881299995389, 20.319384999852574 ], [ 73.042954999676638, 20.325769999979361 ], [ 73.048499999888193, 20.324266000360979 ], [ 73.057000999966945, 20.32668500021698 ], [ 73.062608000102784, 20.329315999659183 ], [ 73.067416999822299, 20.329918999642761 ], [ 73.07025100038905, 20.326477999968596 ], [ 73.070357999620867, 20.325311000075232 ], [ 73.07720599986385, 20.32338000034925 ], [ 73.078020000173694, 20.325716999966403 ], [ 73.081329000218318, 20.328234999844824 ], [ 73.084593000057069, 20.332173000268281 ], [ 73.08817800028622, 20.342051999587522 ], [ 73.090148000314372, 20.343828000381627 ], [ 73.090375999920028, 20.34675900038868 ], [ 73.088523999892629, 20.350401000390054 ], [ 73.089405000149625, 20.352606000176657 ], [ 73.089262000034495, 20.358920999886202 ], [ 73.09010999978122, 20.359796000080145 ], [ 73.094946999988125, 20.360279000252778 ], [ 73.095690628973585, 20.361221588335965 ] ] ] } },
{ "type": "Feature", "properties": { "pincode": "396235", "officename": "Naroli S.O", "officetype": "S.O", "circle": "Gujarat", "region": "Vadodara", "division": "Valsad", "state": "The Dadra And Nagar Haveli And Daman And Diu", "district": "Valsad" }, "geometry": { "type": "Polygon", "coordinates": [ [ [ 72.965495000187317, 20.303006000348731 ], [ 72.967240000084615, 20.299372000362801 ], [ 72.969472000053585, 20.296974000180612 ], [ 72.974470999743886, 20.296945000074221 ], [ 72.977635999848445, 20.298851999957048 ], [ 72.979321000369609, 20.298182999843874 ], [ 72.980702000218784, 20.295336999711111 ], [ 72.980641000119448, 20.277902999737464 ], [ 72.987381000407368, 20.271214000308124 ], [ 72.990263999581316, 20.264814000301001 ], [ 72.990983000354944, 20.255715000168088 ], [ 72.987510000278817, 20.220194000264776 ], [ 72.98928699996317, 20.212622000251379 ], [ 72.990651000093933, 20.21066600014905 ], [ 72.99114499983834, 20.204373999925615 ], [ 72.988891000128007, 20.200487999669999 ], [ 72.985915999994262, 20.198067000059442 ], [ 72.984700999826387, 20.195020000406917 ], [ 72.986401000416151, 20.193596000415404 ], [ 72.988132000069754, 20.194506999784554 ], [ 72.989558999949693, 20.194050999967612 ], [ 72.990798000406997, 20.188545000231464 ], [ 72.987584999723552, 20.185906000340665 ], [ 72.985582000083426, 20.177048000295361 ], [ 72.980785999884375, 20.179895999645257 ], [ 72.976779999705798, 20.180433000259423 ], [ 72.975145000311684, 20.18166400034233 ], [ 72.972971000068995, 20.18127700037693 ], [ 72.96893399992824, 20.183420999770963 ], [ 72.963031000414716, 20.182210999789746 ], [ 72.96085100032424, 20.186054999776303 ], [ 72.961781000086745, 20.192033999723165 ], [ 72.959902000295159, 20.198713999983674 ], [ 72.959846000218661, 20.201220999820514 ], [ 72.961981000103293, 20.210046999832361 ], [ 72.949518000226874, 20.215847999678008 ], [ 72.941443999945378, 20.217007999707015 ], [ 72.935516000317463, 20.21581899958754 ], [ 72.936339999774773, 20.218045999785499 ], [ 72.935331000369558, 20.222536000104938 ], [ 72.931011000371583, 20.225811000419473 ], [ 72.928098999987014, 20.225219999986706 ], [ 72.926574000197775, 20.228223999955322 ], [ 72.927128000216641, 20.231006999974515 ], [ 72.924860000262612, 20.233520000065681 ], [ 72.922081999772345, 20.232787000351262 ], [ 72.920981000305616, 20.234181999931696 ], [ 72.919740000198487, 20.241492000231183 ], [ 72.913666999907321, 20.242324999858241 ], [ 72.920028999903494, 20.258130999870293 ], [ 72.918383999565322, 20.25867399966512 ], [ 72.917518000275265, 20.263392999846342 ], [ 72.915862999891331, 20.264160000256723 ], [ 72.914816999777869, 20.266328999715729 ], [ 72.914396999653292, 20.265738000041527 ], [ 72.913226999691275, 20.269284999983764 ], [ 72.910110000165616, 20.27113500021456 ], [ 72.909122999603383, 20.273993000121212 ], [ 72.909638000162502, 20.280514000057575 ], [ 72.908052000273884, 20.283210999682431 ], [ 72.906678000097358, 20.283574000397703 ], [ 72.907365000185621, 20.285023000153398 ], [ 72.914374000087065, 20.28554600027655 ], [ 72.920624999755162, 20.287210999792311 ], [ 72.92585000029959, 20.290199999957089 ], [ 72.925456000114281, 20.29182199975951 ], [ 72.923086999877924, 20.293274000264724 ], [ 72.923602000437072, 20.297684999871052 ], [ 72.922882999663443, 20.30746100016545 ], [ 72.928806000166759, 20.306223000420459 ], [ 72.932874000269649, 20.303150000156762 ], [ 72.940950000200971, 20.300530999834901 ], [ 72.940977999790078, 20.304543999906326 ], [ 72.947809000314592, 20.307332999693813 ], [ 72.953615999568655, 20.312835000254413 ], [ 72.956192000392562, 20.310279999788722 ], [ 72.962623999810631, 20.306516999991715 ], [ 72.965495000187317, 20.303006000348731 ] ] ] } },
{ "type": "Feature", "properties": { "pincode": "396240", "officename": "Karad Daman Project S.O", "officetype": "S.O", "circle": "Gujarat", "region": "Vadodara", "division": "Valsad", "state": "The Dadra And Nagar Haveli And Daman And Diu", "district": "Valsad" }, "geometry": { "type": "Polygon", "coordinates": [ [ [ 73.050992999973118, 20.260623999673086 ], [ 73.06289400033306, 20.258574000408981 ], [ 73.064336000281656, 20.252696000089003 ], [ 73.062445999721092, 20.249233000115073 ], [ 73.066912000207239, 20.247783999857702 ], [ 73.071634999713012, 20.239328000013231 ], [ 73.070422000093302, 20.232040000165757 ], [ 73.063512999750941, 20.22782499969567 ], [ 73.060526999746543, 20.223098999926449 ], [ 73.063198000106667, 20.222244000164512 ], [ 73.064000999647575, 20.217574000268929 ], [ 73.063029000052268, 20.215295999789944 ], [ 73.06035799969213, 20.216094000344221 ], [ 73.06035799969213, 20.214727000037914 ], [ 73.058171999753881, 20.21130899994116 ], [ 73.057200000158574, 20.214042999705018 ], [ 73.056714999736698, 20.213246000221233 ], [ 73.056714999736698, 20.210511999943503 ], [ 73.058293000127719, 20.205271999889884 ], [ 73.063393999925239, 20.195020000406917 ], [ 73.071205000441026, 20.188183999986006 ], [ 73.075445999897966, 20.185684999987341 ], [ 73.081415000432045, 20.18387199962212 ], [ 73.082746000052552, 20.182301000230176 ], [ 73.085064000235249, 20.181535999889274 ], [ 73.086910000414875, 20.181253999705998 ], [ 73.087425999900603, 20.182864999670858 ], [ 73.089443999609372, 20.179964999719417 ], [ 73.084377000146986, 20.172472999667445 ], [ 73.083474999973589, 20.173359000004787 ], [ 73.083176000222835, 20.172312000143027 ], [ 73.079654999567822, 20.1736010001582 ], [ 73.079011000035578, 20.172835000086028 ], [ 73.074546000272676, 20.160508000411909 ], [ 73.074074000269562, 20.156317999742264 ], [ 73.072527999665596, 20.15482799990998 ], [ 73.065185999678206, 20.158412999801836 ], [ 73.060290999744993, 20.161999000105386 ], [ 73.060334000301012, 20.166872999665756 ], [ 73.062653000308657, 20.169813999588783 ], [ 73.062394999667475, 20.170579000102638 ], [ 73.057606000039456, 20.172973999753296 ], [ 73.055542000299937, 20.176051000369064 ], [ 73.053234000162959, 20.175594999670185 ], [ 73.050016000354944, 20.177075999997445 ], [ 73.049711999683026, 20.175766000299326 ], [ 73.046373000399512, 20.174911000337506 ], [ 73.045219000331002, 20.178158000352727 ], [ 73.043579999840617, 20.179183999626161 ], [ 73.034896000362082, 20.178328999857367 ], [ 73.030726999976849, 20.18055099996122 ], [ 73.025596000042086, 20.1802949996517 ], [ 73.024836999983791, 20.175766000299326 ], [ 73.02236300016547, 20.173359000004787 ], [ 73.022534999694585, 20.171988999700382 ], [ 73.024209000345095, 20.170881999754904 ], [ 73.02283299962042, 20.16359000038614 ], [ 73.018458000269192, 20.163680999873044 ], [ 73.017448999965666, 20.163035999788711 ], [ 73.017535000179393, 20.161807999748017 ], [ 73.019832000445717, 20.15855399994588 ], [ 73.01957399980455, 20.155592999687379 ], [ 73.017350000231446, 20.155109999801223 ], [ 73.01988400032424, 20.151444000274616 ], [ 73.018594999638225, 20.149993000248276 ], [ 73.015461000394126, 20.14793900022638 ], [ 73.006561999932131, 20.147837999614623 ], [ 73.001535999579303, 20.149701000129575 ], [ 73.001883999733892, 20.153398000353661 ], [ 72.998749999591453, 20.150899999759972 ], [ 72.996752999799085, 20.145320000072736 ], [ 72.99372800033494, 20.141666999933761 ], [ 72.981704999776227, 20.133660999713882 ], [ 72.974145000228987, 20.13206600026291 ], [ 72.971048999721376, 20.129587000373704 ], [ 72.969325999565399, 20.124172999984964 ], [ 72.968523000024504, 20.123656000314828 ], [ 72.965207000307217, 20.124651999635145 ], [ 72.963583999710337, 20.126036999614573 ], [ 72.963085999767983, 20.128540999958549 ], [ 72.961269999725573, 20.13067200024091 ], [ 72.960823999661741, 20.133277999988163 ], [ 72.961581999895103, 20.137098999757306 ], [ 72.974402999971829, 20.160246000171171 ], [ 72.973598999707704, 20.16717300036559 ], [ 72.973854999800736, 20.174737000354021 ], [ 72.976879000338329, 20.178649999796658 ], [ 72.976782000253934, 20.180433000259423 ], [ 72.980785999884375, 20.179895999645257 ], [ 72.985582000083426, 20.177048000295361 ], [ 72.987584999723552, 20.185906000340665 ], [ 72.990798000406997, 20.188545000231464 ], [ 72.989558999949693, 20.194050999967612 ], [ 72.988132000069754, 20.194506999784554 ], [ 72.986401000416151, 20.193596000415404 ], [ 72.984700999826387, 20.195020000406917 ], [ 72.985915999994262, 20.198067000059442 ], [ 72.988891000128007, 20.200487999669999 ], [ 72.99114499983834, 20.204373999925615 ], [ 72.990651000093933, 20.21066600014905 ], [ 72.98928699996317, 20.212622000251379 ], [ 72.987510000278817, 20.220194000264776 ], [ 72.989660000232064, 20.238684000121545 ], [ 72.998639000161674, 20.236711000191484 ], [ 73.005380000274528, 20.231919000025833 ], [ 73.008321000073124, 20.228858999643023 ], [ 73.013580999879323, 20.231535999749262 ], [ 73.017014999597393, 20.23165700018729 ], [ 73.018110000114646, 20.233892000098024 ], [ 73.017014999597393, 20.238381999695498 ], [ 73.021265999998391, 20.240696999892741 ], [ 73.02478900030323, 20.240438999815151 ], [ 73.028129000309988, 20.24300100038786 ], [ 73.026454999659478, 20.243676999661837 ], [ 73.022590999771083, 20.250561999934977 ], [ 73.022634000327102, 20.252212000097018 ], [ 73.024609000378149, 20.253461000358691 ], [ 73.030619999846749, 20.253420000297702 ], [ 73.026803999638929, 20.259519999946566 ], [ 73.030839999954765, 20.258996000220073 ], [ 73.032170999575271, 20.260324999907983 ], [ 73.03446799984161, 20.259137000294686 ], [ 73.035370000015007, 20.25670200032032 ], [ 73.036915999720662, 20.255313000313564 ], [ 73.040736999951321, 20.254487000415207 ], [ 73.040948999663428, 20.255732999847925 ], [ 73.03884700028911, 20.258075000132632 ], [ 73.03890900021338, 20.260396000363748 ], [ 73.045102999980031, 20.259258000304424 ], [ 73.050992999973118, 20.260623999673086 ] ] ] } }
]
}
